name,Lat,Lon,adr,city,postcode,phone_loc,phone_int,www
Vape Emporium,51.4606482,-0.302234,16 Eton St,Richmond,TW9 1EE,020 8940 7111,+44 20 8940 7111,http://vapeemporium.com/
The Vape Shop,51.4577963,0.1372504,238A Broadway,Bexleyheath,DA6 8AS,020 8298 1321,+44 20 8298 1321,http://thevapeshops.uk/
The Vape Shop Beckenham,51.408773,-0.039916,"Clockhouse, 7",Beckenham,BR3 4PT,07599 893465,+44 7599 893465,
Shop E-Cigarette | Vape and Ecig Supplies in London,51.4931277,-0.2359879,208 King St,London,W6 0RA,020 3609 4400,+44 20 3609 4400,https://www.shopec.co.uk/
Another Vape Shop,52.5796991,-0.2740753,69 Ledbury Rd,Peterborough,PE3 9RF,07745 631959,+44 7745 631959,http://www.anothervapeshop.com/
"Total E-Cig Vape Shop & Cafe, Beccles",52.455184,1.5667507,12 Grove Rd,Beccles,NR34 9RB,01502 217210,+44 1502 217210,http://www.totalecig.co.uk/
Vape and Juice - VapeChurch,51.5414555,0.7369204,789 Southchurch Rd,Southend-on-Sea,SS1 2PP,01702 864608,+44 1702 864608,http://vapeandjuice.co.uk/
The London Vape Company Holloway Road Shop,51.5510489,-0.1104443,213 Holloway Rd,London,N7 8DL,020 7700 2825,+44 20 7700 2825,http://www.thevapecig.co.uk/
Vape Emporium,51.5576271,-0.1785361,"87, Heath St",London,NW3 6UG,020 7693 7279,+44 20 7693 7279,http://www.vapeemporium.com/
www.vapingliquid.com,52.2140186,0.1258631,11 Victoria Ave,Cambridge,CB4 1EG,01223 350042,+44 1223 350042,http://www.vapingliquid.com/
The vape shop,51.4464741,0.2171176,"1, Apple Court, Home Gardens",Dartford,DA1 1GA,01322 292670,+44 1322 292670,http://www.thevapeshops.uk/
Another Vape Shop,52.6527223,-0.4756381,3 St. Leonard's St,Stamford,PE9 2HU,07745 631959,+44 7745 631959,http://www.anothervapeshop.com/
"Total E-Cig Vape Shop & Cafe, Lowestoft",52.4788728,1.7532747,17 Milton Rd E,Lowestoft,NR32 1NT,01502 588788,+44 1502 588788,http://www.totalecig.co.uk/
Smoketronics Vape & Coffee Shop,51.4275818,-0.0872325,235 Gipsy Rd,London,SE27 9QY,020 8761 7627,+44 20 8761 7627,http://www.smoketronics.co.uk/
Essex Vape LTD,51.5747196,0.1863508,58 Victoria Rd,Romford,RM1 2JH,01708 768645,+44 1708 768645,http://www.essexvapeltd.com/
Vape Royale Broadstairs,51.3587224,1.4409251,24 High St,Broadstairs,CT10 1LH,01843 446767,+44 1843 446767,http://www.vaperoyale.co.uk/
The London Vape Company,51.6488747,-0.1695556,102 E Barnet Rd,London,EN4 8RE,020 8441 9427,+44 20 8441 9427,http://www.thevapecig.co.uk/
Cambridge Tobacconist,52.2140186,0.1258631,11 Victoria Ave,Cambridge,CB4 1EG,01223 350042,+44 1223 350042,http://www.cambridgetobacconist.com/
Le-Vap,51.5356481,-0.1398331,49 Camden High St,London,NW1 7JH,020 7387 7222,+44 20 7387 7222,https://le-vap.com/
Vape Club,51.640262,-0.431235,"29 Orbital 25 Business Pk/Dwight Rd, Northwood",Watford,WD18 9DA,01923 479992,+44 1923 479992,http://www.vapeclub.co.uk/
Lunar Vape,54.955065,-1.607881,"100 Coatsworth Rd, Gateshead",Bensham,NE8 1SR,0870 820 0303,+44 870 820 0303,http://lunar-vape.com/
Safe Vape,54.972536,-1.519136,"Unit 6, 11 ST Johns Precinct",Hebburn,NE31 1LG,0191 489 9744,+44 191 489 9744,http://www.safevape.net/
The Festival Shop,54.577413,-1.2354898,"40-50, Dundas Arcade, Dundas St",Middlesbrough,TS1 1HT,01642 245050,+44 1642 245050,
Vaporized,54.8943684,-2.9332706,40 Lowther St,Carlisle,CA3 8DH,01228 810220,+44 1228 810220,
Vaporized,54.973227,-1.6117185,"6 Market St, Newcastle upon Tyne NE1 6JF, ",,NE1 6JF,0191 261 5162,+44 191 261 5162,http://www.vaporized.co.uk/
The Vapour Bar,54.1968458,-3.0956896,26 King St,Ulverston,LA12 7DZ,01229 588222,+44 1229 588222,http://thevapourbar.co.uk/
Ecigwizard Sunderland,54.903507,-1.385138,1 Park Ln,Sunderland,SR1 3NX,0191 567 8268,+44 191 567 8268,https://www.facebook.com/ecigwizardsunderland
Vapour Fresh,55.463256,-4.63294,"Unit 35, Queens Court",Ayr,KA7 1LE,01292 737278,+44 1292 737278,
The Vapour Bar,54.1151605,-3.2267707,226 Dalton Rd,Barrow-in-Furness,LA14 1PN,01229 836855,+44 1229 836855,http://www.thevapourbar.co.uk/
Vaporized,55.614953,-2.806124,17 Market St,Galashiels,TD1 3AD,01896 209036,+44 1896 209036,
Vvapour Ecigarettes and Eliquids Blackpool,53.8187935,-3.0401171,316A Church St,Blackpool,FY1 3QE,07711 065210,+44 7711 065210,http://vvapour.co.uk/locations/blackpool-vvapour-e-cig-store/
candy clouds vape shop,53.7884519,-2.2811267,"6 Rosegrove Ln, Burnley","rosegrove, burnley",BB12 6HX,07473 315314,+44 7473 315314,
Vaping Caterpillar,55.8578543,-4.2594174,54 Oswald St,Glasgow,G1 4PL,0141 230 8028,+44 141 230 8028,http://www.vapingcaterpillar.com/shop/4586811934
Cool Breeze E-Cigs,53.9096662,-1.3571813,"34 West Ave, Boston Spa",Wetherby,LS23 6EJ,01937 918624,+44 1937 918624,http://www.cool-breeze-e-cigs.com/
The Vape Bar,53.7874628,-2.2354343,31 Oxford Rd,Burnley,BB11 3BB,01282 451301,+44 1282 451301,http://www.tecs-shop.co.uk/
The Vape Store Bolton,53.567427,-2.442595,319 Derby St,Bolton,BL3 6LH,07784 983386,+44 7784 983386,http://facebook.com/thevapestorebolton
Emporium Vapour,55.8584812,-4.2202561,449 Duke St,Glasgow,G31 1RD,0800 612 7270,+44 800 612 7270,http://empvap.com
Vampire Vape,53.7442621,-2.3949015,"204 Union Rd, Oswaldtwistle",Accrington,BB5 3EG,07913 378642,+44 7913 378642,http://www.vampirevape.co.uk/
"Vvapour e-Cigarettes, e-Liquids and Starter Kits",55.9551848,-2.775556,10 High St,Haddington,EH41 3ES,01620 823670,+44 1620 823670,http://vvapour.co.uk/locations/edinburgh-e-cig-store/
Totally Wicked,53.739053,-2.499099,Stancliffe St,Blackburn,BB2 2QR,01254 692244,+44 1254 692244,http://www.totallywicked-eliquid.co.uk/
Senior Vape Electronic Cigarettes and E-juice Emporium.,53.0185374,-1.3081606,"16 Mansfield Rd, Eastwood",Nottingham,NG16 3AQ,01773 530569,+44 1773 530569,http://www.seniorvape.com/
Vvapour Erdington e-Cig Vape Shop,52.5232113,-1.841863,"13 York Rd, Birmingham B23 6TE, ",,B23 6TE,0121 293 7821,+44 121 293 7821,http://vvapour.co.uk/locations/e-cig-erdington-birmingham/
Vape Station,53.384209,-1.5079769,164 Crookes,Sheffield,S10 1UH,0114 327 5642,+44 114 327 5642,http://cbdvapestore.tk/
Moon Vapez E Cig Vape Shop,52.470176,-1.888224,1 Adelaide St,Birmingham,B12 0SH,0121 622 3575,+44 121 622 3575,https://www.moonvapez.co.uk/
Bitandpieces Vape,52.3956235,-1.9967458,"1678 Bristol Rd S, Rednal",Birmingham,B45 9TZ,0121 457 7951,+44 121 457 7951,http://www.bitandpiecesvape.co.uk/
Tutzys Piccadilly Vape shop,53.480385,-2.237636,"Unit Plaza, 14 Piccadilly",Manchester,M1 4AJ,0161 236 9763,+44 161 236 9763,
V Vapour,52.5399975,-1.8706064,590-592 College Rd,Birmingham,B44 0HU,0121 293 8485,+44 121 293 8485,http://vvapour.co.uk/
Vapour Store Worksop,53.3062212,-1.1225798,9 Watson Rd,Worksop,S80 2BA,01909 474235,+44 1909 474235,http://www.vapourstoreuk.com/
"Vapor Mail, Vape Shop",52.1917068,-1.7075703,"Unit 7B Antiques Centre, 59-, 60 Ely St",Stratford-upon-Avon,CV37 6ET,07531 504373,+44 7531 504373,https://www.facebook.com/vapormailuk/
Flavour Vapour Walsall,52.5834226,-1.9781651,"37 Goodall St, Walsall",Walsall centre,WS1 1QL,07771 483306,+44 7771 483306,
Vvapour Ecigarettes and Eliquids Kings Heath,52.405057,-1.885469,"Unit Behind KFC and Subway, 4 Maypole Ln",Birmingham,B14 5JG,0121 430 4836,+44 121 430 4836,http://vvapour.co.uk/locations/e-cig-maypole-birmingham/
Grey Haze,52.4743559,-1.8818789,"163a High Street, Digbeth",Birmingham,B12 0LD,,,https://greyhaze.co.uk/pages/retail-stores
CoolVape,52.952071,-1.152342,48 Friar Ln,Nottingham,NG1 6DQ,0115 947 6860,+44 115 947 6860,http://coolvape.co.uk/pages/our-nottingham-store
Flavour Vapour St Helens,53.453097,-2.737154,9 Barrow St,Saint Helens,WA10 1RX,01744 757497,+44 1744 757497,http://www.flavourvapour.co.uk/
I Fancy One,52.6329655,-1.6947726,20 George St,Tamworth,B79 7LL,01827 767020,+44 1827 767020,http://www.ifancyone.com/
JDVaping,52.4756971,-2.0675424,Halesowen Rd,Cradley Heath,B64 6HN,,,http://www.jdvaping.co.uk/
Smokeyjoes Electronic Cigarettes,52.3724437,-1.2492941,131A Clifton Rd,Rugby,CV21 3QJ,07804 249357,+44 7804 249357,http://www.smokeyjoes.biz/
MooreVape Ltd,52.236613,-0.899468,3 St Peter's Way,Northampton,NN1 1PT,01604 633221,+44 1604 633221,http://www.moorevape.co.uk/
The Vape Shop,50.733422,-1.7762978,4 Wick Ln,Christchurch,BH23 1HX,0800 193 0157,+44 800 193 0157,http://www.thevapeshop.co.uk/index.php?route=common/home
Go Vape,51.5592604,-1.7853886,39 Havelock St,Swindon,SN1 1SD,01793 612044,+44 1793 612044,http://www.govapestore.co.uk/
Vape Town Tiverton,50.9026554,-3.4893629,"6 Angel Hill, Tiverton",Ttiverton,EX16 6PE,01884 230992,+44 1884 230992,http://www.vapetown.co.uk/
Vape Town Barnstaple,51.080996,-4.056726,"Shop 2, Queens Walk,, Bear St",Barnstaple,EX32 7DA,01271 379495,+44 1271 379495,http://www.vapetown.co.uk/
Bh Vape,50.7420952,-1.8612427,368 Charminster Rd,Bournemouth,BH8 9RX,07817 337575,+44 7817 337575,http://www.bhvape.co.uk/
Steamachine Vape Shop,50.789905,-1.08658,"Southsea, 76 Elm Grove",Portsmouth,PO5 1LN,023 9243 1761,+44 23 9243 1761,http://www.steamachine.eu/
Cirrus vape shop,50.7990006,-3.1886317,13 New St,Honiton,EX14 1HA,01404 371425,+44 1404 371425,
The Vape Shop,50.721782,-1.875435,92 Christchurch Rd,Bournemouth,BH1 1LR,0800 193 0157,+44 800 193 0157,http://www.thevapeshop.co.uk/
Oxford Vapours,51.7835898,-1.4880695,37A Corn St,Witney,OX28 6BT,01993 358268,+44 1993 358268,https://www.oxfordvapours.com/
The Vape Shop,50.726595,-1.839587,576 Christchurch Rd,Bournemouth,BH1 4BH,0800 193 0157,+44 800 193 0157,http://www.thevapeshop.co.uk/
The Bristol Vaping Company,51.4823815,-2.5877798,322 Gloucester Rd,Bristol,BS7 8TJ,0117 924 7884,+44 117 924 7884,http://www.bristolvapeco.com/
Berkshire Vapers (Caversham),51.4683475,-0.971834,35 Prospect St,Reading,RG4 8JB,0118 327 1101,+44 118 327 1101,http://berkshirevapers.co.uk/
Zara Vape,50.7183322,-1.9804143,"Unit K, Link Mall, Dolphin Centre",Poole,BH15 1TF,07447 903350,+44 7447 903350,http://www.zaravape.com
Vape-It uk Ltd,51.0255097,-3.1301063,"3, Apple Business Centre, Frobisher Way",Taunton,TA2 6BB,01823 338646,+44 1823 338646,http://www.vape-it.co.uk/
Totally Wicked [Vape Smart],51.522339,-0.720246,12 Queen St,Maidenhead,SL6 1HZ,01628 675572,+44 1628 675572,http://www.vape-smart.co.uk/
Vape-It UK Ltd,51.0255097,-3.1301063,"3, Apple Business Centre, Frobisher Way",Taunton,TA2 6BB,01823 338646,+44 1823 338646,http://www.vape-it.co.uk/
Vapour Lounge,50.7287956,-1.9406822,341 Ashley Rd,Poole,BH14 0AR,01202 610183,+44 1202 610183,http://vapourlounge.co.uk/
Vapertrails Portsmouth,50.798718,-1.076717,102 Fratton Rd,Portsmouth,PO1 5BZ,023 9281 5638,+44 23 9281 5638,http://www.vapertrail.co.uk/store-finder-27-w.asp
Flavour Vapour,51.4715414,-2.5928295,24 Gloucester Rd,Bristol,BS7 8AE,0117 329 0203,+44 117 329 0203,http://www.flavourvapour.co.uk/
BEAUM VAPE,51.4799584,-3.1720694,"3, Ivor House, Bridge St",Cardiff,CF10 2TH,029 2037 2687,+44 29 2037 2687,http://www.beaumvape.co.uk/
E-times vape shop south molton,51.018086,-3.833531,140 East St,South Molton,EX36 3BU,07580 060510,+44 7580 060510,
The Grumpy Monkey Vape Shop,50.72197,-1.86755,278 Old Christchurch Rd,Bournemouth,BH1 1PH,01202 929164,+44 1202 929164,http://www.thegrumpymonkey.co.uk/
Triple Eight Vape,51.1273143,-2.7402572,14 Farm Rd,Street,BA16 0BJ,01458 898224,+44 1458 898224,http://www.888vape.co.uk/
Vapourium Electronic Cigarette Store,50.7934665,-1.1340208,105 Stoke Rd,Gosport,PO12 1LR,023 9258 6333,+44 23 9258 6333,http://www.vapourium.co.uk/
Vapour Generation,51.4621674,-2.5084645,4 Moravian Rd,Bristol,BS15 8LY,0117 961 1104,+44 117 961 1104,http://www.vapourgeneration.co.uk/
Vape Corner Uk,50.6204547,-3.4105392,19A Albion St,Exmouth,EX8 1JJ,01395 488780,+44 1395 488780,
Vape Town Yeovil,50.9430897,-2.6339457,57 Princes St,Yeovil,BA20 1EE,01935 427906,+44 1935 427906,http://www.vapetown.co.uk/
Vaping Agency,50.1564286,-5.0713212,2 Market Strand,Falmouth,TR11 3DB,07460 824258,+44 7460 824258,http://www.ecigfalmouth.co.uk/
Electro Fag City Vapers,50.7203425,-3.535898,68 BARTHOLOMEW STREET WEST,Exeter,EX4 3AJ,01392 422059,+44 1392 422059,http://www.cityvapers.co.uk/
The Electro Tobacconist,51.388804,-2.3588571,"4 London St, Bath BA1 5BU, ",,BA1 5BU,01225 789795,+44 1225 789795,http://www.electrotobacconist.co.uk/
"Total E-Cig Vape Shop & Cafe, Fakenham",52.82891,0.84852,"Stratton Place, 1 Bridge St",Fakenham,NR21 9AN,01328 258188,+44 1328 258188,http://www.totalecig.co.uk/
Vape Shop Brighton,50.8328246,-0.2078657,"39 Station Road, Portslade",Brighton,BN41 1AG,01273 964252,+44 1273 964252,http://vapeshopbrighton.co.uk/
Vape for life Ltd,51.6650799,-3.1948764,"17, Emilys Indoor Shopping Mall, 155-156 High St",Blackwood,NP12 1AZ,01495 221221,+44 1495 221221,http://www.vapeforlifewales.com/
Vape N Quit,52.695315,-2.4524946,New St,Telford,TF2 6ER,01952 619323,+44 1952 619323,
Zapp Ecigs,51.4948659,-3.176812,"46 Crwys Rd, Cardiff CF24, ",,CF24,029 2021 4378,+44 29 2021 4378,http://www.zappecigs.co.uk/
Flavour Vapour St,51.6030928,-3.3401169,69a Taff St,Pontypridd,CF37 4TD,01443 858283,+44 1443 858283,http://www.flavourvapour.co.uk/
Vapour-Hut Chester,53.1897476,-2.8939038,63 Watergate St,Chester,CH1 2LB,01244 292902,+44 1244 292902,http://www.vapour-hut.co.uk/
Vape For Life Ltd,51.7783318,-3.2082099,41 Bethcar St,Ebbw Vale,NP23 6HW,01495 221221,+44 1495 221221,http://www.vapeforlifewales.com/
Pembrokeshire Vapes,51.802741,-4.968142,17 Riverside Arcade,Haverfordwest,SA61 2AL,01437 779437,+44 1437 779437,http://www.juice33.com/
E-Cigilicious Electronic Cigarette Shop,51.4781718,-3.1776603,2 Royal Arcade,Cardiff,CF10 1AE,029 2039 9886,+44 29 2039 9886,http://www.e-cigilicious.com/
Evapezone,51.862724,-2.2410837,98 Eastgate St,Gloucester,GL1 1QN,01452 550580,+44 1452 550580,http://www.evapezone.co.uk/
Vaper Trails,51.34801,-2.9758498,16 Orchard St,Weston-super-Mare,BS23 1RQ,01934 642673,+44 1934 642673,http://www.vapertrail.co.uk/
VapeHQ Worcester,52.1978845,-2.2240605,41A The Tything,Worcester,WR1 1JT,01905 25565,+44 1905 25565,http://vapehq.co.uk/storelocator
VapeHQ Stourport,52.3421947,-2.277444,40 Lombard St,Stourport-on-Severn,DY13 8DU,01299 382888,+44 1299 382888,http://vapehq.co.uk/storelocator
Vapour Buddy,52.5664402,-2.2442901,"The Garden Village, Bridgnorth Rd",Wolverhampton,WV6 7EZ,07565 905737,+44 7565 905737,
Vape For Life Electronic Cigarette Specialists Merthyr Tydfil,51.7451488,-3.3788463,unit 48 River Walk,Merthyr Tydfil,CF47 8EW,07496 781983,+44 7496 781983,http://www.vapeforlifewales.com/
i Vape Guru Ltd,52.455473,-2.1477902,24 Market St,Stourbridge,DY8 1AG,07881 911718,+44 7881 911718,http://www.ivapeguru.co.uk/
future vaping,52.5820197,-1.9962881,149 Pleck Rd,Walsall,WS2,01922 639129,+44 1922 639129,
Vito Vape E-Cigarettes,52.4894894,-1.9078076,"19-21 Great Hampton Street, Birmingham",Hockley,B18 6AQ,0121 236 2124,+44 121 236 2124,http://vitovape.co.uk/
Pencig Vape Shop,57.4786358,-4.2230787,18 Inglis St,Inverness,IV1 1HN,01463 711191,+44 1463 711191,http://www.pen-cig.co.uk/
Vape Scotland,57.1466645,-2.0988684,104 Union St,Aberdeen,AB10 1JL,01224 379250,+44 1224 379250,http://www.vapescotland.co.uk/
Zize Vaping,56.731019,-2.6591701,59 High St,Brechin,DD9 6EZ,01356 626176,+44 1356 626176,http://www.zizevaping.com/
The Vape Specialists,56.5585512,-2.5856083,1 Millgate,Arbroath,DD11 1NN,01241 877171,+44 1241 877171,http://www.thevapespecialists.co.uk/
ecigs-scotland,57.1480688,-2.1001453,30 Schoolhill,Aberdeen,AB10 1JX,01224 636667,+44 1224 636667,http://www.ecigs-scotland.com/
Ecigs - Scotland,57.505167,-1.77674,35 Broad St,Peterhead,AB42 1JB,01779 481222,+44 1779 481222,http://www.ecigs-scotland.com/
Vaporized,56.4590452,-2.9719872,60 Nethergate,Dundee,DD1 4ER,01382 206714,+44 1382 206714,
Vaporized,56.3954295,-3.43565,29 County Pl,Perth,PH2 8EE,01738 248475,+44 1738 248475,
Vaporized,55.9630481,-3.1788022,6A Middlefield,Edinburgh,EH7 4PF,0131 561 1300,+44 131 561 1300,
Emporium Vapour,55.9734211,-3.1766867,"179-181 Great Jct St, Firth of Forth, Edinburgh EH6 5LQ, ",,EH6 5LQ,0800 612 7270,+44 800 612 7270,http://empvap.com/
Dr Vapor,55.9542081,-3.1166493,91 Portobello High St,Edinburgh,EH15 1AW,0131 669 1959,+44 131 669 1959,http://www.drvapor.co.uk/
Vapour Monster Ltd,56.0028837,-3.7710532,10-12 Grangemouth Rd,Falkirk,FK2 9DA,01324 629191,+44 1324 629191,http://www.vapourmonster.co.uk/
Safer Vaper,55.9409142,-3.055818,6 Mall Ave,Musselburgh,EH21 7BL,0131 629 2262,+44 131 629 2262,
The Vapour Lounge,55.9443998,-3.2015541,97 Lauriston Pl,Edinburgh,EH3 9JB,0131 221 9041,+44 131 221 9041,http://www.thevapourlounge.co.uk/
The Vapour Lounge,56.0716554,-3.4606353,8 Douglas St,Dunfermline,KY12 7EB,01383 223075,+44 1383 223075,http://www.thevapourlounge.co.uk/
Pencig E-cigarette,55.9427636,-3.2834511,6 Ormiston Terrace,Edinburgh,EH12 7SJ,0131 334 4604,+44 131 334 4604,http://www.pen-cig.co.uk/
Caley Vapour,55.8268142,-3.2216542,10 John St,Penicuik,EH26 8AD,07944 414840,+44 7944 414840,https://m.facebook.com/caleyvapour?refsrc=https://www.facebook.com/caleyvapour
The Vapour Lounge,55.958931,-3.190853,74 Broughton St,Edinburgh,EH1 3SA,0131 281 0468,+44 131 281 0468,http://www.thevapourlounge.co.uk/
e-senses,55.9395571,-3.2040672,10 Barclay Terrace,Edinburgh,EH10 4HP,0131 629 0809,+44 131 629 0809,
Low Emissions Vaping,51.704343,-1.957751,"unit 18c, elliot road business estate",Cirencester,GL7 1YS,01285 238283,+44 1285 238283,http://www.lowemissionsvaping.co.uk/
ECigs2go,52.4162954,-1.9292333,1873 Pershore Rd,Birmingham,B30 3DJ,0121 448 6180,+44 121 448 6180,http://www.ecigs2go.eu/
WeeVape,55.957568,-3.17127,E Norton Pl,Edinburgh,EH7 5DR,01764 919509,+44 1764 919509,http://www.weevape.com/
evolution-e-cigarettes.com,55.9409739,-4.1583228,"Kirky Arcade, 15 Cowgate",Kirkintilloch,G66 1HW,0141 776 1341,+44 141 776 1341,http://www.evolution-e-cigarettes.com/
Vaporized,55.9496292,-3.209953,38 Shandwick Pl,Edinburgh,EH2 4RT,0131 226 1818,+44 131 226 1818,
Vaporized,55.8756305,-3.1068197,34 High St,Bonnyrigg,EH19 2AA,0131 660 1011,+44 131 660 1011,
Dr Vapor,55.9444333,-3.2182781,64 Dalry Rd,Edinburgh,EH11 2AY,0131 347 1581,+44 131 347 1581,http://www.drvapor.co.uk/
Vaporized,55.86572,-4.265007,342 Sauchiehall St,Glasgow,G2 3JD,0141 331 1827,+44 141 331 1827,
Aqua Vapour Electronic Cigarette Specialist,55.944979,-3.217644,33 Dalry Rd,Edinburgh,EH11 2BU,0131 629 0900,+44 131 629 0900,http://www.aquavapour.co.uk/
Drift,55.9479838,-3.1941005,"116 W Bow, Grassmarket",Edinburgh,EH1 2HH,0131 225 9560,+44 131 225 9560,http://www.drift-headshop.com/
Vape Shack,53.4280428,-2.8021201,59b Kemble St,Prescot,L34 5SE,0151 426 1617,+44 151 426 1617,http://vapeshackprescot.co.uk/
Puff in Peace,52.5853439,-2.1408014,49A Chapel Ash,Wolverhampton,WV3 0UF,01902 256362,+44 1902 256362,http://puffinpeace.co.uk/
Rojeans,53.4029372,-2.9844828,"Gostins Building, 32-36 Hanover St",Liverpool,L1 4LN,0151 707 2973,+44 151 707 2973,
Vapour-Hut Holywell,53.2731204,-3.2212137,46 High St,Holywell,CH8 7LH,01352 219986,+44 1352 219986,http://vapour-hut.co.uk/
Vibrant Vapours,51.857962,-4.303696,King St,Carmarthen,SA31 1BS,01792 293700,+44 1792 293700,http://www.vibrant-vapours.co.uk/
Green Dog Vaping,52.687875,-2.028125,"Kingston Court Shopping Arcade, Walsall Rd",Cannock,WS11 0HQ,01543 503655,+44 1543 503655,http://www.greendogvaping.co.uk/
Vapour-Hut,53.2749992,-2.9081641,243 Whitby Rd,Ellesmere Port,CH65 6RT,0151 792 4936,+44 151 792 4936,http://www.vapour-hut.co.uk/
Vibrant Vapours,51.6211141,-3.9438343,Princess Way,Swansea,SA1 5HG,0845 557 8210,+44 845 557 8210,http://www.vibrant-vapours.com/
Vaporized,55.8462674,-4.4227935,"29, The Piazza Centre, 43B Central Rd",Paisley,PA1 1EL,0141 889 3463,+44 141 889 3463,http://www.vaporized.co.uk/
Vaporized,55.8285604,-4.2130496,173 Main St,Rutherglen,G73 2HF,0141 647 8945,+44 141 647 8945,
VapeTek,55.8187414,-4.1674539,94 Main St,Cambuslang,G72 7EJ,0141 646 2525,+44 141 646 2525,https://www.vapetek.eu/
Vaporized,55.8622105,-4.0253285,100 Main St,Coatbridge,ML5 3BQ,01236 341834,+44 1236 341834,
M's Vapours,56.019168,-3.72366,6 York Arcade,Grangemouth,FK3 8BA,01324 229170,+44 1324 229170,
Electric Vape Ltd,53.4326518,-1.3539413,Centenary Market Hall,Rotherham,S65 1EJ,07804 120290,+44 7804 120290,http://www.electricvape.co.uk/
eco-vape Bulwell,53.0118221,-1.1905749,215 Hucknall Ln,Nottingham,NG6 8AH,0115 837 6768,+44 115 837 6768,http://www.eco-vape.uk/
Flava Vape,53.552022,-1.481138,5 Market St,Barnsley,S70 1SL,01226 289581,+44 1226 289581,http://flavavape.co.uk/
Thee Vapeorium,52.9536351,-1.1431719,12 Goose Gate,Nottingham,NG1 1FF,07427 497858,+44 7427 497858,http://www.theevapeorium.co.uk/
VapeHQ Mansfield,53.1546439,-1.1938585,VapeHQ Woodhouse Road,Mansfield,NG18 2BQ,01623 422226,+44 1623 422226,http://vapehq.co.uk/storelocator
Delboys Ecig & Vape Store,52.9278005,-1.4229331,35 Roosevelt Ave,Derby,DE21 6JR,01332 608708,+44 1332 608708,http://www.delboysecigandvapestore.co.uk/
eco-vape Nottingham,52.9552257,-1.1494308,32 Upper Parliament St,Nottingham,NG1 2AG,0115 837 6768,+44 115 837 6768,http://www.eco-vape.uk/
Vape Domain,53.2050131,-0.9740093,"225, Boughton Industrial Estate, Boughton",Newark,NG22 9US,01623 232109,+44 1623 232109,http://www.vapedomain.co.uk/
Revolution Vape & Game,53.50298,-1.342437,"75 High Street, Rotherham",Wath-Upon-Dearne,S63 7QB,01709 874172,+44 1709 874172,
Totally Wicked,53.545447,-2.631959,13-15 Wallgate,Wigan,WN1 1LD,01942 238600,+44 1942 238600,http://www.totallywicked-eliquid.co.uk/
Ezee-vape Hazelgrove,53.3805962,-2.1226963,"166 London Rd, Hazel Grove",Stockport,SK7 4DJ,0161 483 5765,+44 161 483 5765,http://www.ezee-vape.com/
Totally Wicked,53.6837846,-1.4968499,19 Brook St,Wakefield,WF1 1QW,01924 373777,+44 1924 373777,http://www.facebook.com/totallywickedwakefield
Green Dog Vaping,52.451677,-1.778009,2272 Coventry Rd,Birmingham,B26 3JR,0121 722 3632,+44 121 722 3632,https://plus.google.com/102203154624461524030/
Hog Vaping,52.688564,-1.981442,"Chasewood Park Business Centre, Hednesford Rd, Heath Hayes",Cannock,WS12 3XR,01543 274460,+44 1543 274460,http://www.hogvaping.co.uk/
Vapor-z,53.7284134,-2.6609043,"202 Station Rd, Bamber Bridge",Preston,PR5 6TP,01772 460376,+44 1772 460376,http://www.vapor-z.co.uk/
Vapable,53.623282,-3.013588,"A-B Birkdale Trading Estate, Liverpool Rd",Southport,PR8 4PZ,01704 560888,+44 1704 560888,http://www.vapable.com/
E Cigarette Outlet Bradford,53.7959115,-1.7550938,45 Darley St,Bradford,BD1 3HN,01274 730269,+44 1274 730269,http://www.ecigaretteoutlet.co.uk/
Lifes a Drag,51.0193784,-3.1053198,"Life's a Drag Blackhorse Land, Taunton TA1, ",,TA1,01823 271190,+44 1823 271190,http://www.lifesadrag.net/
Infinity Vape,51.462683,-2.5111729,2 South Rd,Bristol,BS15 8JW,0117 239 0524,+44 117 239 0524,http://www.infinityvape.co.uk/
KingVape,51.663184,-3.804647,"5, Green Street",Neath,SA11 1DR,01639 262728,+44 1639 262728,http://www.kingvape.co.uk/
Jungle Vape Ltd,55.0686256,-3.6149527,69 Friars Vennel,Dumfries,DG1 2RQ,01461 758150,+44 1461 758150,
Red Hot Vaping,52.5536793,-2.0216806,20 Upper High St,Wednesbury,WS10 7HQ,0121 792 0041,+44 121 792 0041,http://www.redhotvaping.co.uk/
Evolution Vaping,52.5471312,-1.8853339,594 Kingstanding Rd,Birmingham,B44 9SH,0121 386 3736,+44 121 386 3736,http://evolutionvaping.co.uk/
Redjuice,51.908148,-2.094077,"Unit 48, Space Business Centre, Tewkesbury Road",Cheltenham,GL51 9FL,01242 312024,+44 1242 312024,https://redjuice.co.uk/
BombSite Vape Shop,51.3485912,-2.9754646,68 Meadow St,Weston-super-Mare,BS23 1QN,01934 420088,+44 1934 420088,http://www.bomb-site.co.uk/
Sgice Electronic Cigarettes,51.4810714,-3.1777453,"Queens Arcade, Queen St",Cardiff,CF10 2BY,07918 840222,+44 7918 840222,http://www.sgice.co.uk/
E-Cigarette Direct,51.682049,-4.160503,"Llanelli SA15 1YL, ",,SA15 1YL,01792 852843,+44 1792 852843,http://www.ecigarettedirect.co.uk/
The Electronic Cigarette Shop,51.4142478,-3.2564925,104-106 Main St,Barry,CF63 2HP,01446 740864,+44 1446 740864,
The Smoker's Angel,51.8577152,-4.3091256,Unit ES,Carmarthen,SA31 1QY,01792 852843,+44 1792 852843,http://www.ecigarettedirect.co.uk/
UKVapes Ltd.,53.0474841,-2.9965166,10 Lord St,Wrexham,LL11 1LG,01978 353647,+44 1978 353647,http://ukvapes.com/
E-Cigarette Direct,51.6635183,-3.8041575,56 Wind St,Neath,SA11 3EN,01792 852843,+44 1792 852843,http://www.ecigarettedirect.co.uk/
Vintage Vape Rooms,53.3446142,-6.2635079,"4 Fownes Street Upper, Temple Bar",Dublin 2,,085 785 3239,+353 85 785 3239,http://www.vintagevaperooms.com/
KIX Vaping & E-Cigarettes,53.350317,-6.257629,"3A Talbot St, Dublin Northside",Dublin 1,,(094) 954 8779,+353 94 954 8779,http://www.getyourkix.com/
Ecirette Megastore,53.3506272,-6.2557521,"12 Talbot St, Dublin Northside",Dublin 1,,(01) 853 3894,+353 1 853 3894,http://www.ecirette.ie/
Smokedifferent electronic cigarettes shop,53.3509624,-6.2699611,"85 Capel St, Dublin Northside",Dublin 1,,(01) 442 1952,+353 1 442 1952,http://smokedifferent.ie/
Liverpool Vvapour e-Cigarettes,53.3881731,-2.9800672,"69 Sefton St, Liverpool",Merseyside,L8 6UD,0151 703 6640,+44 151 703 6640,http://vvapour.co.uk/locations/e-cig-liverpool/
purplebox vapours,53.3449256,-6.2637258,9 Crow St,Dublin,,(01) 658 8696,+353 1 658 8696,http://purplebox.ie/
East Coast Vaping,53.2027272,-6.11009,"88 Main St, Bray, Co. Wicklow, Irela",,,085 152 9439,+353 85 152 9439,http://www.eastcoastvaping.ie/
Vape Island,53.3232711,-6.2656911,"173 Rathmines Rd Lower, Dublin Southside",Dublin 6,,085 205 2460,+353 85 205 2460,http://vapeisland.town.ie/
Ecirette Superstore,53.333868,-6.24467,8 Baggot Street Upper,Dublin,,087 346 2305,+353 87 346 2305,http://www.ecirette.ie/
"Vape Island, E-cigarettes, E-liquids, Accessories",53.3427602,-6.2767761,"70 Thomas St, Dublin Southside",Dublin 8,,(01) 559 7455,+353 1 559 7455,http://www.vape-island.com/
The Little Puffer's Vaping Lounge (Electronic Cigarettes),53.5461052,-2.6334612,4 Bishopgate,Wigan,WN1 1NL,01942 386263,+44 1942 386263,
Vaporized,55.8841715,-3.5122164,"58, The Centre, Almondvale Blvd",Livingston,EH54 6HR,01506 324885,+44 1506 324885,http://www.vaporized.co.uk/
5050 VAPE SHOP/ E LIQUIDS / FLAVOUR CONCENTRATES,51.576545,0.182202,South St,Romford,RM1 1RX,07506 177650,+44 7506 177650,
Smoke and Vapes Centre,51.1142986,-0.189841,11 Church Walk,Crawley,RH10 1BQ,01293 270020,+44 1293 270020,
Impulse,53.4034582,-1.5014111,"Unit 17 Hillsborough Shopping centre,, Middlewood Rd",Sheffield,S6,0114 231 4015,+44 114 231 4015,http://cbdvapestore.tk/
The Emporium,53.7347485,-0.3655331,298a Hessle Rd,Hull,HU3 3EA,01482 221883,+44 1482 221883,
Flavour Vapour (Bolton) Ltd,53.5679529,-2.4175481,304 Manchester Rd,Bolton,BL3 2QS,0800 043 0049,+44 800 043 0049,http://www.flavourvapour.co.uk/
The Vape Suite,53.5631909,-2.3732771,"Church St, Little Lever",Bolton,BL3 1BE,01204 777504,+44 1204 777504,
Vaporized,53.8273334,-1.5668542,59,Meanwood,LS6 4AY,0113 274 8997,+44 113 274 8997,
VapeHQ Sleaford,52.9992293,-0.4100007,1 Bristol Way,Sleaford,NG34 7ST,01529 969332,+44 1529 969332,http://vapehq.co.uk/storelocator
The Vapour Store Retford,53.3200273,-0.9415395,79 Carolgate,Retford,DN22 6EH,01777 708194,+44 1777 708194,http://www.vapourstoreuk.com/
Vaporized,53.7453261,-1.6022076,Windsor Court,Morley,LS27 9BG,0113 252 8768,+44 113 252 8768,
Vape on the Beach - Vape and Juice UK,51.7896988,1.1506489,"2, Jackson House, 45 Jackson Rd, Clacton-on-Sea",Essex,CO15 1JA,01255 317290,+44 1255 317290,http://vapeandjuice.co.uk/
Vvapour Ecigarettes and Eliquids Attleborough,52.5163894,1.0142632,1 Connaught Rd,Attleborough,NR17 2EJ,01953 799771,+44 1953 799771,http://vvapour.co.uk/locations/attleborough-vvapour-e-cig-store/
Lloyds vape gear,51.8729883,0.1587908,"2-, 4 Northgate End",Bishop's Stortford,CM23 2EX,01279 505204,+44 1279 505204,
eCig Boston Vape Store,52.977994,-0.022636,11 Dolphin Lane,Boston,PE21 6EU,07539 864532,+44 7539 864532,https://www.facebook.com/ecigbostonvapestore
Vape and Juice - VapeChester,51.8878322,0.9005026,12 Lion Walk,Colchester,CO1 1DX,01206 616940,+44 1206 616940,http://www.vapeandjuice.co.uk/
Vaping liquid,52.0589381,1.1506733,5 High St,Ipswich,IP1 3JZ,01473 210024,+44 1473 210024,http://www.vapingliquid.com/
SmokShop Norwich,52.6298184,1.2920422,14A Pottergate,Norwich,NR2 1DS,01603 631120,+44 1603 631120,http://www.smokshop.com/
SmokShop Cromer,52.9318803,1.300641,9 High St,Cromer,NR27 9HG,01263 478040,+44 1263 478040,http://www.smokshop.com/
Ecigwizard Norwich,52.6385787,1.2969409,165 Magdalen St,Norwich,NR3 1NF,01603 920710,+44 1603 920710,
Vaping Lounge Grimsby Road,53.568208,-0.0451178,201 Grimsby Rd,Cleethorpes,DN35 7HB,01472 488090,+44 1472 488090,http://www.facebook.com/vapingloungegyrd
The London Vape Company Enfield Town Shop,51.652914,-0.080557,9 Silver St,Enfield,EN1 3EF,020 3370 2111,+44 20 3370 2111,https://www.thevapecig.co.uk/
Optimum Vapes,53.801108,-1.712245,Rushton Ave,Bradford,BD3,01274 669595,+44 1274 669595,http://www.optimumvapes.co.uk/
IVape,53.6528,-6.683431,"2 Ludlow St, Dillonsland",Navan,,(046) 902 1111,+353 46 902 1111,http://irishvape.com/
The Ciggie Shop,54.5120417,-6.0450676,8C Graham Gardens,Lisburn,BT28 1XE,028 9261 7379,+44 28 9261 7379,
Walled City Vape,54.9909566,-7.3124984,93 Spencer Rd,Derry,BT476AE,028 7134 2547,+44 28 7134 2547,http://walledcityvape.com/
KIX Electronic Cigarettes,54.6007245,-5.9251814,"94 High St, Belfast BT1 2BG, ",,BT1 2BG,028 9031 5023,+44 28 9031 5023,http://www.getyourkix.com/
The Vape Bar,54.5760135,-5.9547317,529 Lisburn Rd,Belfast,BT9 7GQ,028 9066 9369,+44 28 9066 9369,http://www.vapebar-belfast.co.uk/
Ziggicig electronic cigarettes,54.5942041,-5.9350097,"Unit 12, Great Northern Mall, Great Victoria Stree",Belfast,BT2 7GN,028 9560 7313,+44 28 9560 7313,http://www.ziggicig.com/
Digismoke,54.4212918,-6.4460778,36 Church St,Portadown,BT62 3LQ,028 3833 4668,+44 28 3833 4668,http://www.digismoke.co.uk/
Exclusive E-Cigarette Ireland,54.003675,-6.403424,"Demesne Shopping Center Unit 4, Townparks",Dundalk,,(042) 932 9423,+353 42 932 9423,http://www.xecig.ie/
Ziggicig Electronic Cigarettes,54.5858885,-5.8994052,"Cregagh Rd, Belfast BT6, ",,BT6,028 9560 7313,+44 28 9560 7313,
Paddy Puff,54.5998418,-5.9271256,High St,Belfast,BT1 2BG,028 9031 5023,+44 28 9031 5023,http://www.paddypuff.com/
Vapeways Electronic Cigarettes Vape Shop,53.161588,-7.189631,"Market square, Main Street, Droughill",Portarlington,,(057) 865 2399,+353 57 865 2399,https://www.vapeways.com/
Vapour King,54.7153524,-5.8071725,North St,Carrickfergus,BT38 8AD,,,
www.IdealVape.com - Electronic Cigarette Store,50.955603,-0.139343,249 London Rd,Burgess Hill,RH15 9QU,01444 628758,+44 1444 628758,http://www.idealvape.com/
V-Revolution,51.5145642,-0.1258347,52 Neal St,London,WC2H 9PA,020 7240 1683,+44 20 7240 1683,http://www.v-revolution.com/
UK ECIG STORE,51.560012,-0.275444,20 Fulton Rd,Wembley,HA9 0TF,020 3475 4885,+44 20 3475 4885,http://www.ukecigstore.com/
Evapo Sutton,51.363172,-0.1933266,93 High St,Sutton,SM1 1JF,07482 316478,+44 7482 316478,http://evapo.co.uk/vape-shops/sutton.html
E Cigarette Outlet Scunthorpe,53.5905115,-0.651882,14 Laneham St,Scunthorpe,DN15 6LJ,01724 841797,+44 1724 841797,http://www.ecigaretteoutlet.co.uk/
Pure Mist,54.715993,-5.816087,"Ellis St, Carrickfergus BT38 8AY, ",,BT38 8AY,0844 800 4150,+44 844 800 4150,http://puremist.co.uk/
Ciggy Point,54.5953823,-5.8679521,"370-374 Upper Newtownards Rd, Belfast BT4 3EY, ",,BT4 3EY,028 9543 8867,+44 28 9543 8867,http://www.ciggy-point.co.uk/
Republic Of Vape Limited,53.2938977,-6.1402121,"26A George's Street Lower, Dún Laoghaire",Dublin,,(01) 663 6799,+353 1 663 6799,http://republicofvape.ie/
Vaporized,55.606654,-4.497622,5 Titchfield St,Kilmarnock,KA1 1QW,01563 259196,+44 1563 259196,http://www.vaporized.co.uk/
Vaporized,55.858599,-4.2571458,9 Union St,Glasgow,G1 3RB,0141 248 1001,+44 141 248 1001,
E-cigs 4 U,55.7392983,-3.9733464,89 Union St,Larkhall,ML9 1EB,01698 885585,+44 1698 885585,http://ecigs4ularkhall.co.uk/
Vape Centre Electronic Cigarettes & E-Liquids,53.3784145,-1.4706361,28 Union St,Sheffield,S12 JP,0114 327 1221,+44 114 327 1221,http://www.vape-centre.com/
Just Vape Stirling,56.1211379,-3.9387807,"71 Barnton St, Stirling FK8 1HH, ",,FK8 1HH,,,
E20 VAPE SHOP,51.5389605,0.0042999,"20 W Ham Ln, London",stratford,E15 4HN,07944 467444,+44 7944 467444,
Bar Ubervape - Vape Shop,51.7526005,-0.3155453,159 Hatfield Rd,St Albans,AL1 4LB,01727 568240,+44 1727 568240,http://www.ubervape.co.uk/
Vapertrails Hitchin,51.9462052,-0.2796153,21 Bucklersbury,Hitchin,SG5 1BG,01462 432959,+44 1462 432959,http://www.facebook.com/VapertrailsHitchin
Vape Smart,51.525583,-0.6161255,189 Farnham Rd,Slough,SL1 4XS,01753 572798,+44 1753 572798,https://www.vape-smart.co.uk/
vape-inator Limited,53.5216301,-1.3975071,"1 Park St, Wombwell",Barnsley,S73 0AS,01226 340579,+44 1226 340579,http://www.vape-inator.co.uk/
The Little Shop of Vapes,54.2801047,-0.4079739,144 Victoria Rd,Scarborough,YO11 1SL,01723 449978,+44 1723 449978,http://www.thelittleshopofvapes.co.uk/
VAPE,53.706819,-1.674283,38 Market Pl,Heckmondwike,WF16 0JG,01924 650140,+44 1924 650140,http://www.vape-online.net/
Canterbury Vape - Vape and Juice,51.2817678,1.0825654,12 Borough,Canterbury,CT1,01227 634568,+44 1227 634568,http://www.vapeandjuice.co.uk/
The Vape Shop,51.4242001,-0.003531,"471 Bromley Rd, Bromley BR1 4PQ, ",,BR1 4PQ,020 8698 3021,+44 20 8698 3021,http://www.thevapeshops.uk/
Vaporized Partick,55.8706743,-4.3074589,365 Dumbarton Rd,Glasgow,G11 6BA,0141 337 1547,+44 141 337 1547,http://www.vaporized.co.uk/
Vaporized,56.1098422,-3.1594295,123 High St,Kirkcaldy,KY1 1LW,01592 644543,+44 1592 644543,
The Ecig Shop Horsforth,53.832049,-1.642175,"105 New Rd Side, Horsforth",Leeds,LS18 4QD,0113 258 5367,+44 113 258 5367,
Ecigwizard - Hartlepool,54.684357,-1.215201,"1, Market Hall, Middleton Grange Shopping Centre, Victoria Road",Hartlepool,TS24 7RX,07908 210039,+44 7908 210039,http://www.ecigwizard.com/
Mass Vapour Ltd (Stockton),54.5648682,-1.3118314,28 Silver St,Stockton-on-Tees,TS18,0845 544 2628,+44 845 544 2628,http://www.massvapour.com/
Aroma Vapor,54.9054946,-1.3825108,"Sunderland SR1 3HP, ",,SR1 3HP,0191 452 4146,+44 191 452 4146,
Vape City Ltd,54.5548321,-1.3365028,"2 Spring Way, Stockton-on-Tees",Stockton on Tess,TS18 5DZ,07527 537642,+44 7527 537642,http://www.vapecity.co.uk/
Ivapour Ltd,54.0162813,-1.0758288,"Haxby Shopping Centre, The Village, Haxby",York,YO32 2LU,01904 766361,+44 1904 766361,http://www.ivapour.co.uk/
Electric Vape,53.501343,-1.43821,"Hoyland Market, Market Street, Hoyland S74 9QR, ",Hoyland,S74 9QR,07813 131057,+44 7813 131057,http://www.electricvape.co.uk/
Ecig Switch,53.8318311,-3.0533519,287 Dickson Rd,Blackpool,FY1 2JL,01253 596106,+44 1253 596106,http://ecigswitch.co.uk/
Totally Wicked Burnley,53.7890357,-2.2405702,16 St James's Ln,Burnley,BB11 1NG,01282 830332,+44 1282 830332,http://www.totallywicked-eliquid.co.uk/
Sweet Cloud,51.2747154,-0.7477945,73 Lynchford Rd,Farnborough,GU14 6EJ,01252 543933,+44 1252 543933,http://www.sweetcloud.co.uk/
Island Vape UK,52.2401648,-0.8873122,20 Wellingborough Rd,Northampton,NN1 4DN,01604 637149,+44 1604 637149,http://www.islandvapeuk.co.uk/
VapeHQ Lincoln,53.2418365,-0.5106484,23 Outer Cir Rd,Lincoln,LN2 4JA,01522 541237,+44 1522 541237,http://vapehq.co.uk/storelocator
Vape'ry,54.6604975,-1.6758396,134 Newgate St,Bishop Auckland,DL14 7EH,01388 417020,+44 1388 417020,http://www.vaperyonline.co.uk
E-Vapor,54.906557,-1.383198,58 Union St,Sunderland,SR6 0BY,0191 565 9556,+44 191 565 9556,http://www.evapor.co.uk/
E-Ciggy UK,54.5248938,-1.5567457,"Darlington DL3 7LU, ",,DL3 7LU,01325 483330,+44 1325 483330,http://eciggyuk.co.uk/darlington/
The Electric Cigarette Shop,54.9764778,-1.5843926,58 Shields Rd,Newcastle upon Tyne,NE6 1DR,0191 275 9700,+44 191 275 9700,http://www.theelectriccigaretteshop.co.uk/
TABlites Crossgates,53.8063412,-1.4502313,H-K Crossgates Shopping Centre,Leeds,LS15 8EU,0161 832 4311,+44 161 832 4311,http://www.tablites.com/
"VAPE STORE Group Ltd., GoCigarette",52.3044418,-0.6899486,19A Cannon St,Wellingborough,NN8 4DN,01933 274409,+44 1933 274409,http://www.gocigarette.co.uk/
MoreCig Ecigs | Eliquids | Accessories | all electronic cigarette products,55.8485476,-4.4285042,22 St James' St,Paisley,PA3 2JR,0845 567 0077,+44 845 567 0077,http://www.morecig.com/
Best4ecigs,52.536306,-1.350395,"5 Sapcote Rd, Burbage",Hinckley,LE10 2AU,01455 444062,+44 1455 444062,http://www.best4ecigs.uk/
Vayper,52.80309,-1.6306601,13 Station St,Burton-on-Trent,DE14 1AN,01283 519137,+44 1283 519137,http://www.vayper.co.uk/
vape rushden,52.2892959,-0.5970798,10 High St,Rushden,NN10 0PR,,,https://www.facebook.com/VapeRushden
CustomVapez,54.859278,-1.575465,"North Burns Market Place, Chester-le-Street",Chester le Street,DH3 3TF,0191 597 2545,+44 191 597 2545,http://www.customvapez.co.uk
Spa Vapes,51.900312,-2.099338,"Lansdown Trading Estate, Gloucester Rd",Cheltenham,GL51 8PW,01242 210555,+44 1242 210555,http://spavapes.co.uk/
Ecigwizard Bristol,51.4806246,-2.5290987,753 Fishponds Rd,Bristol,BS16 3UP,0117 958 6175,+44 117 958 6175,http://www.ecigwizard.com/
The London Vape Company Camden Town Shop,51.5381189,-0.1447624,"54 Parkway, London",Camden,NW1 7AH,020 7101 2190,+44 20 7101 2190,https://www.thevapecig.co.uk/
VIP E Cigarette,53.340044,-6.262016,St. Stephen's Green Shopping Centre,Dublin,,(01) 475 0000,+353 1 475 0000,http://www.vipelectroniccigarette.ie/
Vaping caterpillar,55.8272824,-4.268721,42 Battlefield Rd,Glasgow,G42 9QH,0141 230 8028,+44 141 230 8028,http://www.vapingcaterpillar.com/
E Cigarette Outlet Hull,53.7436422,-0.3409943,62 Carr Ln,Hull,HU1 3RQ,01482 216244,+44 1482 216244,http://www.ecigaretteoutlet.co.uk/
Stanley's Newagents & Vaping 365 Shop,53.3476746,-6.2659834,"Unit 9 /10, Jervis Street Shopping Centre, Jervis St",Dublin,,(01) 874 8984,+353 1 874 8984,http://www.vapingshop.ie/
Vape Right,55.8357788,-4.2651995,458 Victoria Rd,Glasgow,G42 8YU,0141 214 0313,+44 141 214 0313,http://www.vaperight.co.uk/
Vapourecigs,53.7856525,-3.0446301,61 Highfield Rd,Blackpool,FY4 2JE,01253 407498,+44 1253 407498,http://www.vapourecigs.co.uk/
Pillbox 38 UK Ltd,53.7223074,-2.4801107,"Brookmill Complex, Branch Rd, Blackburn",Darwen,BB3 0PR,01254 692244,+44 1254 692244,http://www.totallywicked-eliquid.co.uk/
Walled City Vape,54.9948114,-7.3215644,9 Pump St,Derry,BT48 6JG,028 7141 4321,+44 28 7141 4321,http://walledcityvape.com/
Vapourohm,55.9493392,-4.7605535,"1 W Blackhall St, Renfrewshire",Greenock,PA15 1UA,01475 648615,+44 1475 648615,
E-Vap Limited (Le-Vap),51.6033313,-0.191141,55 Ballards Ln,London,N3 1XP,020 3092 2967,+44 20 3092 2967,https://le-vap.com/
E-Cigarette Club Belfast,54.6017465,-5.9315879,72 Royal Ave,Belfast,BT1 1DJ,028 9543 4144,+44 28 9543 4144,http://e-cigaretteclub.com/
Flavour Vapour Bedminster,51.4422258,-2.595869,39 East St,Bristol,BS3 4HB,0117 963 2999,+44 117 963 2999,http://www.flavourvapour.co.uk/
Your Vapour,50.3724672,-4.1460741,"Sophie Gees,, 128 Cornwall St",Plymouth,PL1 1NJ,07807 204631,+44 7807 204631,http://www.yourvapour.co.uk/
Ape Vaping,51.757599,-0.4721063,12 Queensway,Hemel Hempstead,HP1 1LR,01442 802803,+44 1442 802803,http://www.apevaping.co.uk/
Vape Store Watford,51.658413,-0.3999649,85 The Parade,Watford,WD17 1LN,0333 323 7733,+44 333 323 7733,http://www.vape.uk.net/
Vape Safe ltd (electronic cigarette shop),54.2816081,-0.4020978,9 Westborough,Scarborough,YO11 1UH,01723 449818,+44 1723 449818,http://www.vapesafe.net/
Totally Wicked Kendal (Vapours),54.3282534,-2.7448053,12 Stramongate,Kendal,LA9 4BN,01539 232101,+44 1539 232101,
Vape Shop,50.1209175,-5.5341303,United Kingd,,,,,
Vaporized,50.214293,-5.2978719,35 Trelowarren St,Camborne,TR14 8AD,01209 710203,+44 1209 710203,http://www.vaporized.co.uk/
Flavour Vapour,50.3719672,-4.1465316,120 Market Ave,Plymouth,PL1 1PS,0800 043 0049,+44 800 043 0049,http://www.flavourvapour.co.uk/
Vaporized,50.4549066,-4.5678046,A38,Liskeard,PL14 6HY,01579 208987,+44 1579 208987,http://www.vaporized.co.uk/locations/trago-mills-liskeard/
Vaporized,50.3378577,-4.7917721,14 South St,Saint Austell,PL25 5BH,01726 68251,+44 1726 68251,http://www.vaporized.co.uk/
Newton Abbot Vaping (electronic cigarettes),50.5311954,-3.6119926,"23b Market Street, Stall 26, Indoor Markets, Newton Abbot",Newton Abbout,TQ12 2RB,07771 483306,+44 7771 483306,
"B-Juice, Made In Buckfastleigh",50.4813978,-3.7770836,23 Fore St,Buckfastleigh,TQ11 0BT,01364 388070,+44 1364 388070,http://bjuice.co.uk/
Vapour Station,50.4463638,-3.5596746,284 Torquay Rd,Paignton,TQ3 2EU,01803 526153,+44 1803 526153,http://www.vapourstation.com/
Devon Vapour,50.4660491,-3.5467277,30 Old Mill Rd,Torquay,TQ2 6AU,07585 807744,+44 7585 807744,
Boomtown Vapour Torquay,50.46766,-3.5283321,15 Market St,Torquay,TQ1 3AF,07429 290090,+44 7429 290090,http://www.boomtownvapour.com/
Xtreme Vapour,50.4705756,-3.5376001,213 Union St,Torquay,TQ2,,,
Cornish Liquids,50.164682,-5.106242,"9B, The Mill Yard, The Mill",Penryn,TR10 8LG,01326 373081,+44 1326 373081,http://www.cornishliquids.co.uk/
Bay Vape,50.530753,-3.611049,Market St,Newton Abbot,TQ12 2RX,07702 555325,+44 7702 555325,http://www.everything-ink.co.uk/
Liberty Flights - St Erth Shop - Electronic Cigarettes,50.172083,-5.443194,"Unit G, St Erth Industrial Estate, Rose-an-Grouse",Hayle,TR27 6LP,0345 257 9008,+44 345 257 9008,http://www.liberty-flights.co.uk/
Vapour Station,50.4309429,-3.6832094,1 Fore St,Totnes,TQ9 5DA,01803 864022,+44 1803 864022,http://www.vapourstation.com/
Juice Shop,51.6166938,-0.0855719,"10A Kendal Parade, Silver St",London,N18 1ND,020 8350 0887,+44 20 8350 0887,http://www.juiceshop.co.uk/
Echo Vapour,53.4212608,-2.2174437,224 Fog Ln,Manchester,M20 6EL,0161 434 1624,+44 161 434 1624,http://www.echovapour.com/
Vapour Boutique,52.9837095,-1.1442797,678 Mansfield Rd,Nottingham,NG5 2GE,0115 837 2040,+44 115 837 2040,http://www.vapourboutique.co.uk/
Wholesale Vape,50.7165448,-3.5414655,147-148 Cowick St,Exeter,EX4 1AS,01392 204036,+44 1392 204036,http://www.wholesalevape.co.uk/
Ecigwizard Spalding,52.7872753,-0.1549376,"Station Street, Spalding PE11 1EB, ",,PE11 1EB,01775 248008,+44 1775 248008,http://www.ecigwizard.com/
Phoenix Electronic Cigarettes - Peterborough,52.5750324,-0.2417983,22-24 Broadway,Peterborough,PE1 1RS,01780 764585,+44 1780 764585,https://phoenixeliquid.co.uk
E Cigarette Outlet Grimsby,53.5647094,-0.0879227,13 Old Market Place,Grimsby,DN31 1EU,01472 358044,+44 1472 358044,http://www.ecigaretteoutlet.co.uk/
Totally Wicked,54.0493221,-2.8021211,6 New Rd,Lancaster,LA1 1EG,01524 841710,+44 1524 841710,http://www.totallywicked-eliquid.co.uk/
The Vaping Emporium,51.9645623,1.3517936,111 Hamilton Rd,Felixstowe,IP11 7BL,01394 809645,+44 1394 809645,http://www.vapingsafe.co.uk/
E Cigarette Outlet Skegness,53.1426537,0.3392819,57 High St,Skegness,PE25 3NX,01754 769446,+44 1754 769446,http://www.ecigaretteoutlet.co.uk/
Ecigwizard Fengate HQ,52.5707041,-0.2183519,"3, Fengate Trade Park, Fengate",Peterborough,PE1 5XA,0845 259 3169,+44 845 259 3169,http://www.ecigwizard.com/
Vape On - Tipperary,52.473968,-8.157928,"1, 1, Bank Place House, Plás an Bhainc, Knockanrawley",Tipperary Town,,(062) 83188,+353 62 83188,http://www.vapeon.ie/
Barracuda Vape,55.0671753,-3.6103284,"6, Loreburne Shopping Centre",Dumfries,DG1 2BD,01387 247785,+44 1387 247785,http://www.barracudavape.co.uk/
VIP E Cigarette,53.3498749,-6.2647578,"Ilac Shopping Centre, Henry St, North City",Dublin,,(01) 475 0000,+353 1 475 0000,http://www.vipelectroniccigarette.ie/
Vape Superstore Peterlee,54.7587652,-1.3674345,4 Whitworth Rd,Peterlee,SR8 2LY,0333 323 7733,+44 333 323 7733,http://www.vape.uk.net/
iTaste Vapour,55.9433447,-2.9510668,91 High St,Tranent,EH33 1LW,01875 898681,+44 1875 898681,
Mad Wizard Vape Shop,34.2511397,-92.0724478,6210 Dollarway Rd Suite 2B,White Hall,71602-3733,(501) 200-2707,+1 501-200-2707,https://www.facebook.com/madwizardvapeshop
The e-Spot Vape Shop - Monroe,32.522744,-92.084311,3201 Louisville Ave #1,Monroe,71201,(318) 600-4384,+1 318-600-4384,http://espotvapeshop.com/
Delta Vapors Llc,33.384305,-91.0533009,1422 S Main St,Greenville,38701,(662) 743-9808,+1 662-743-9808,http://www.deltavapors.com/
Flavor Vapor,34.4624648,-93.0619977,3814 Central Ave,Hot Springs National Park,71913,(501) 520-0800,+1 501-520-0800,http://theflavorvapor.com/
Vape Shop,34.4983338,-93.0700818,415 Summer St,Hot Springs National Park,71913,(501) 623-8273,+1 501-623-8273,
The E Spot Vape Shop,32.508225,-92.158945,207 Blanchard St #4,West Monroe,71291,(318) 855-3280,+1 318-855-3280,http://espotvapeshop.com/
Altitude Vapor,32.5348971,-92.6529905,975 Tech Dr,Ruston,71270,(318) 202-3890,+1 318-202-3890,
Southern Vapor,34.4569498,-93.0618014,3955 Central Ave #3,Hot Springs,71913,(501) 617-1013,+1 501-617-1013,
Cloud 9,32.500695,-92.1247099,117 Cotton St,West Monroe,71291-3111,(318) 651-0069,+1 318-651-0069,http://www.cloud9vapory.com/
LeCig,34.4921208,-93.0912231,1609 Albert Pike Rd,Hot Springs,71913,(501) 625-3363,+1 501-625-3363,http://lecig.com/
Vape City Arkansas 2 Maumelle,34.8287922,-92.3908301,13120 Crystal Hill Rd,North Little Rock,72113,(501) 812-0369,+1 501-812-0369,http://www.vapecityarkansas.com/
Gator Vapors,32.5025455,-92.1312394,405 Stella St,West Monroe,71291,(318) 509-8087,+1 318-509-8087,http://gatorvaporsonline.com/
"Serenity Vapes, LLC",34.6232834,-92.496942,3116 Horizon Dr,Bryant,72022,(501) 847-0088,+1 501-847-0088,http://www.facebook.com/serenityvapesbryantar
Infinity Vapers,32.5131982,-93.6934321,1442 Airline Dr,Bossier City,71112,(318) 230-7429,+1 318-230-7429,http://www.infinityvapers.com/
Tiger Vapes,32.4857246,-93.7087508,"#104, 110",Shreveport,71105,(318) 670-3808,+1 318-670-3808,http://www.tigervapes.com/
Great American Vapes,32.4422558,-93.7392718,934 E 70th St,Shreveport,71106,(318) 216-5841,+1 318-216-5841,http://www.greatamericanvapes.com/
Lucky's Vapor Store,32.5350898,-93.7080889,2119 Airline Dr #500,Bossier City,71111,(318) 742-8276,+1 318-742-8276,http://www.luckysvaporstore.com/store-locations
Buku Vapor,32.4917916,-93.7463392,2030 Line Ave,Shreveport,71104,(318) 221-2020,+1 318-221-2020,http://www.bukuvapor.com/
Vapor Stop,34.5730105,-92.5815176,1016 Military Rd,Benton,72015,(501) 860-6101,+1 501-860-6101,https://www.vaporspotonline.com/Web/locations/store/benton-store-1
Vape City Arkansas Conway,35.0911717,-92.4352791,813 W Oak St #6,Conway,72032,(501) 499-8288,+1 501-499-8288,http://www.vapecityarkansas.com/
Stockport E Cig Company Ltd,53.3856348,-2.3519846,9 Regent Rd,Altrincham,WA14 1RY,0161 941 5280,+44 161 941 5280,http://www.stockport-e-cig-company.co.uk/
Ecigwizard Leicester,52.6324549,-1.1279591,129 Granby St,Leicester,LE1 6FD,0116 255 8383,+44 116 255 8383,http://www.ecigwizard.com/
VapeEscape,53.5938696,-2.2085093,49 Bridge St,Heywood,OL10 1JF,01706 628790,+44 1706 628790,http://www.vapeescape.co.uk/
Vape Station,53.702244,-2.200169,1 Irwell St,Bacup,OL13 0AD,01706 550145,+44 1706 550145,
"I Vape, Electronic Cigarettes",53.3493662,-1.4018983,56 Birley Moor Rd,Sheffield,S12 4WD,07460 386868,+44 7460 386868,
The E-Cig Shop,53.2193278,-1.4274434,390 Derby Rd,Chesterfield,S40 2EU,07450 909444,+44 7450 909444,http://www.thee-cigshop.co.uk/
The Emporium,53.7581054,-0.2951957,"227 Southcoates Ln, Hull HU9 3AT, ",,HU9 3AT,01482 701115,+44 1482 701115,http://www.hausofvaping.co.uk/
The Ecig Store,53.274532,-9.051891,Eglinton St,Galway,,(091) 374 063,+353 91 374 063,http://www.theecigstore.ie/
Galway E Cigarettes & Vaping Shop - Vaping365,53.2747754,-9.0471894,21 Forster St,Galway,,083 136 7931,+353 83 136 7931,http://www.galwayecigarettes.com/
Ecigit Portsmouth,50.8180063,-1.0791815,153 London Rd,Portsmouth,PO2 9AA,023 9269 5998,+44 23 9269 5998,
Social Vaping Shop & Café,52.767263,-2.377162,Baddeley Court,Newport,TF10 7AD,01952 813582,+44 1952 813582,http://www.socialvaping.co.uk/
Totally Wicked Oldham,53.5271425,-2.1116959,Totally Wicke,Oldham,OL8 3ED,0161 376 7447,+44 161 376 7447,http://totallywickedoldham.tel/
Vapourized,53.4832155,-2.3479352,"111 Liverpool Rd, Manchester",Eccles,M30 0ND,0161 707 8035,+44 161 707 8035,http://www.vapourized.co.uk/
Unique Vapour Yeovil,50.9421162,-2.632991,"St Johns House, Church St",Yeovil,BA20 1HE,01935 507077,+44 1935 507077,http://www.uniquevapour.co.uk/
Ecigwizard Wigston,52.5855925,-1.1058694,9 Bell St,Wigston,LE18 1AD,0116 201 9487,+44 116 201 9487,http://www.ecigwizard.com/
Safer Cigs,50.8567835,-2.1651688,22 Salisbury St,Blandford Forum,DT11 7AR,01258 880357,+44 1258 880357,http://www.safercigs.co.uk/
Doctor Hermans,53.7971902,-1.540495,37-39 Vicar Ln,Leeds,LS1 6DS,0113 243 9449,+44 113 243 9449,
The Vape Inn Basingstoke,51.249735,-1.0997589,"Brunswick Pl, Cranbourne Ln",Basingstoke,RG21 3NN,07475 204933,+44 7475 204933,http://www.thevapeinn.co.uk/
Tasty Vape ELECTRONIC CIGARETTES - Ecig,53.7715841,-2.7121764,138 Plungington Rd,Preston,PR1 7UD,07773 123321,+44 7773 123321,http://www.tastyvape.co.uk/
Vape Town Leighton Buzzard,51.917381,-0.660645,14 North St,Leighton Buzzard,LU7 1EN,01525 375503,+44 1525 375503,http://www.vapetown.co.uk/
Vape-It uk Ltd,51.0383625,-3.0957763,"3, Apple Business Centre, Frobisher Way",Taunton,TA2 6BB,01823 338646,+44 1823 338646,http://vape-it.co.uk/
Vapour4you,53.0120031,-2.2291266,High St,Newcastle,ST5 1RA,,,http://vapour4you.co.uk/
Bean Smoking,55.8724601,-4.302296,67 Hyndland St,Glasgow,G11 5PS,0141 334 7284,+44 141 334 7284,http://www.beansmoking.co.uk/
Vapour Frog,55.8570723,-4.2468608,113-117 Trongate,Glasgow,G1 5HD,,,
Worlds Finest Vape Shop e-cig,40.1055474,-75.3457731,132 W 4th St,Bridgeport,19405,(484) 219-4184,+1 484-219-4184,http://www.worldsfinestvapeshop.com/
No.1 EJuice,51.4633754,0.1025287,86 Bellegrove Rd,Welling,DA16 3QB,020 8298 7659,+44 20 8298 7659,http://www.no1ejuice.com/
Vapourpal Gorey,52.6790621,-6.287943,"Ambassador Retail Park, Arklow Road",Gorey,,(053) 948 1328,+353 53 948 1328,
Mikes Of Cardigan,52.0825684,-4.6605137,Chancery Ln,Cardigan,SA43 1HD,01239 614483,+44 1239 614483,http://www.mikesofcardigan.co.uk/
The Smoker Angel,51.6382718,-4.1308212,"Crofty Industrial Estate, Pen-clawdd",Swansea,SA4 3RS,01792 852843,+44 1792 852843,http://www.thesmokersangel.co.uk/
TABlites Huddersfield,53.645696,-1.7786245,"Kingsgate Shopping, King St",Huddersfield,HD1 2QB,0161 832 4311,+44 161 832 4311,http://tablites.com/tablites-huddersfield
The Vape House,51.572444,-3.220569,10 Clive St,Caerphilly,CF83 1GE,029 2088 9051,+44 29 2088 9051,http://thevapehouse.co.uk/
Mirage Cigarettes,53.3471316,-1.4888211,134 Archer Rd,Sheffield,S8 0JZ,0845 475 0148,+44 845 475 0148,http://www.miragecigarettes.co.uk/
Social Vaping Lounge,52.8051816,-2.1173662,4 Mill St,Stafford,ST16 2AJ,01785 220666,+44 1785 220666,http://www.socialvaping.co.uk/
Ecigwizard Wilmslow,53.3266142,-2.2377057,"57 Water Ln, Wilmslow SK9 5BQ, ",,SK9 5BQ,01625 539550,+44 1625 539550,
Johnny's Tobacconist,50.41368,-5.083406,54 Bank St,Newquay,TR7 1AX,01637 859375,+44 1637 859375,http://www.johnnystobacconist.co.uk/
Bettys Ecig Store,50.214471,-5.296111,71 Trelowarren St,Camborne,TR14 8AL,01209 711133,+44 1209 711133,http://www.bettysecigstore.com/
Puff In Peace,52.582094,-1.980795,8 George St,Walsall,WS1 1RA,01922 276171,+44 1922 276171,http://www.puffinpeace.co.uk/
Alectrofag E-Cig & Vape Shop Liverpool,53.3900989,-2.9287234,457 Smithdown Rd,Liverpool,L15 3JL,0151 735 1036,+44 151 735 1036,http://www.alectrofag.co.uk/
Vape It Easy - Quedgeley,51.828545,-2.2738,"18, Space Business Centre, Olympus Park, Quedgeley",GL2 4AL,,07519 982194,+44 7519 982194,http://www.vapeiteasy.net/
Vvapour eCigarette Vape Shop,52.531915,-1.9976273,86 Church Ln,West Bromwich,B71 1AS,07976 425124,+44 7976 425124,
Celtic Vapours Ltd E-liquids Manufactures & Suppliers of electronic cigarettes.,51.654031,-3.91036,"Unit 7, Rainbow business centre, Phoenix way, Enterprise park, Llansamlet",Swansea,SA7 9FP,01792 447247,+44 1792 447247,http://www.celticvapours.com/
VaperStar eCigarettes Dorchester,50.7148135,-2.4355608,"the 1jp, 3 Durngate St",Dorchester,DT1 1JP,01305 269971,+44 1305 269971,http://www.vaperstar.co.uk/
Vapers Juice,52.1373876,-0.4674048,5 The Arcade,Bedford,MK40 1NS,01234 352123,+44 1234 352123,http://www.vapersjuice.com/
Vaporized,55.9416124,-3.1817792,73 Clerk St,Edinburgh,EH8 9JG,0131 281 0053,+44 131 281 0053,http://www.vaporized.co.uk/
Green Worthing,50.817907,-0.37713,63 Victoria Rd,Worthing,BN11 1UN,01903 200110,+44 1903 200110,http://www.greenworthing.co.uk/
Vapor-Z Leyland,53.6980382,-2.6901671,15 Golden Hill Ln,Leyland,PR25 3NP,01772 460376,+44 1772 460376,http://www.vapor-z.co.uk/
Southampton Vaping Centre,50.9202918,-1.4306615,415 Shirley Rd,Southampton,SO15 3JF,023 8077 4495,+44 23 8077 4495,http://www.southamptonvapingcentre.co.uk/
Vvapour Derby Vape Shop,53.1071655,-1.3418078,78 High St,South Normanton,DE55 2BP,01773 861933,+44 1773 861933,http://vvapour.co.uk/locations/derby-vvapour-e-cig-store/
VapeHQ Grantham,52.9140829,-0.6432839,14 Watergate,Grantham,NG31 6PR,01476 979642,+44 1476 979642,http://vapehq.co.uk/storelocator
VapeHQ Wellingborough,52.3035889,-0.6897789,5 Cannon St,Wellingborough,NN8 4DJ,01933 276163,+44 1933 276163,http://vapehq.co.uk/storelocator
The Vape Hut,51.5447527,-0.2015619,331 Kilburn High Rd,London,NW6 7QB,020 7625 4699,+44 20 7625 4699,http://vapour-hut.co.uk/
Boston Vape,52.977867,-0.024789,11 Church St,Boston,PE21 6NW,07930 665954,+44 7930 665954,http://www.bostonvape.co.uk/
NORTHWICH VAPING/ELECTRONIC CIGARETTES/ELIQUID,53.2620533,-2.5097814,74 Witton St,Northwich,CW9 5AE,01606 42595,+44 1606 42595,
Vape safe York,53.960536,-1.0841135,8 stonegate,York,YO1 8AS,01904 848488,+44 1904 848488,http://www.vapesafe.net/
Vapepit,51.3667881,-0.153185,9 Manor Rd,Wallington,SM6,020 8669 6705,+44 20 8669 6705,http://www.vapepituk.com/
Lynn's Vape Shop,37.3555082,-121.8512972,1939 Alum Rock Ave,San Jose,95116,(408) 644-2133,+1 408-644-2133,http://www.lynnsvapeshop.com/
Vape Affair,37.3527786,-121.9792727,2905 El Camino Real,Santa Clara,95051,(408) 244-2778,+1 408-244-2778,http://vapeaffair.com/
The Vapor Spot- Vape Shop and Vapor Bar,38.5738809,-121.4703091,2700 J St,Sacramento,95816,(916) 321-9590,+1 916-321-9590,http://www.thevaporspot.com/
Vapor Pharm Vape Shop,38.1049712,-122.2384569,621 Tuolumne St,Vallejo,94590,(707) 644-4421,+1 707-644-4421,
"Vape Dreams, LLC",37.6881053,-122.4685504,16 Washington St,Daly City,94014,(650) 731-4861,+1 650-731-4861,
Levels Vape Shop Sacramento,38.4785975,-121.4242504,7660 Stockton Blvd,Sacramento,95823,(916) 229-2574,+1 916-229-2574,
Great Vape Inc.,37.3632,-122.0256753,583 E El Camino Real,Sunnyvale,94087,(408) 746-9971,+1 408-746-9971,http://www.greatvapesv.com/
The Vaping Buddha,37.6498685,-122.4313337,615 W Orange Ave,South San Francisco,94080,(650) 952-3596,+1 650-952-3596,http://thevapingbuddha.com/
Discount Cigarette,37.66466,-122.0777133,24289 Mission Blvd,Hayward,94544-1020,(510) 690-0853,+1 510-690-0853,
Vape The Grape,38.3203352,-122.3071781,3371 Old California Way,Napa,94558,(707) 225-7441,+1 707-225-7441,http://www.vapethegrape.com/
Frisco Vapor - Electronic Cigarette Store,37.8000737,-122.4323571,1881 Lombard St,San Francisco,94123,(415) 299-8300,+1 415-299-8300,http://friscovapor.com/
Tonic Vape Shop,38.5909984,-121.4021807,1401 Fulton Ave,Sacramento,95825,(916) 515-9535,+1 916-515-9535,
Leeland's Shop,37.9764809,-122.0371924,1905 Salvio St,Concord,94520,(925) 609-9281,+1 925-609-9281,
3 Monkeys Smoke & Vape Shop,38.7432426,-121.2568058,1850 Douglas Blvd,Roseville,95661,(916) 781-2838,+1 916-781-2838,http://www.threemonkeysmokes.com/
3 Monkeys Smoke & Vape Shop,38.7622503,-121.3126397,5140 Foothills Blvd #170,Roseville,95747,(916) 773-5969,+1 916-773-5969,http://www.threemonkeysmokes.com/
Gone With The Smoke,37.7865948,-122.4125961,569 Geary St,San Francisco,94102,(415) 938-7508,+1 415-938-7508,http://www.gonewiththesmoke.com/
Tasty Vapor,37.783164,-122.2409861,1017 22nd Ave #110,Oakland,94619,(888) 389-3229,+1 888-389-3229,http://www.tastyvapor.us/
Vape Away Belmont,37.5154713,-122.2705087,1538 El Camino Real Unit B,Belmont,94002,(650) 453-3162,+1 650-453-3162,http://vapeawaybelmont-hub.com/
Juicebox Vapor,37.7429057,-122.4759412,907 Taraval St,San Francisco,94116,(415) 564-5066,+1 415-564-5066,
Cloud House Vape,37.6979493,-122.1303834,15251 Hesperian Blvd,San Leandro,94578,(510) 276-2002,+1 510-276-2002,http://cloudhousevape.com/
Vapourway,50.7359844,-1.7608024,128 Purewell,Christchurch,BH23 1EU,01202 484804,+44 1202 484804,http://www.vapourway.org.uk/
JAC Vapour,55.9274447,-3.2090738,245 Morningside Rd,Edinburgh,EH10 4QU,0131 447 8694,+44 131 447 8694,https://www.jacvapour.com/edinburgh
Green Vape Limited,52.633955,-1.211269,173-187 Scudamore Rd,Leicester,LE3 1UQ,0116 287 4830,+44 116 287 4830,http://www.greenvapelimited.co.uk/
Vape Central,52.4952999,-0.6862782,42 Rockingham Rd,Corby,NN17 1AD,01536 261433,+44 1536 261433,https://www.facebook.com/VapeCentralUK
Vape Central,52.669273,-0.729995,"6 Knights Yard,, Gaol St",Oakham,LE15 6AQ,,,
Litejoy Ltd,52.664937,-1.172107,"Unit 2, Forward Park,, Sheene Road,, Beaumont Leys,","Leicester,",LE4 1BF,0116 234 4820,+44 116 234 4820,http://www.litejoy.co.uk/
Vape Central,52.4013768,-0.7237073,31 Montagu St,Kettering,NN16 8XG,01536 618534,+44 1536 618534,https://plus.google.com/103631540063524801045/
Phoenix Electronic Cigarettes - Stamford,52.6522876,-0.4770512,18 Maiden Ln,Stamford,PE9 2AZ,01780 764585,+44 1780 764585,https://phoenixeliquid.co.uk/
VapeHQ Loughborough,52.7722217,-1.2047449,61 Baxter Gate,Loughborough,LE11 1TH,01509 238180,+44 1509 238180,http://vapehq.co.uk/storelocator
Vapejoy,52.7716114,-1.2083118,48 Market St,Loughborough,LE11 3ER,01509 264298,+44 1509 264298,http://www.vapejoy.co.uk/
Ecigwizard Melton Mowbray,52.7643204,-0.8860978,8 Market Place,Melton Mowbray,LE13 1XD,01664 668182,+44 1664 668182,http://www.ecigwizard.com/
Phoenix Electronic Cigarettes - Rugby,52.3713237,-1.2627713,13 High St,Rugby,CV21 3BG,01780 764585,+44 1780 764585,https://phoenixeliquid.co.uk/
VapeHQ Shepshed,52.7709483,-1.2911311,15 Charnwood Rd,Shepshed,LE12 9QE,01509 505499,+44 1509 505499,http://vapehq.co.uk/storelocator
Ecigwizard,52.3011702,-0.6939312,5 Silver St,Wellingborough,NN8 1BQ,01933 778288,+44 1933 778288,http://www.ecigwizard.com/
Phoenix Electronic Cigarettes - Leicestershire,52.665982,-1.166672,Beaumont Leys Shopping Centre,Leicester,LE4 1DE,01780 764585,+44 1780 764585,https://phoenixeliquid.co.uk/
Nuclear Vapours,51.4813951,-2.5127841,41 High St,Bristol,BS16 5HD,07873 983872,+44 7873 983872,http://www.facebook.com/nuclearvapours
Vapour Days,51.456751,-2.58986,"Middle Floor The Galleries Shopping Centre, Union St",Bristol,BS1 3XD,0117 925 6413,+44 117 925 6413,https://www.vapourdays.co.uk/
Phoenix Electronic Cigarettes - Colchester,51.8879832,0.8983205,22 Sir Isaac's Walk,Colchester,CO1 1JJ,01780 764585,+44 1780 764585,https://phoenixeliquid.co.uk/
The Vape Ape,52.7025766,-2.016075,21,Cannock,WS11 5DD,01543 503335,+44 1543 503335,http://www.thevapeape.co.uk/
Totally Wicked Uttoxeter,52.900466,-1.8662536,53 High St,Uttoxeter,ST14 7JQ,01889 560200,+44 1889 560200,http://www.totallywicked-retail.co.uk/uttoxeter-ecig-shop-discco.html
E-Juice World,52.750887,-1.915653,"Rugeley WS15 1UZ, ",,WS15 1UZ,0843 659 3890,+44 843 659 3890,http://www.e-juiceworld.com/
Flavour Vapour Bristol,51.4579479,-2.5903249,17/18 St James Arcade,Bristol,BS1 3JA,0117 930 4558,+44 117 930 4558,https://www.facebook.com/BristolVapour
E-vapor,51.457585,-2.5915,58 Union St,Bristol,BS1 2DL,0117 954 4777,+44 117 954 4777,http://www.evapor.co.uk/
Vapour generation,51.4547358,-2.593567,Corn St,Bristol,BS1,,,http://www.vapourgeneration.co.uk/
VapeClass,51.4951911,-2.5741941,384 Filton Ave,Bristol,BS7 0BE,0117 904 9752,+44 117 904 9752,http://www.vapeclass.co.uk/
Chunes,50.6078435,-2.4533727,9 Mitchell St,Weymouth,DT4 8BT,01305 788880,+44 1305 788880,
VapeTronics,50.594744,-2.473522,42 Williams' Ave,Weymouth,DT4 9BP,01305 766515,+44 1305 766515,
Flavour Vapour Torquay,50.4680115,-3.5313877,113 Union St,Torquay,TQ1 3DW,01803 463714,+44 1803 463714,http://www.flavourvapour.co.uk/
Supa Vape,50.5356781,-3.6370916,112 Ashburton Rd,Newton Abbot,TQ12 1RJ,01626 245033,+44 1626 245033,
Bedford Vape,52.1399414,-0.4684454,97 Harpur St,Bedford,MK40 2SY,01234 365522,+44 1234 365522,http://www.bedfordvape.co.uk/
Go Vapour UK Ltd,51.2092047,-1.4784605,2 Newbury Street,Andover,SP10 1DN,07557 344214,+44 7557 344214,http://www.govapour.com/
The Electronic Cigarette Shop,51.7428714,-3.377087,19 Lower High St,Merthyr Tydfil,CF47 8EB,01685 377160,+44 1685 377160,
Vape,51.6640676,-3.80598,11 Croft Rd,Neath,SA11 1DR,01639 262728,+44 1639 262728,
Vaper Store,51.6606847,-3.4473269,"59 Duffryn St, Ferndale CF43 4EW, ",,CF43 4EW,01443 757687,+44 1443 757687,http://vaperstore.co.uk/
SWITCH ECig Xpress Tonypandy,51.6259064,-3.4572853,11 Llwynypia Rd,Tonypandy,CF40 2EL,01633 960661,+44 1633 960661,http://switchecig.co.uk/
CigVape - Electronic Cigarette & E Liquid Vending Machine,56.0726619,-3.4636021,31 Chapel St,Dunfermline,KY12 7AW,0131 202 9170,+44 131 202 9170,http://www.cigvape.co.uk/
Vaperit Limited,55.9491652,-3.187817,"23 Blair St, Edinburgh EH1 1QR, ",,EH1 1QR,0131 510 0888,+44 131 510 0888,
iTaste Vapour,55.960309,-3.171541,32 Easter Rd,Edinburgh,EH7,0131 661 6651,+44 131 661 6651,
Vapourlicious,52.4158698,-4.0836359,40 Terrace Rd,Aberystwyth,SY23 2AE,01970 358693,+44 1970 358693,
Mirage Cigarettes,51.8856938,0.8945904,74-76 Butt Rd,Colchester,CO3 3DA,01206 570916,+44 1206 570916,
Cartomizer World,52.751048,-1.915622,"Rugeley WS15 1UZ, ",,WS15 1UZ,0843 224 9523,+44 843 224 9523,
Phoenix Eliquids (Newport Pagnell),52.086226,-0.722221,"9 Tickford Arcade, Silver St",Newport Pagnell,MK16 0EX,,,http://www.phoenixeliquid.co.uk/
Aberystwyth,52.4140745,-4.0817605,United Kingd,,,,,
Totally Wicked,53.7971412,-1.5399525,"Leeming House, Vicar Ln",Leeds,LS2 7JF,0113 244 8753,+44 113 244 8753,http://www.totallywicked-retail.co.uk/leeds-ecig-shop.html
JAC Vapour Leeds,53.7958602,-1.5434276,11 Boar Ln,Leeds,LS1,0113 245 2509,+44 113 245 2509,https://www.jacvapour.com/leeds
Ma Vapour - Vaping Devices & Supplies,53.2895269,-3.6983611,"11 Cefn Rd, Old Colwyn",Conwy,LL29 9PN,01492 330670,+44 1492 330670,http://www.mavapour.co.uk/
Juice33 Vape Lounge,51.8563108,-4.3059412,1B King St,Carmarthen,SA31 1BA,01267 243440,+44 1267 243440,http://www.juice33.com/
Vibrant Vapours E-Liquid,51.8579272,-4.3036406,"Carmarthen SA31 1BS, ",,SA31 1BS,0845 557 8210,+44 845 557 8210,http://www.vibrant-vapours.com/
Pwllheli,52.887422,-4.417879,United Kingd,,,,,
Vapourlicious cwmbran ltd,51.651893,-3.02065,Market village 34 the mall,Cwmbran,NP44 1PX,01633 484415,+44 1633 484415,http://www.vapourliciouscwmbran.co.uk/
Flatfoot Sams,51.652905,-3.020559,34 The Mall,Cwmbran,NP44 1PX,07971 951173,+44 7971 951173,
The Vape Place,51.5728833,-3.220456,1 Pentrebane St,Caerphilly,CF83 1FR,029 2088 1248,+44 29 2088 1248,http://www.thevapeplace.co.uk/
The Vape Chase - Vapour lounge,51.5129396,-3.22019,"4A Merthyr Rd, Cardiff",Whitchurch,CF14 1DG,029 2062 7232,+44 29 2062 7232,http://www.thevapechase.co.uk/
Oxford Vapours,51.6710186,-1.2812939,27 Stert St,Abingdon,OX14 3JF,01235 531417,+44 1235 531417,https://www.oxfordvapours.com/
Vapouriz Ltd Head Office,51.2571988,-0.5320794,"Genesis House, Merrow Ln",Guildford,GU4 7BN,01483 779170,+44 1483 779170,http://www.vapouriz.co.uk/
Sweet Cloud,51.321065,-0.5572719,"Central Buildings, Chobham Rd",Woking,GU21 6JH,01483 770045,+44 1483 770045,http://www.sweetcloud.co.uk/
Vapouriz Retail Ltd,51.2355975,-0.5756399,12B White Lion Walk,Guildford,GU1 3DN,01483 779189,+44 1483 779189,http://www.vapouriz.co.uk/
Wellers,51.233178,-0.329321,201A High St,Dorking,RH4 1RU,01306 882330,+44 1306 882330,http://thetobacconist.co.uk/
Tank Puffin,51.6189109,0.0746647,7B Brook Parade,Chigwell,IG7 6PE,020 8501 5311,+44 20 8501 5311,http://www.tankpuffin.co.uk/
Tank Puffin,51.6456768,0.053567,193 High Rd,Loughton,IG10 4LF,020 8502 0357,+44 20 8502 0357,http://www.tankpuffin.co.uk/
Tank Puffin,51.7007905,0.1139862,240A High St,Epping,CM16 4AP,01992 575654,+44 1992 575654,http://www.tankpuffin.co.uk/
Rock Vape Ltd,51.599387,0.077631,5 Stalham Way,Ilford,IG6 2GE,020 3539 1526,+44 20 3539 1526,http://www.rockvape.co.uk/
Ecigwizard York,53.9622862,-1.0787798,9 Goodramgate,York,YO1 7LW,01904 675027,+44 1904 675027,http://www.ecigwizard.com/
Total Vape Electronic Cigarettes,53.7473072,-2.4837371,9 Fleming Square,Blackburn,BB2 2DG,01254 676789,+44 1254 676789,
The Ace Of Vapez,52.6298381,-2.2010402,"11 Station Rd, Codsall",Wolverhampton,WV8 1BX,01902 276807,+44 1902 276807,http://www.theaceofvapez.co.uk/
vapour parlour,53.6083389,-1.3481772,"83 Kirkby Rd, Hemsworth",Pontefract,WF9 4BX,01977 615667,+44 1977 615667,
Darthvaper,53.6249814,-1.3679928,"86 Wakefield Rd, Kinsley",Pontefract,WF9 5EH,07460 377509,+44 7460 377509,http://www.darthvaper.co.uk/
vapeGB,53.575897,-1.4186045,"St John's Rd, Cudworth",Barnsley,S72 8BF,07545 319014,+44 7545 319014,http://www.vapegb.co.uk/
Various Vapz,52.5794664,1.7279189,157 High St,Gorleston,NR31 6RB,07518 038784,+44 7518 038784,http://www.variousvapz.co.uk/
Ministry Of Vape,52.6070711,1.7298066,109 Regent St,Great Yarmouth,NR30 2AE,07949 880083,+44 7949 880083,http://www.ministryofvape-greatyarmouth.co.uk/
IJustWannaVape Electronic Cigarettes,52.6068607,1.7268476,38 Regent St,Great Yarmouth,NR30,01493 852734,+44 1493 852734,http://www.ijustwannavape.co.uk/
No-Match E-Cigs - Great Yarmouth,52.6068607,1.7268476,38 Regent St,Great Yarmouth,NR30,01493 852734,+44 1493 852734,
IJustWanna,52.481236,1.7556185,70 High St,Lowestoft,NR32 1XN,01502 515918,+44 1502 515918,http://ijustwanna.co.uk/
IJustWannaVape Electronic Cigarettes,52.481277,1.755758,70 High St,Lowestoft,NR32,01502 515918,+44 1502 515918,http://www.ijustwannavape.co.uk/
EVape Electronic Cigarettes,51.528182,-0.2674443,"47-49 Park Royal Rd, Ealing",London,NW10 7LQ,020 8453 9920,+44 20 8453 9920,https://www.evape.com/gb_en
Liberty Flights,51.4819768,-0.1996256,"433 North End Rd, Fulham",London,SW6 1NY,020 7385 5487,+44 20 7385 5487,http://www.liberty-flights.co.uk/
Vape Creators,51.4968455,-0.312563,135 Little Ealing Ln,London,W5 4EJ,020 8567 5111,+44 20 8567 5111,https://vapecreators.com/
Vape Store Greenford,51.52733,-0.351478,"315, Ruislip Rd E",Greenford,UB6 9BG,0333 323 7733,+44 333 323 7733,http://www.vape.uk.net/
Mobiley & Gold Vape London,51.5172563,-0.1660915,165 Edgware Rd,London,W2 2HR,07460 266666,+44 7460 266666,
House of Vapes - London,51.4630734,-0.1702892,"Brighton Buildings, St John's Hill",London,SW11 1RZ,020 7228 4232,+44 20 7228 4232,http://www.houseofvapeslondon.co.uk/
Vape and Volts Ltd,51.5426741,-0.14747,3,Chalk Farm,NW1 8AJ,020 3758 3777,+44 20 3758 3777,http://www.vapeandvolts.co.uk/
House of Vapes - London,51.5222593,-0.0783446,232 Shoreditch High St,London,E1 6PJ,020 3583 4070,+44 20 3583 4070,http://www.houseofvapeslondon.co.uk/
FunkE Designer Vaping,51.5226108,-0.1658078,"31 Shroton St, Marylebone",London,NW1,07598 252684,+44 7598 252684,
EcigKiosksPortadown.com,54.4201572,-6.438473,"The Meadows Shopping Centre, Meadow Ln, Portadown",Craigavon,BT62 3TN,07732 483181,+44 7732 483181,https://www.facebook.com/EcigKioskPortadown/info?tab=overview
Puff In Peace,52.7009561,-2.519067,"3 Market St, Wellington",Telford,TF1 1DT,01952 240149,+44 1952 240149,http://puffinpeace.co.uk/
Pandoras Box,52.7074261,-2.7531121,11 High St,Shrewsbury,SY1 1SP,01743 243445,+44 1743 243445,
Green dog vaping Penkridge,52.725531,-2.114803,"No. 2, Top Corner,, Market St",Penkridge,ST19 9DH,01785 711377,+44 1785 711377,
The Puffin Hut,51.5409305,-1.9062135,"18 High St, Royal Wootton Bassett",Swindon,SN4 7AA,01793 850200,+44 1793 850200,http://www.thepuffinhut.com/
Bonmarché,51.5400529,-2.412707,"7- Shopping centre, 11 S Walk",Yate,BS37 4AU,01454 329220,+44 1454 329220,http://www.bonmarche.co.uk/
Phoenix Electronic Cigarettes - Banbury,52.0629184,-1.3355591,"Castle Quay Shopping Centre, (Located within the Market Place), Castle Quay",Banbury,OX16 5UN,01780 764585,+44 1780 764585,https://phoenixeliquid.co.uk/
Electronc Cigarettes by I-vapo,52.0624191,-1.3350351,Castle St,Banbury,OX16 5UN,,,
Tooley's Boatyard,52.0633583,-1.3333885,Spiceball Park Rd,Banbury,OX16 2PQ,01295 272917,+44 1295 272917,http://www.tooleysboatyard.co.uk/
Vaporized,55.9338337,-3.4097414,"3-4, Newbridge Ind Est, Cliftonhall Rd, Newbridge",Edinburgh,EH28 8PW,0131 335 3859,+44 131 335 3859,http://www.vaporized.co.uk/
Ezi-vape,53.9261906,-1.8221367,16A Leeds Rd,Ilkley,LS29 8DJ,01943 969954,+44 1943 969954,
ECigaretteOutlet,53.8341448,-1.777667,27 Kirkgate,Shipley,BD18 3QW,01274 593182,+44 1274 593182,http://www.ecigaretteoutlet.co.uk/
Craven Court Shopping Centre,53.9612182,-2.0158594,High St,Skipton,BD23 1DG,01756 700048,+44 1756 700048,http://www.cravencourtshoppingcentre.co.uk/
Ecigaretteoutlet keighley,53.8661055,-1.909889,13 North St,Keighley,BD21 3SL,01535 608858,+44 1535 608858,
Prohibition Vapes,51.2740639,0.5207018,24-26 Pudding Ln,Maidstone,ME14 1LT,01622 851436,+44 1622 851436,http://www.prohibitionvapes.co.uk/
Kent Vapour,51.274316,0.5217183,17 Market Buildings,Maidstone,ME14 1HP,01622 920046,+44 1622 920046,http://www.kentvapour.com/
TJ's E-Cigarettes Gravesend,51.443095,0.369398,33 High St,Gravesend,DA11 0AZ,01474 329742,+44 1474 329742,http://www.tj-ecigs.co.uk/
Tj's E Cigarettes -,51.3499828,0.7320688,"111 High St, Milton on Stour",Milton Regis,ME10 2AR,01795 229116,+44 1795 229116,http://www.tj-ecigs.co.uk/
White Fog,51.2726008,0.5246415,"6, Granada House, Lower Stone St",Maidstone,ME15 6JR,07594 007600,+44 7594 007600,http://www.whitefog.co.uk/
Vapez Club,51.3727169,-0.4843033,188 Station Rd,Addlestone,KT15 2BD,01932 848437,+44 1932 848437,
Vape Royale Canterbury,51.2809034,1.0767575,41A St Peter's St,Canterbury,CT1 2BG,01227 634280,+44 1227 634280,http://www.vaperoyale.co.uk/
SMOK' air Store,51.1310739,1.3046024,12 London Rd,Dover,CT17 0ST,01304 212609,+44 1304 212609,http://www.smokairuk.com/
All About Da Vape Ltd,51.2240681,1.4022503,22 Park St,Deal,CT14 6AG,01304 389546,+44 1304 389546,http://www.allaboutdavape.co.uk/
Vapourite UK Coppull,53.6217319,-2.6631881,"210 Spendmore Ln, Coppull",Chorley,PR7 5BZ,01257 795400,+44 1257 795400,http://vapourite.co.uk/
Sky Throne Ltd,53.554489,-2.675209,"10, Quays Reach, Carolina Way, Wigan",Salford,M50 2ZY,0345 257 0668,+44 345 257 0668,http://www.truvape.co.uk/
Vapour Sensation,53.5933327,-2.5435209,"276B Chorley New Rd, Horwich",Bolton,BL6 5NY,07885 682222,+44 7885 682222,http://www.vapoursensation.co.uk/
Vape Saloon,53.5439957,-2.6336477,41 Wallgate,Wigan,WN1,01942 604359,+44 1942 604359,http://vapesaloon.co.uk/
Vapour Zone,53.6468274,-2.6347211,128 Pall Mall,Chorley,PR7 2LD,01257 367463,+44 1257 367463,
Cloudstix,53.547065,-2.63183,United Kingdom,Wigan,,01942 244820,+44 1942 244820,http://www.cloudstix.com/
Totally Wicked Bolton,53.5801771,-2.428775,32 Corporation St,Bolton,BL1 2AN,01204 526254,+44 1204 526254,http://www.totallywicked-eliquid.co.uk/
Slik Cigs,53.542225,-1.105223,"Wheatley Hall Retail Centre, Wheatley Hall Rd",Doncaster,DN2 4PE,0845 108 7233,+44 845 108 7233,http://www.slikcigs.com/
Smoke Free Electronic Cigarette Company,53.5217057,-1.1334383,23 Young St,Doncaster,DN1 3EH,01302 360131,+44 1302 360131,http://www.smokefreeecigarettes.co.uk/
Cigara - Doncaster Branch,53.5226117,-1.1347926,8 Priory Pl,Doncaster,DN1 1TS,01302 556454,+44 1302 556454,https://www.cigara.co.uk/
Massarellas,53.5219506,-1.1343861,40 Printing Office St,Doncaster,DN1 1TR,01302 363168,+44 1302 363168,
Vapourized Halliwell,53.5929876,-2.4398787,309 Halliwell Rd,Bolton,BL1 3PF,01204 782466,+44 1204 782466,
eciguk.net,53.5970478,-2.2846401,Church St,Bury,BL9 6BN,0161 826 7516,+44 161 826 7516,
Cig-Ease,53.5680029,-2.3356634,"146 Ainsworth Rd, Radcliffe",Manchester,M26 4ED,0161 725 9016,+44 161 725 9016,http://www.cig-ease.co.uk/
Fresh Mist UK,53.5880209,-2.4278805,232 Waterloo St,Bolton,BL1 8HU,01204 288030,+44 1204 288030,http://www.freshmist.co.uk/
Emist Vapours,53.545366,-2.391081,"66 Higher Market St, Farnworth",Bolton,BL4 9BB,01204 574000,+44 1204 574000,http://www.totallywicked-retail.co.uk/Bolton-e-cig-shop-e-mist-vapours.html
FreshMist Bury Road,53.5806835,-2.3854347,816 Bury Rd,Bolton,BL2 6PA,01204 391950,+44 1204 391950,http://www.freshmist.co.uk/
UVAPE® LTD - Vaping solutions,53.591525,-2.2940853,5 Market Parade,Bury,BL9 0BJ,01706 364127,+44 1706 364127,
Vape Citi,53.592223,-2.296785,5 Market St,Bury,BL9 0BL,0161 761 2201,+44 161 761 2201,https://m.facebook.com/vapecitiuk/
Cig-Ease Electronic Cigarettes,53.5677289,-2.4636176,300 Wigan Rd,Bolton,BL3 5QT,01204 658616,+44 1204 658616,http://www.cig-ease.co.uk/
The Electronic Cigarette Store,53.647868,-2.317535,"Princes Court, Silver St, Ramsbottom",Bury,BL0 9BJ,01706 822866,+44 1706 822866,http://www.theecigstore.co.uk/
Vaporized,55.775298,-4.0350556,62 Quarry St,Hamilton,ML3 7AU,01698 423137,+44 1698 423137,http://www.vaporized.co.uk/locations/hamilton/
Vapour Right,56.1161748,-3.7919068,64 Drysdale St,Alloa,FK10 1JL,01259 929503,+44 1259 929503,http://www.facebook.com/stirlingvapourright
Vapeshed,56.1434967,-3.7410472,"2 School Terrace, Coalsnaughton",Tillicoultry,FK13 6JU,07723 072241,+44 7723 072241,http://blog.vapeshed.co.uk/
Carmichael's Vaping The Next Generation,51.9999244,-0.9882488,31 West St,Buckingham,MK18 1HE,01280 816463,+44 1280 816463,http://www.carmichaelsvaping.co.uk/
The Vape Lounge,54.2322032,-1.3438255,7 Market Pl,Thirsk,YO7 1HQ,01845 525571,+44 1845 525571,https://m.facebook.com/TheVapeLoungethirsk/
Shadowvaporz (WV),52.5562614,-2.1702769,8 Springhill Ln,Wolverhampton,WV4 4SH,07468 560324,+44 7468 560324,http://www.shadowvaporz.com/
The Ace Of Vapez,52.6126503,-2.099732,757 Cannock Rd,Wolverhampton,WV10 8PN,01902 276132,+44 1902 276132,http://www.theaceofvapez.co.uk/
The VAPE hut,52.4561346,1.4373123,10 Market Pl,Bungay,NR35 1AW,01986 892486,+44 1986 892486,
Vapeworx,52.306803,-1.9427728,17 Unicorn Hill,Redditch,B97 4QR,01527 60296,+44 1527 60296,http://vapeworx.co.uk/
Mist,52.3058927,-1.942049,"Walford House, Redditch B97 4HJ, ",,B97 4HJ,07587 109416,+44 7587 109416,
Ecigwizard Evesham,52.0919405,-1.9447593,47A Bridge St,Evesham,WR11 4SG,01386 389717,+44 1386 389717,http://www.ecigwizard.com/
B & M,52.3057867,-1.9450915,"43 Evesham Road, Redditch B97 4HJ, ",,B97 4HJ,,,http://www.bmstores.co.uk/
George Alan,52.3311295,-0.1816693,3 Chequers Way,Huntingdon,PE29 3LJ,01480 453488,+44 1480 453488,http://www.georgealan.co.uk/
Haines Watts Huntingdon,52.330097,-0.182876,Chequers Court,Huntingdon,PE29 3LJ,01480 434609,+44 1480 434609,http://www.hwca.com/accountants-huntingdon/
Vape Ninja,51.559683,-1.786808,11 Market St,Swindon,SN1 1RZ,07411 274336,+44 7411 274336,http://www.vapeninja.co.uk/
Vaporized,54.5257718,-1.5544569,4 Priestgate,Darlington,DL1 1NH,01325 351911,+44 1325 351911,
Post House News,54.5248938,-1.5567457,9 Post House Wynd,Darlington,DL3 7LU,01325 467672,+44 1325 467672,
Crème de Vape,51.716642,-0.623454,Asheridge Rd,Chesham,HP5 2QA,,,http://www.cremedevape.com/
I Love Vapour LTD,51.9168432,-0.6604635,3 Hockliffe St,Leighton Buzzard,LU7 1HG,0845 017 0800,+44 845 017 0800,http://www.ilovevapour.com/
Vape Town Milton Keynes,51.9952006,-0.7282911,133 Queensway,Bletchley,MK2 2DH,01908 365453,+44 1908 365453,http://www.vapetown.co.uk/
Vape Town High Wycombe,51.629565,-0.7511895,"2a Cornermarket, 2A Cornmarket",High Wycombe,HP11 2BW,,,http://www.vapetown.co.uk/
Vapourway,51.0731839,-1.787957,47 Estcourt Rd,Salisbury,SP1 3AS,01722 349064,+44 1722 349064,
Pothecary's,51.0694505,-1.8003089,27 Fisherton St,Salisbury,SP2 7SU,01722 333117,+44 1722 333117,
Vapour Wise Ltd.,51.4033386,-1.2589133,18 High St,Thatcham,RG19 3JD,01635 860889,+44 1635 860889,http://www.vapourwise.co.uk/
Health E Vape,51.459248,-1.0061736,627 Oxford Rd,Reading,RG30 1HP,0118 958 4860,+44 118 958 4860,https://www.pure-perfection.co.uk/
Berkshire Home Brew,51.4168566,-0.9641923,144 Whitley Wood Ln,Reading,RG2 8PP,0118 931 0979,+44 118 931 0979,http://www.berkshirehomebrew.com/
Liberty Flights - Newbury Shop - Electronic Cigarettes,51.4053952,-1.3253776,15 The Broadway,Newbury,RG14 1AS,0345 257 9008,+44 345 257 9008,http://www.liberty-flights.co.uk/
VapER+,51.2842723,-0.8360838,6 Kings Rd,Fleet,GU51 3AB,01252 623497,+44 1252 623497,http://www.facebook.com/vaperuk
Vanilla Vapes,51.3372604,-0.743983,84 High St,Camberley,GU15 3RS,01276 406996,+44 1276 406996,http://www.vanillavapes.co.uk/
Vape Compare - Electronic Cigarettes,52.0605932,1.1825591,45 Cauldwell Hall Rd,Ipswich,IP4 4QG,0800 246 1804,+44 800 246 1804,http://vape-compare.co.uk/
UK Ecig Bazaar,52.000234,-2.129023,"5h, Delta Drive",Tewkesbury,GL20 8HB,01684 296780,+44 1684 296780,http://www.ukecigbazaar.co.uk/
The Vapour Trail,51.1500813,0.8704526,1 New St,Ashford,TN24 8TN,01233 877876,+44 1233 877876,http://www.thevapourtrail.co.uk/
Ashford Vapes,51.1486587,0.8711136,12 Bank St,Ashford,TN23 1BX,01233 639825,+44 1233 639825,
Vapeology Ashford,51.1499732,0.8694471,16 New Rents,Ashford,TN23 1JJ,,,https://m.facebook.com/Vapeology-Ashford-Kent-UK-894312760586171/
Artisan Vapor Company Walsall,52.584781,-1.980885,21 Bridge St,Walsall,WS1 1DP,01922 277800,+44 1922 277800,https://www.artisanvapor.co.uk/
The Ace Of Vapez,52.6457996,-1.9307859,"111A High St, Brownhills",Walsall,WS8 6HL,01543 898001,+44 1543 898001,http://www.theaceofvapez.co.uk/
vape inn ltd,52.567078,-2.035267,58 King St,Wednesbury,WS10 8DE,0121 526 6183,+44 121 526 6183,http://www.vapeinnuk.co.uk/
VapeHQ Sutton Ashfield,53.125368,-1.264491,"VapeHQ, Church Street",Sutton-in-Ashfield,NG17 1AE,01623 559015,+44 1623 559015,http://vapehq.co.uk/storelocator
The Social Smoke,53.0495078,-1.4063599,1B Oxford St,Ripley,DE5 3AG,07770 513155,+44 7770 513155,http://www.thesocialsmoke.com/
The Best E Cigarette,53.097514,-1.38604,86 High St,Alfreton,DE55 7BE,01773 687073,+44 1773 687073,http://www.thebestecigarette.co.uk/
Ecigwizard Ashfield,53.1250664,-1.263611,"54 / 55, Forest St",Sutton-in-Ashfield,NG17 1BP,07951 811543,+44 7951 811543,http://www.ecigwizard.com/
The Best E Cigarette,53.0975185,-1.3860065,86 High St,Alfreton,DE55 7BE,01773 687073,+44 1773 687073,http://www.thebestecigarette.co.uk/
The Vapour Trail,50.8643522,0.2581907,55 High St,Hailsham,BN27 1AR,01323 351219,+44 1323 351219,http://www.thevapourtrail.co.uk/stores.html
VaporD'Lites Ltd,53.5914188,-0.6499073,132 High St,Scunthorpe,DN15 6ES,01724 487807,+44 1724 487807,http://www.vapordlites.co.uk/
Vapour Trail,51.0783435,1.1760199,2A Town Walk,Folkestone,CT20 2AD,01303 487929,+44 1303 487929,
Nucig,51.0950682,1.1507461,16 Shearway Business Park,Folkestone,CT19 4RH,0845 299 7576,+44 845 299 7576,http://www.nucig.co.uk/
Cherry Pie Boutique,55.7758291,-4.0340332,16 Quarry St,Hamilton,ML3 7BB,01698 200180,+44 1698 200180,http://www.cherrypieboutique.co.uk/
Bonmarché,55.7607794,-4.1754383,"2-4 Princes Mall, East Kilbride",Glasgow,G74 1JU,01355 260816,+44 1355 260816,http://www.bonmarche.co.uk/
Alston Moor eCig Shop,54.812631,-2.438964,"@Alston Digital, Alston CA9 3HS, U",Alston,CA9 3HS,01434 382488,+44 1434 382488,
Vapeorium,51.539261,0.711159,7 Faringdon Service Road,Southend-on-Sea,SS1 1NN,01702 864542,+44 1702 864542,http://www.facebook.com/vapeorium7
Vaping Central,51.5814161,0.707028,2 South St,Rochford,SS4 1BQ,01702 875249,+44 1702 875249,http://www.vapingcentral.co.uk/
The Mad Cow Vape House,51.3639205,0.6065694,59 High St,Rainham,ME8 7HS,01634 263353,+44 1634 263353,
Vape and Juice - Leigh On Sea Vapers,51.5432588,0.6647257,"155 Leigh Rd, Southend-on-Sea",Leigh-on-Sea,SS9 1JF,01702 831818,+44 1702 831818,http://www.vapeandjuice.co.uk/
Vape and Juice Southend Victoria Shopping Centre,51.540221,0.71174,"Victoria Shopping Centre, 362 Chartwell Square",Southend,SS2 5SP,01702 826670,+44 1702 826670,http://www.vapeandjuice.co.uk/
eCigWizard Rochford,51.5814408,0.7069701,2 South St,Rochford,SS4 1BQ,01702 875249,+44 1702 875249,http://www.ecigwizardrochford.co.uk/
Electronic Cigarette Suppliers Ltd,51.575642,0.715975,5 Fleethall Rd,Rochford,SS4 1NF,01702 548243,+44 1702 548243,
Juice E Vaporium,52.9122269,-0.6431444,"16, The George Shopping Centre, Guildhall St",Grantham,NG31 6LH,01476 576525,+44 1476 576525,http://www.juice-e-vaporium.co.uk/
VapeHQ Newark,53.0765216,-0.8131642,24 Castle Gate,Newark,NG24 1BG,01636 918090,+44 1636 918090,http://vapehq.co.uk/storelocator
Vapour Right,56.1162795,-3.9368824,65 Port St,Stirling,FK8 2ER,01786 357552,+44 1786 357552,
Alauna Salon,54.713796,-3.4968445,87 Senhouse St,Maryport,CA15 6BU,01900 812327,+44 1900 812327,http://www.alauna-salon.co.uk/
Senhouse Roman Museum,54.7211679,-3.4958034,"Maryport CA15, ",Maryport,CA15,01900 816168,+44 1900 816168,http://www.senhousemuseum.co.uk/
Escape 2 Vape,50.7863514,-0.6758424,5 Richmond Rd,Bognor Regis,PO21 1BU,07716 416176,+44 7716 416176,
Vapor Evolution,50.7832071,-0.6723156,8 The Arcade,Bognor Regis,PO21 1LH,01243 697070,+44 1243 697070,http://www.vaporevolution.uk/
VaperVapour,51.5356613,-2.5493179,RMU 5 WillowBrook Centre,Bradley Stoke,BS32 8BS,0800 774 0400,+44 800 774 0400,http://vapervapour.com/
vapervapour,51.5265654,-2.541795,"47 Foxcroft Cl, Bradley Stoke",Bristol,BS32,0800 744 0400,+44 800 744 0400,http://vapervapour.com/
Golden Vape,52.6288172,1.2925243,Gaol Hill,Norwich,NR2 1NE,07825 599536,+44 7825 599536,
Vape Industries,52.6498701,1.3080551,481 Sprowston Rd,Norwich,NR3 4EB,01603 490077,+44 1603 490077,
Ecigwizard Norwich City Centre,52.6298427,1.295706,31 Bedford St,Norwich,NR2 1AG,01603 927430,+44 1603 927430,http://www.ecigwizard.com/
Ali Bongo,52.630569,1.292857,22 St John Maddermarket,Norwich,NR2 1DN,01603 760055,+44 1603 760055,http://www.alibongo.co.uk/
Norwich Vaping,52.6496485,1.281098,287 Aylsham Rd,Norwich,NR3 2RY,01603 418898,+44 1603 418898,https://www.facebook.com/norwichvaping/
Viking E Cigs,52.6826135,-1.82972,10A Bird St,Lichfield,WS13 6PR,0844 588 8510,+44 844 588 8510,http://www.vikingecigs.co.uk/
Zerovaping.co.uk,52.626844,-1.655306,"Sandy Way, Amington Industrial Estate",Tamworth,B77 4ED,01827 54222,+44 1827 54222,http://www.zerovaping.co.uk/
Go Vape,53.098677,-2.439855,"Crewe Market Hall, Earle St, Crewe CW1 2BL, ",Crewe,CW1 2BL,01270 257422,+44 1270 257422,http://www.go-vape.co.uk/
Wicked E-cigs,53.0557875,-2.2107735,31 High St,Stoke-on-Trent,ST6 5TD,01782 816801,+44 1782 816801,
Vapour Shack Ltd,53.054495,-2.168757,"Ford Green Mill, Ford Green Road",Stoke-on-Trent,ST6 1NG,01782 533447,+44 1782 533447,http://vapour-shack.com/
The Great E-Vape,52.9993765,-2.1887362,236 London Rd,Stoke-on-Trent,ST4 5RH,01782 922300,+44 1782 922300,http://www.thegreat-evape.co.uk/
The Great E-Vape,52.9871302,-2.1368435,"2NR,, 66 The Strand",Stoke-on-Trent,ST3,01782 922300,+44 1782 922300,http://thegreat-evape.co.uk/
One Stop DIY,52.2521934,-0.879176,"1-5 Milton St, Kingsley",Northampton,NN2 7JG,01604 713147,+44 1604 713147,http://www.one-stop-diy.co.uk/
Vape Mania,52.2536668,-1.1507276,5 Evans Cl,Daventry,NN11 4LN,07830 518644,+44 7830 518644,
1,52.263557,-1.148358,Sunningdale Dr,Daventry,NN11 4NZ,,,
The vape shop,51.111501,-0.863793,"Unit 7 the hardys / the old dairy cafe, High street",Bordon,GU35 0AY,07940 057485,+44 7940 057485,https://www.facebook.com/Theresnoplacelikeohmbordon/
Great 2 Vape,52.986723,-1.985776,"Trinity House, Well St, Cheadle",Stoke-on-Trent,ST10 1EX,01538 751522,+44 1538 751522,http://www.great2vape.co.uk/
Laser cut design,53.3924411,-2.275215,"48A Blackcarr Rd, Wythenshawe",Manchester,M23 1PX,07517 605909,+44 7517 605909,https://sites.google.com/site/elvlaservectorcut/
Liberty Flights - Sale Shop - Electronic Cigarettes,53.4247627,-2.3217265,The Mall,Sale,M33 7XZ,0345 257 9008,+44 345 257 9008,http://www.liberty-flights.co.uk/
Stockport E Cig Company,53.3927376,-2.2168149,21 Wilmslow Rd,Cheadle,SK8 1DW,0161 971 2876,+44 161 971 2876,http://www.stockport-e-cig-company.co.uk/shop-locations/stockport-e-cig-cheadle-branch/
No Smoke Inn,53.394543,-2.215635,57 High St,Cheadle,SK8,0161 222 3131,+44 161 222 3131,http://www.nosmokeinn.co.uk/content/9-no-smoke-inn-cheadle
Liberty Flights - Stockport Shop - Electronic Cigarettes,53.4111478,-2.1577695,5 Little Underbank,Stockport,SK1 1LA,0345 257 9008,+44 345 257 9008,http://www.liberty-flights.co.uk/
Liberty Flights - Leigh Shop - Electronic Cigarettes,53.4961803,-2.5165597,56 Bradshawgate,Leigh,WN7 4LA,0345 257 9008,+44 345 257 9008,http://www.liberty-flights.co.uk/
Free 2 Vapour,52.3855636,-2.2428263,11 Comberton Hill,Kidderminster,DY10 1QG,,,http://www.free2vapor.co.uk/
The Purest Vapours,52.3917856,-2.2469081,3 Dudley St,Kidderminster,DY10 2JJ,01562 633710,+44 1562 633710,http://www.purestvapours.co.uk/
The Purest Vapours,52.541289,-2.1216281,"14 Mill Bank, Millbank Street",Dudley,DY3 1SL,07811 648984,+44 7811 648984,http://www.purestvapours.co.uk/
The Purest Vapours,52.529946,-2.032307,57 Great Bridge,Tipton,DY4 7HF,0121 572 3836,+44 121 572 3836,http://www.purestvapours.co.uk/
VapeHQ Halesowen,52.449277,-2.052159,41 Queensway,Halesowen,B63 4AB,0121 448 7160,+44 121 448 7160,http://vapehq.co.uk/storelocator
Vaping Worx,53.366143,-0.005378,25-27 Mercer Row,Louth,LN11 9JG,01507 604350,+44 1507 604350,http://www.facebook.com/vapingworx1
Vape Vixen,51.726278,-2.530178,"Lydney, Regent St, Lydney GL15 5RF, ",Lydney,GL15 5RF,07821 546687,+44 7821 546687,
Mister Smoke,53.0145621,-1.3568044,10A Red Lion Square,Heanor,DE75 7PA,01773 715077,+44 1773 715077,http://www.mistersmoke.co.uk/
EvapeoriumUK,53.1420492,-1.5506577,83 Smedley St E,Matlock,DE4 3FQ,07596 096777,+44 7596 096777,
No-Match Electronic Cigarettes - Belper,53.0234098,-1.4792899,65d King Street,Belper,DE56 1QA,01773 827216,+44 1773 827216,http://www.no-match.co.uk/
The Vapour Room,50.8105957,-0.3762733,16 Crescent Rd,Worthing,BN11 1RL,01903 366543,+44 1903 366543,
Go Ape Whinlatter,54.6096554,-3.2282424,Whinlatter Pass,Keswick,CA12 5TW,0845 094 9786,+44 845 094 9786,http://goape.co.uk/days-out/whinlatter
CARTRIDGE UK AND VAPE OK,51.9055403,-1.1477539,3 Bassett Ave,Bicester,OX26 4TZ,01869 252627,+44 1869 252627,http://www.facebook.com/vapeokbicester
Vape Smart,51.606971,-0.5582152,"5 Market Pl, Chalfont St Peter SL9 9EA, ",,SL9 9EA,01753 886344,+44 1753 886344,http://www.vape-smart.co.uk/
Cirencester Vape Co,51.665735,-1.932549,"Unit 4 Bittern House, Business Park, Lakeside, South Cerney","South Cerney, Cirencester",GL7 5XL,07858 492497,+44 7858 492497,http://www.cirenvapeco.co.uk/
Vapour Cafe,52.0311699,-0.4935049,"2jp, 100A Dunstable St, Ampthill",Bedford,MK45 2JP,01525 837030,+44 1525 837030,http://www.ilovevapour.com/
888 Vapour - Sleaford,53.0072439,-0.4172768,"3, Lincoln Rd",Sleaford,NG34 8AD,01529 307045,+44 1529 307045,http://www.888vapour.co.uk/
888 Vapour Newark,53.075255,-0.808678,12-14 Carter Gate,Newark,NG24 1UB,01636 701847,+44 1636 701847,http://www.888vapour.co.uk/
eBuzzCigs,51.9053084,-2.0859326,6 Gloucester Road,Cheltenham,GL51 8PQ,01242 210124,+44 1242 210124,
Spa Vapes,51.8664413,-2.2476757,54 Westgate St,Gloucester,GL51 2NF,01452 554001,+44 1452 554001,http://www.spavapes.co.uk
G & G Vaping,54.8541129,-1.573719,"135A Front St, Chester-le-Street",Chester le Street,DH3 3BL,0191 388 3776,+44 191 388 3776,
"VIP, Must Have Ltd",54.956927,-1.668855,Metro Centre,Gateshead,NE11 9YG,0844 822 9989,+44 844 822 9989,https://www.vipelectroniccigarette.co.uk/about/stockists/gateshead.html
Ecigwizard Gateshead,54.9497945,-1.6159096,88-90 Saltwell Rd,Gateshead,NE8 4TE,07792 699424,+44 7792 699424,
Mirage Cigarettes,52.5221457,-1.4743306,82 Queens Rd,Nuneaton,CV11 5LE,024 7638 6719,+44 24 7638 6719,
Atherstone Vape Store,52.5775088,-1.5470046,84 Long St,Atherstone,CV9 1AT,07874 102231,+44 7874 102231,
Sky Blue Vape,52.4427212,-1.489462,994 Foleshill Rd,Coventry,CV6 6EN,024 7668 8586,+44 24 7668 8586,
Smoke no Smoke Coventry,52.4097045,-1.5096148,13 Trinity St,Coventry,CV1,,,http://www.smoke-no-smoke.co.uk/
Ball Hill Blinds Ltd,52.4108675,-1.483102,221 Walsgrave Rd,Coventry,CV2 4HH,024 7645 1615,+44 24 7645 1615,http://www.ballhillblinds.co.uk/
U-Drag,52.4061714,-1.5147818,8 City Arcade,Coventry,CV1 3HW,07599 464803,+44 7599 464803,
Blue Star Computers,52.4427212,-1.489462,994 Foleshill Rd,Coventry,CV6 6EN,024 7668 8586,+44 24 7668 8586,
Ecigwizard Hinckley,52.5421552,-1.3677182,106 Castle St,Hinckley,LE10 1DD,01455 356001,+44 1455 356001,http://www.ecigwizard.com/
VapeHQ Inkersall,53.2555558,-1.370771,"6 Summerskill Green, Inkersall",Chesterfield,S43 3SR,01246 766230,+44 1246 766230,http://vapehq.co.uk/storelocator
The Vapourist E-Cigarettes,53.261108,-1.428144,"Chesterfield S41 9AP, ",,S41 9AP,0800 195 0077,+44 800 195 0077,http://www.the-vapourist.co.uk/
My Ciggy,53.340308,-1.479101,851 Chesterfield Rd,Sheffield,S8 0SQ,0114 418 8767,+44 114 418 8767,https://www.myciggy.co.uk/
Electronic Cigarette World,53.3429881,-1.4779061,737 Chesterfield Rd,Sheffield,S8 0SL,0114 258 5630,+44 114 258 5630,http://www.electroniccigaretteworld.co.uk/
Vapour Store Sheffield,53.356203,-1.484238,"Unit 2, Abbeydale Mall, 621 - 627 Abbeydale Rd",Sheffield,S7 1TB,0114 258 1646,+44 114 258 1646,http://www.vapourstoreuk.com/
Vape Shop,51.860365,-2.23589,149 Barton St,Gloucester,GL1 4HE,07496 519755,+44 7496 519755,https://www.facebook.com/vapebrosgloucester/
Vape shack barton,53.6850672,-0.4407599,24 High St,Barton,DN18 5PD,07909 114601,+44 7909 114601,
Forever Mobility Woodville,52.7688752,-1.5335042,"29 High St, Woodville",Swadlincote,DE11 7EH,01283 212072,+44 1283 212072,http://www.forevermobility.co.uk/
VapeHQ Swadlincote,52.7727109,-1.5539878,74 High St,Swadlincote,DE11 8HS,01283 227760,+44 1283 227760,http://vapehq.co.uk/storelocator
Crystal Clear Vapours,53.3882937,-2.5920357,Unit 13,Warrington,WA1 2EN,01925 245681,+44 1925 245681,http://crystalclearvapours.com/
Warrington Electronic Cigarettes,53.3946794,-2.5904287,"Unit 1a, Lythgoes Ln",Warrington,WA2 7XE,01925 550308,+44 1925 550308,
No-Match Electronic Cigarettes - Warrington,53.3877105,-2.5929654,84 Bridge St,Warrington,WA1 2RF,01925 445149,+44 1925 445149,http://www.no-match.co.uk/
Crystal Clear Vapours Ltd,53.3685458,-2.7244835,"Widnes Market Hall, Bradley Way, Widnes WA8 6UE, ",Widnes,WA8 6UE,0151 422 9418,+44 151 422 9418,
Liberty Flights,53.3975443,-2.5743901,137 Marsh House Ln,Warrington,WA1 3QZ,0345 257 9008,+44 345 257 9008,http://www.liberty-flights.co.uk/
Berkshire Vapers (Winnersh),51.43039,-0.880692,"437 Reading Rd, Winnersh",Wokingham,RG41 5HU,0118 979 0340,+44 118 979 0340,http://www.berkshirevapers.co.uk/
Berkshire Vapers (Earley),51.442247,-0.930108,"Unit 2, 199 Wokingham Road",Earley,RG6 7DT,0118 327 2829,+44 118 327 2829,http://berkshirevapers.co.uk/
Ezee-quit,53.4571231,-2.1153568,"16 Walker St, Denton",Manchester,M34 3LH,0161 337 0002,+44 161 337 0002,http://www.ezee-quit.co.uk/
E-Cigarette Hero,54.601763,-5.933819,"Unit 23, Smithfield Market, Winetavern St",Belfast,BT1 1JE,07543 587963,+44 7543 587963,https://ecigarettehero.com/
Vape Shop,51.8730083,0.1585491,United Kingd,,,,,
Liberty Flights,51.9787039,-0.2271068,"Garden Square Shopping Centre, 3 Commerce Way",Letchworth Garden City,SG6 3DL,0345 257 9008,+44 345 257 9008,http://www.liberty-flights.co.uk/
eco vape Hucknall,53.0379478,-1.2027809,"31A High St, Hucknall",Nottingham,NG15 7AW,0115 837 5510,+44 115 837 5510,http://www.eco-vape.uk/
VapeHQ Nottingham,52.9540332,-1.1532062,2-4 West End Arcade,Nottingham,NG1 6JP,0115 998 5582,+44 115 998 5582,http://vapehq.co.uk/storelocator
STEAM Tea & Vape,52.9842497,-1.1223922,153 Breck Hill Rd,Mapperley,NG3 5JP,0115 837 6320,+44 115 837 6320,
Grey Haze,52.955611,-1.1612584,97 Derby Rd,Nottingham,NG1 5BB,0115 998 8118,+44 115 998 8118,http://greyhaze.co.uk/pages/grey-haze-nottingham
VapeHQ Carlton,52.9659528,-1.1104935,"360 Carlton Hill, Carlton",Nottingham,NG4 1HX,0115 998 1224,+44 115 998 1224,http://vapehq.co.uk/storelocator
Cloud 57,52.939539,-1.1829514,57 Beeston Rd,Nottingham,NG7 2JS,0115 924 4437,+44 115 924 4437,http://www.cloud57.uk/
Red Vape Ltd,52.9322992,-1.1279608,"29 Bridgford Rd, West Bridgford",Nottingham,NG2 6AU,0115 977 5482,+44 115 977 5482,https://www.redvape.com/
Senior Vape,52.9977481,-1.2579266,"20 Main St, Kimberley",Nottingham,NG16 2LL,0115 938 5675,+44 115 938 5675,http://www.thejuiceroom.co.uk/
Postmodern Smoking,55.1497263,-6.6461598,"4, Gateside Business Park, Gateside Rd",Coleraine,BT52 2RE,028 7035 6577,+44 28 7035 6577,http://www.postmodernsmoking.com/
Vision Express Opticians,52.7647921,-0.8876946,3 High St,Melton Mowbray,LE13 0TR,01664 566645,+44 1664 566645,http://www.visionexpress.com/opticians/opticians-in-the-midlands/leicestershire/melton-mowbray/?utm_source=local&utm_medium=yext&utm_term=melton-mowbray&utm_campaign=yextlistings
HEALTH-E-VAPE LTD,51.3341822,1.4166161,2A George St,Ramsgate,CT11 9AS,01843 585354,+44 1843 585354,
VaperStar eCigarettes Yeovil,50.94048,-2.633628,"Yeovil Market, c/o Petters House, Petters Way, Yeovil BA20 1AS, ",Yeovil,BA20 1AS,01458 258126,+44 1458 258126,http://www.vaperstar.co.uk/
The Vapour Loft,52.0559173,1.1566261,"10 Tacket St, City Centre, Ipswich IP4 1AY, ",,IP4 1AY,01473 215483,+44 1473 215483,
Ecigbase,52.723739,-1.369028,32 Hotel Street,Coalville,LE67 3EP,01530 587240,+44 1530 587240,http://www.ecigbase.co.uk/
Vapor Quip,52.0811231,0.4359384,"Haverhill Market, High St, Haverhill CB9 8BH, ",Haverhill,CB9 8BH,07923 353483,+44 7923 353483,http://vaporquip.co.uk/
Totally Wicked [Vape Smart],51.4316035,-0.5482591,168B High St,Egham,TW20 9HP,01784 438790,+44 1784 438790,http://www.vape-smart.co.uk/
Naj Vape Shop (Bar),51.5127695,-0.472275,82 High St,West Drayton,UB7 7DS,07415 164645,+44 7415 164645,
Vape Smart,51.5106131,-0.4738253,"17A High St, West Drayton",Yiewsley,UB7 7QG,01895 437400,+44 1895 437400,http://www.vape-smart.co.uk/
Vapecinity #Cloudflavour,51.499235,-0.420034,"Hyde Way, Hayes",UB3 4PB,,07927 089260,+44 7927 089260,http://www.vapecinity.co.uk/
Hurricane Vapes,55.1830994,-1.5723663,58 Station Rd,Ashington,NE63 9UJ,07581 312892,+44 7581 312892,http://www.hurricanevapes.co.uk/
Mildenhall Vape Shack,52.3440545,0.5097404,"7 High St, Mildenhall",Bury Saint Edmunds,IP28,07771 908755,+44 7771 908755,
Queen Of Vapes Ecig shop,53.1672698,-1.4157831,"28 High St, Cross St, Clay Cross",Chesterfield,S45 9DY,01246 766606,+44 1246 766606,http://www.queenofvapes.co.uk/
shelvers news vape shop,51.296683,-0.237551,"7 Shelvers Hill, Epsom",Tadworth,KT20 5PU,01737 813138,+44 1737 813138,http://vapingsolutions.net/
Higher Minds Shop,51.3628522,-0.2459142,49 The Broadway Stoneleigh,Epsom,KT17 2JE,020 8393 2444,+44 20 8393 2444,http://www.highermindsheadshop.co.uk/
Vape Hut (Inside the Londis),51.4102415,-0.301692,7 Adams Walk,Kingston upon Thames,KT1 1DF,020 8206 1349,+44 20 8206 1349,http://www.vapehutuk.co.uk/
Crater Vape Pen,51.3985951,-0.2798748,158 Chiltern Dr,Surbiton,KT5 8LS,020 3546 1000,+44 20 3546 1000,http://www.mycrater.co.uk/
The Vape Guru,51.410248,-0.30169,7 Adams Walk,Kingston upon Thames,KT1 1DF,07570 254629,+44 7570 254629,http://www.thevapeguru.co.uk/
2 Monkeys Vapor,51.4193267,-0.2012858,"101 The Broadway, London",WIMBLEDON,SW19 1QG,07534 107492,+44 7534 107492,http://www.2monkeysvapor.co.uk/
Channon,51.2958321,-0.3310851,21 North St,Leatherhead,KT22 7AX,,,
Cloud Stix Com,53.4861307,-2.638025,"61a Gerard St, Ashton-in-Makerfield",Wigan,WN4 9AG,01942 718289,+44 1942 718289,http://www.cloudstix.com/
Vapour Trader,53.4864713,-2.6385349,"3 Garswood St, Ashton-in-Makerfield",Wigan,WN4,07877 698255,+44 7877 698255,
Evolution Electronic Cigarettes,53.4536736,-2.7419632,"Cheshire, St Helens",New Haven,WA10,07801 757824,+44 7801 757824,http://www.evolutioncigarettes.co.uk/
Supa E Cigs,53.4519759,-2.7387137,22 Bridge St,Saint Helens,WA10 1NW,01744 759681,+44 1744 759681,
Evolution Electronic Cigarettes Open 7 Days A Week,53.4538157,-2.7419163,56 N John St,Saint Helens,WA10 2JT,07801 757824,+44 7801 757824,http://www.evolutioncigarettes.co.uk/
Tameside Ecigs,53.447948,-2.0764982,192 Market St,Hyde,SK14 1EX,0161 882 9907,+44 161 882 9907,http://www.tamesideecigs.co.uk/
Smoke Electronic Cigarettes Ltd,53.4901318,-2.1611517,"20 Clock House Ave, Droylsden",Manchester,M43 7RR,,,http://www.smoke-electronic-cigarettes.co.uk/
Smoke Electronic Cigarettes,53.516357,-2.148147,"736 Oldham Rd, Failsworth",Manchester,M35 9FD,0161 688 6291,+44 161 688 6291,http://www.simplyeliquid.co.uk/
Ashton E Cigs,53.4878919,-2.0926112,5-7 Market St,Ashton-under-Lyne,OL6 6AL,0161 943 0371,+44 161 943 0371,http://www.stockport-e-cig-company.co.uk/
Just Vapours,53.4518266,-2.0768308,11 Clarendon Pl,Hyde,SK14 2ND,0161 964 4638,+44 161 964 4638,
Electronicecigstore - Electronic Cigarettes,53.4719296,-2.1814013,"16 Clayton Court, 5 Welcomb Street",Manchester,M11 2NB,0161 223 7655,+44 161 223 7655,http://www.electronicecigstore.co.uk/
Adams Vaping & bb Guns Specialists,53.4881824,-2.0915188,8 George St,Ashton-under-Lyne,OL6 6AQ,07960 958746,+44 7960 958746,http://www.onlinebbguns.co.uk/
Tameside Vape 'N' Shake Lounge,53.49102,-2.095111,80A Wellington Rd,Ashton-under-Lyne,OL6 6DP,0161 465 0388,+44 161 465 0388,
The-Nobacconists southampton,50.9086304,-1.412294,60 Commercial Rd,Southampton,SO15 2AF,023 8063 8048,+44 23 8063 8048,http://www.the-nobacconists.co.uk/
CiggyJuice Ltd,50.932659,-1.49881,"5, Westwood Court, Brunel Rd, Totton",Southampton,SO40 3WX,023 8066 4901,+44 23 8066 4901,http://www.ciggyjuice.co.uk/
Vapetime Uk Ltd,50.9134486,-1.4386913,"103, Solent Business Centre, 343 Millbrook Rd W",Southampton,SO15 0HW,020 3371 8184,+44 20 3371 8184,http://www.vapetime.co.uk/
The Vape Factory,50.9169108,-1.4266983,306 Shirley Rd,Southampton,SO15 3HL,07927 258882,+44 7927 258882,http://www.thevapefactory.co.uk/
The Nobacconists / Nerdherd,50.91449,-1.335984,60 Thornhill Park Rd,Southampton,SO18 5TQ,023 8046 3937,+44 23 8046 3937,http://www.the-nobacconists.co.uk/
Liberro Electronic Cigarettes,51.9474021,-0.0193572,14 High St,Buntingford,SG9 9AG,0800 111 4753,+44 800 111 4753,http://www.liberro.co.uk/
Healthecig.Co.UK,53.5365655,-2.5770443,"46 Market St, Hindley",Wigan,WN2 3AN,01942 256601,+44 1942 256601,http://www.healthecig.co.uk/
Phoenix Electronic Cigarettes - Benfleet,51.5669392,0.5501597,"Shafers Arcade, High Rd, Sout",Benfleet,SS7 5SF,01780 764585,+44 1780 764585,https://phoenixeliquid.co.uk/
Vape Quarter,52.5291877,-1.9105534,392 Walsall Rd,Birmingham,B42 2LX,0121 405 6789,+44 121 405 6789,http://www.vapequarter.com/
VapeHQ Sutton Coldfield,52.5366984,-1.8264439,"385 Birmingham Rd, Sutton Coldfield",West Midlands,B72 1AT,0121 384 5618,+44 121 384 5618,http://vapehq.co.uk/storelocator
Vapour Hut,52.5186472,-1.8565158,337 Slade Rd,Birmingham,B23 7JX,0121 448 0320,+44 121 448 0320,http://www.vapourhut.com/
Ecigwizard Birmingham - Bearwood,52.4759506,-1.9698321,532 Bearwood Rd,Smethwick,B66 4BX,0121 429 5384,+44 121 429 5384,http://www.ecigwizard.com/
Shade e-Vaping,52.4674659,-1.8089289,183 Church Rd,Birmingham,B25 8UR,0121 783 7033,+44 121 783 7033,http://shade-e-vaping.co.uk/
Cigbys Ltd ( Totally Wicked Birmingham ),52.5171364,-1.8182062,"983A Tyburn Rd, Birmingham B24 0TJ, ",,B24 0TJ,0121 333 3705,+44 121 333 3705,http://www.cigbys.co.uk/
InnoVapours Ecig Store,52.5073603,-1.9403212,76-78 Rookery Rd,Birmingham,B21 9NL,0121 250 4717,+44 121 250 4717,http://www.innovapours.co.uk/
TABlites Electronic Cigarettes Birmingham,52.481645,-1.896938,Great Western Arcade,Birmingham,B2 5HU,0121 236 4705,+44 121 236 4705,http://tablites.com/tablites-birmingham
Vapour World,52.5108456,-1.83452,496 Tyburn Rd,Birmingham,B24 8DY,07916 157671,+44 7916 157671,https://facebook.com/vapersworldbirmingham/
Mist,52.5178251,-1.9030858,2 Walsall Rd,Birmingham,B42 1AA,,,
Bennie Blancos eCig Store & Vape Lounge,52.4764677,-1.8837971,"92 Floodgate Street, Birmingham",Digebth,B5 5SR,07561 450500,+44 7561 450500,http://www.bennieblancos.co.uk/
Express Vapour,52.5480601,-1.859251,Chester Rd,Sutton Coldfield,B73 5DA,0121 355 7688,+44 121 355 7688,http://www.expressvapour.co.uk/
Whitemist Vapours,52.5482251,-1.8600549,15 Kings Rd,Sutton Coldfield,B73 5AB,0121 439 1717,+44 121 439 1717,http://www.whitemistvapours.com/
UK VapourLife Ltd,53.0988412,-2.4430711,28 Victoria St,Crewe,CW1 2JE,01270 250670,+44 1270 250670,http://facebook.com/ukvapourlife
Sonix Vapours,53.088072,-2.4412005,116 Nantwich Rd,Crewe,CW2 6AT,01270 747750,+44 1270 747750,
Vape N Quit,52.9033127,-2.4851726,1 Shropshire St,Market Drayton,TF9,,,
Sparks,51.8166356,-0.811346,"17, Hale Leys, High St",Aylesbury,HP20 1ST,01296 706550,+44 1296 706550,http://www.sparksecigs.co.uk/
Phoenix Electronic Cigarettes - Hemel Hempstead,51.7522733,-0.4732989,"The Square, Marlowes",Hemel Hempstead,HP1 1ER,01780 764585,+44 1780 764585,https://phoenixeliquid.co.uk/
Carmichael's Vaping,51.746981,-0.975833,"11 Upper High St, Swan Walk",Thame,OX9 3HN,01844 216551,+44 1844 216551,http://www.carmichaelsvaping.co.uk/
EcigSwag,53.1060623,-2.0266004,16-18 Sheep Market,Leek,ST13 5HW,01538 269119,+44 1538 269119,http://www.ecigswag.com/
Herbal Tides,52.9241218,-1.3922731,Dale Rd,Derby,DE21,07944 888525,+44 7944 888525,http://www.herbaltides.co.uk/
Segonote,52.9117464,-1.4768435,233 Normanton Rd,Derby,DE23 6UT,,,
No-match Electronic Cigarette,52.8962798,-1.2668393,"5 High St, Long Eaton",Nottingham,NG10 1HY,0115 972 8905,+44 115 972 8905,http://www.no-match.co.uk/
uCig,52.8967561,-1.2684879,30-32 High St,Long Eaton,NG10 1LL,0115 946 4247,+44 115 946 4247,http://www.ucig.co.uk/
Xtreme E-Liquids,52.9185443,-1.4773647,70 Babington Ln,Derby,DE1 1SX,01332 722762,+44 1332 722762,http://www.xtreme-vaping-eliquids.co.uk/
Mister Smoke,52.9281851,-1.2130731,"80 High Rd, Beeston",Nottingham,NG9 2LF,0115 922 6005,+44 115 922 6005,
Vaporized,55.8706743,-4.3074589,365 Dumbarton Rd,Glasgow,G11 6BA,0141 337 1547,+44 141 337 1547,http://www.vaporized.co.uk/
Valentino Gifts,56.1917631,-3.1507078,38 Woodside Way,Glenrothes,KY7 5DF,01592 358151,+44 1592 358151,
Vapour Cliq Electric Cigarettes,53.423371,-1.201683,"56 High St, Maltby",Rotherham,S66 8LA,07870 701112,+44 7870 701112,http://www.vapourcliq.co.uk/
The Va-Purr Lounge,53.5689736,-2.88717,58 Church St,Ormskirk,L39 3AW,01695 227072,+44 1695 227072,http://thevapurrlounge.co.uk/
MD Vapours,53.567642,-2.885735,8 Burscough St,Ormskirk,L39 2ER,01695 229083,+44 1695 229083,http://www.facebook.com/MDVapours
Mersey Vapour,53.5068131,-2.9331485,5 Tree View Ct,Liverpool,L31 3HF,0151 531 8916,+44 151 531 8916,http://www.merseyvapour.co.uk/
Vapour Store Gainsborough,53.3983543,-0.7775175,30 Caskgate St,Gainsborough,DN21 2DL,01427 810029,+44 1427 810029,http://www.vapourstoreuk.com/
test valley vape,50.9882209,-1.4998139,"17 Bell St, Romsey",Southampton,SO51 8GY,01794 518131,+44 1794 518131,http://www.testvalleyvape.co.uk/
Gruvecigs,50.9424061,-1.3972757,49 Copperfield Rd,Southampton,SO16 3PR,023 8055 2708,+44 23 8055 2708,http://gruvecigs.co.uk/
Anglo Vapour,50.9690242,-1.3517284,42 Market St,Eastleigh,SO50 5RA,023 8061 5692,+44 23 8061 5692,http://www.anglovapour.co.uk/
Mister Smoke Ilkeston,52.9746279,-1.3091781,81 Bath St,Ilkeston,DE7 8AP,0115 930 3128,+44 115 930 3128,
Vapourlicious Ltd,51.3501655,-2.9798361,8A S Parade,Weston-super-Mare,BS23 1JN,01934 253484,+44 1934 253484,
Flavour Vapour,50.3722549,-4.1446855,81-83 Cornwall St,Plymouth,PL1 1NX,01752 226360,+44 1752 226360,http://www.flavourvapour.co.uk/
Berwick E cigs,55.7708571,-2.0052621,6 Walkergate,Berwick-upon-Tweed,TD15 1DB,07823 778342,+44 7823 778342,http://berwick-e-cigs.co.uk/
Ecigwizard Cambridge,52.197326,0.1452591,226 Mill Rd,Cambridge,CB1 3NF,01223 246887,+44 1223 246887,http://www.facebook.com/ecigwizardcambridge
Budget Boozer Office License,51.4407365,-2.6004381,161 East St,Bristol,BS3 4EJ,0117 963 3900,+44 117 963 3900,
Vaporized,55.0422728,-1.4439969,232 Whitley Rd,Whitley Bay,NE26 2TA,0191 252 4474,+44 191 252 4474,http://www.vaporized.co.uk/
kana-vape.uk,54.9953839,-1.4936603,"Unit 5, Swales Ind Est,",Howdon,NE28 0SE,07914 233088,+44 7914 233088,http://www.kana-vape.uk/
SmokinGadgets,55.0412949,-1.4424985,15 Station Rd,Whitley Bay,NE26 2QY,07833 476191,+44 7833 476191,http://www.smokingadgets.co.uk/
E-vaporate,54.9915509,-1.4279905,Westoe Rd,South Shields,NE33,,,
Vape or Gadgets,53.6369728,-2.1724066,103 Shawclough Way,Rochdale,OL12 6DR,07733 199797,+44 7733 199797,
Vaping Spares UK,52.2552562,-1.1643218,63A Oxford St,Daventry,NN11 4AD,01327 706376,+44 1327 706376,https://www.vapingsparesuk.com/
VapeSalesUK Tamworth,52.608535,-1.668442,"2 Hockley Rd, Wilnecote",Tamworth,B77 5EA,01827 285585,+44 1827 285585,http://www.vapesalesuk.com/
Elliott Vapes,51.3691617,0.0012295,18 Kingsway,West Wickham,BR4 9JF,020 8462 2026,+44 20 8462 2026,http://elliottvapes.co.uk/
Hanley Vapour Stop,53.0340931,-2.1700276,55 Chell St,Stoke-on-Trent,ST1 6BB,07539 342195,+44 7539 342195,http://www.stokevapestop.co.uk/
Vapourtrail,53.0529976,-2.1725845,"139 Ford Green Rd, Smallthorne",Stoke-on-Trent,ST6 1PF,07938 574137,+44 7938 574137,http://www.vapourtrailuk.co.uk/
Vaper-Stall ltd,52.9953514,-2.1486718,235-237 King St,Stoke-on-Trent,ST4 3ET,07507 477107,+44 7507 477107,http://www.vaperstall.com/
e-jooce electronic cigarettes,53.0092213,-2.1296512,118 Tiverton Rd,Stoke-on-Trent,ST2 0AS,07949 105185,+44 7949 105185,http://www.e-jooce.co.uk/
SMKD ELECTRONIC CIGARETTES,53.7947948,-1.7540938,44 Kirkgate,Bradford,BD1 1QT,01274 726812,+44 1274 726812,http://www.smkd.com/
Infinite Vapour,53.7901876,-1.7584925,1 Wilton St,Bradford,BD5 0AX,020 7123 4546,+44 20 7123 4546,http://www.infinitevapour.com/
Platinum E-Liquid Ltd,53.844526,-0.435308,"Unit 4 St Marys Shopping Arcade, North Bar Within",Beverley,HU17 8DG,0330 088 2796,+44 330 088 2796,http://www.platinum-e-liquid.com/
The Earls Cloud Vape Lounge,51.443594,0.367367,"Unit 17, St Georges Square, St Andrews Ct",Gravesend,DA11 0TB,01474 329628,+44 1474 329628,http://theearlscloud.co.uk/
UK Skunk Works,51.4392387,0.3713928,146 Parrock St,Gravesend,DA12 1EY,01474 249771,+44 1474 249771,
Leydon's,51.4427915,0.2419422,60 London Rd,Dartford,DA2 6AN,01322 224218,+44 1322 224218,
Vape Slough ( Vape Shop ),51.5227337,-0.6148399,220 Farnham Rd,Slough,SL1 4XE,01753 520051,+44 1753 520051,http://www.vapeslough.co.uk/
Vape Smart,51.5255901,-0.6161411,"189, Farnham Rd",Slough,SL1 4XS,01753 572798,+44 1753 572798,http://www.vape-smart.co.uk/
Totally Wicked [Vape Smart],51.507617,-0.588483,238 High St,Slough,SL1 1JU,01753 577757,+44 1753 577757,http://www.vape-smart.co.uk/
Vape Smart,51.5208278,-0.645435,"11 Station Road, Slough",Cippenham,SL1 6JJ,01628 667866,+44 1628 667866,http://www.vape-smart.co.uk/
Newark Ecigs Uk,53.0747179,-0.8091073,35a Cartergate,Newark,NG24 1UA,07519 306483,+44 7519 306483,http://www.newark-ecigs.co.uk/
Liberty Flights Electronic Cigarettes,51.6543053,-0.394634,116A High St,Watford,WD17 2BJ,0345 257 9008,+44 345 257 9008,http://www.liberty-flights.co.uk/
Ruby Moon,51.6296683,-0.7474532,63 Castle St,High Wycombe,HP13 6RN,01494 513005,+44 1494 513005,http://www.rubymoon.co.uk/
FourStripe Vape,52.4672919,-1.7223309,Unit 3379,Birmingham,B37 7YN,0843 886 4189,+44 843 886 4189,http://www.fourstripevape.co.uk/
Ecigwizard,52.4789547,-1.8971127,138 New St,Birmingham,B2,,,http://www.ecigwizard.com/
The Va-Purr Lounge,53.69704,-2.689839,"33 Chapel Brow, Leyland",Preston,PR25 3NH,01772 468199,+44 1772 468199,http://thevapurrlounge.co.uk/
"Beck's E-Cig Preston - Vapor, Electronic Cigarette & Premium E-Liquid Shop",53.760566,-2.703939,45 Friargate,Preston,PR1 2AT,01772 889744,+44 1772 889744,http://www.becks-ecig.co.uk/
Gold Vape,53.6893028,-2.7166165,"Leyland, 340 Leyland Ln, Leyland",Preston,PR25 1UQ,01772 437172,+44 1772 437172,http://www.goldvape.co.uk/
No-Match,53.7495959,-2.7315701,"49 Liverpool Rd, Penwortham",Preston,PR1 9XD,01772 744248,+44 1772 744248,http://www.no-match.co.uk/
The Vapor Room,53.7575306,-2.7056314,"Victoria Buildings, Fishergate",Preston,PR1 2NJ,01772 305040,+44 1772 305040,http://www.thevaporroom.co.uk/
The Vap Man,53.0904745,-3.0246037,"Llay Hall, Riverside Business Park, Unit 1 Cefn-y-Bedd, Gwersyllt",Wrexham,LL12 9YG,07834 956729,+44 7834 956729,http://www.the-vap-man.co.uk/
HIGH VOLTAGE VAPING AND COFFEE,51.35476,-0.162385,103 Stanley Park Rd,Carshalton,SM5 3JJ,020 8669 2120,+44 20 8669 2120,https://m.facebook.com/Shutes-Tattoos-VAPE-Lounge-350804271740909/
Vapepit,51.3220231,-0.1365187,125 Brighton Rd,Coulsdon,CR5 2NJ,020 8660 8741,+44 20 8660 8741,http://www.vapepituk.com/
Shutes Tattoos,51.3546545,-0.1622842,101 Stanley Rd,Carshalton,SM5 3JJ,020 8835 2328,+44 20 8835 2328,
E-Liquid Shop @ Skunk House VAPE Shop E-Cigarette Shop,51.369588,-0.099793,213 High St,Croydon,CR0 1QR,0845 505 0990,+44 845 505 0990,http://www.eliquid-shop.biz/
Smoketronics Vape & Coffee Shop,51.382541,-0.107186,"187A, London Rd",Croydon,CR0 2RJ,020 8865 1951,+44 20 8865 1951,http://www.smoketronics.co.uk/
Harpars Vape,53.2075172,-0.1148343,6 South St,Horncastle,LN9 6DT,07760 666203,+44 7760 666203,
Royal Vapes Leamington Spa,52.2852246,-1.5327201,23 Bath St,Leamington Spa,CV31 3AF,01926 460025,+44 1926 460025,http://www.royalvapes.co.uk/
smokeyjoes electronic cigarettes,52.2934673,-1.5374425,12 Clarendon Ave,Leamington Spa,CV32 5PZ,01926 733498,+44 1926 733498,http://www.smokeyjoes.biz/
Ecigwizard,52.2852111,-1.5325911,23 Bath St,Leamington Spa,CV31 3AF,01926 460025,+44 1926 460025,
Vape Cloudz,51.5522282,0.002371,"53 Crownfield Rd, London",Stratford,E15 2AB,07459 393366,+44 7459 393366,http://vapecloudz.co.uk/
Vape Town,51.5452385,0.0364197,"A, 491 Katherine Rd, London",Forest Gate,E7 8DR,07707 653921,+44 7707 653921,http://www.vape-town.co.uk/
Fattvapes,51.562981,0.111682,"620a Green Lane, Ilford",Goodmayes,IG3 9SE,020 8598 9286,+44 20 8598 9286,http://www.fattvapes.co.uk/
printing.com,51.5681657,0.0087882,"26 Church Ln, Leytonstone",London,E11 1HG,020 8556 3650,+44 20 8556 3650,http://www.printing.com/uk/studios/london-leytonstone
Vape Store,51.5610893,0.0757648,124 Ley St,Ilford,IG1 4EZ,020 8553 3755,+44 20 8553 3755,http://www.thevape-store.com/
Vaping house,51.549477,0.0250084,"7 station bridge Woodgrange road Vaping, London",Forest gate,E7 0EP,07415 352063,+44 7415 352063,
Pops,51.559422,0.0699639,27 Cranbrook Rd,Ilford,IG1 4DU,020 8478 8454,+44 20 8478 8454,http://www.inilford.com/in-ilford/shopping/4555/Pops-Of-Ilford/
E18 Vape,51.594341,0.023676,"Unit 1, The Galleria, 182 George Ln",London,E18 1GN,020 8001 1863,+44 20 8001 1863,
VapingMan,51.5050136,0.0175796,"Railway Arches, 51B N Woolwich Rd, Isle of Dogs",London,E16 2AA,020 7476 6207,+44 20 7476 6207,http://www.vapingman.co.uk/
Liquid Smoke,51.532007,-0.0340321,452 Roman Rd,London,E3 5LU,020 8981 4817,+44 20 8981 4817,http://www.eliquidsmoke.co.uk/
Vapin loud,51.4859043,0.0907235,"73 Lakedale Rd, London",Plumstead,SE18 1PR,07555 201488,+44 7555 201488,http://www.vapinloud.co.uk/
Smoke-it London,51.4842807,0.0015393,107 Trafalgar Rd,London,SE10 9TS,020 8305 1000,+44 20 8305 1000,http://www.smokeitlondon.com/
Central Vape,51.4803042,-0.0263575,18,Deptford,SE8 3NT,020 8691 9800,+44 20 8691 9800,http://www.centralvape.co.uk/
Elite shisha vape store,51.5534449,-0.0449619,61 Chatsworth Rd,London,E5 0LH,07950 433838,+44 7950 433838,http://www.eliteshisha.com/
"Shiva,",51.481346,-0.0104635,330-332 Creek Rd,London,SE10 9SW,020 8293 9061,+44 20 8293 9061,http://www.shivaonline.co.uk/
Vape Station,53.7213137,-1.8557882,Blackledge,Halifax,HX1 1RE,01422 365557,+44 1422 365557,http://www.thevapestation.co.uk/
Shoesmiths Tobacconist,53.721168,-1.8613342,65 Commercial St,Halifax,HX1 1BE,01422 352315,+44 1422 352315,
Totally Wicked,53.6461247,-1.7829324,14 New St,Huddersfield,HD1 2AR,01484 515999,+44 1484 515999,http://www.totallywicked-eliquid.co.uk/
E Cig Shop,53.6453099,-1.785915,4 Macaulay St,Huddersfield,HD1 2JY,01484 516396,+44 1484 516396,
Anwarsons Newsagency,53.701126,-1.7814394,41 Bethel St,Brighouse,HD6 1JR,01484 717622,+44 1484 717622,
Vape suite,53.6457366,-1.7813061,7 King St,Huddersfield,HD12QD,01484 766066,+44 1484 766066,
ColinsSUK,53.7245948,-1.8729132,"Hanson Lane Enterprise Centre, Hanson Ln",Halifax,HX1 5NX,07428 715692,+44 7428 715692,http://www.colinss.co.uk/
EV-Cigs Huddersfield,53.6466346,-1.7826117,6 Market Pl,Huddersfield,HD1 2AN,01484 767554,+44 1484 767554,http://www.evcigs.co.uk/
www.vapourtastic.co.uk,53.67238,-1.7689325,21 Marlington Dr,Huddersfield,HD2 1GU,07414 994656,+44 7414 994656,http://www.vapourtastic.co.uk/
Grants eJuice,53.2361839,-1.4266356,40 Knifesmithgate,Chesterfield,S40 1RQ,01246 221177,+44 1246 221177,http://grantsejuice.co.uk/
E Cloud Mexborough,53.4935946,-1.2775897,132A Doncaster Rd,Mexborough,S64 0JW,01709 588810,+44 1709 588810,http://www.ecloudonline.co.uk/index.php?main_page=mexborough_store
Future Vape,52.494972,1.7386136,29 Spexhall Way,Lowestoft,NR32 4JH,07526 470087,+44 7526 470087,
Bronsdons,51.1973775,0.2755157,143 High St,Tonbridge,TN9 1DH,01732 359116,+44 1732 359116,
Go4Smoke E-Liquid & E-Cigs Barnoldswick,53.9155071,-2.1868516,9 Rainhall Rd,Barnoldswick,BB18 5AF,0845 850 0703,+44 845 850 0703,http://go4smoke.com/
Liberty Flights - Electronic Cigarettes,53.8523386,-2.2159398,117 Gisburn Rd,Nelson,BB9 6EW,0345 257 9008,+44 345 257 9008,http://www.liberty-flights.co.uk/
Go4Smoke E-Liquid & E-Cigs Colne,53.8566097,-2.1706583,39 Church St,Colne,BB8 0EB,0845 850 0703,+44 845 850 0703,http://www.goforsmoke.com/
The Vape Bar,53.8492228,-2.1914686,217 Burnley Rd,Colne,BB8 8JD,01282 871720,+44 1282 871720,http://www.thevapebar.co.uk/
WizE Cigs,51.0606902,-0.3240175,4 Queen St,Horsham,RH13 5AF,01403 267038,+44 1403 267038,http://www.wize-cigs.co.uk/
The Vaping Shop,53.5385327,-1.428315,35 Wombwell Ln,Barnsley,S70 3NR,,,
Totally Inspired,53.5244335,-1.4014515,,Barnsley,S73 8DD,01226 750832,+44 1226 750832,http://totallyinspired.webs.com/
vape shop no 1,53.3650216,-3.0162398,224 Bebington Rd,bebington,CH42 4QF,07903 613486,+44 7903 613486,http://m.facebook.com/vapeshopno1/
TC Vapours,53.332455,-2.977596,"56 Bromborough Village Rd, Birkenhead",Wirral,CH62 7ET,,,http://www.tcvapours.co.uk/
Liberty Flights - Electronic Cigarettes,53.8726584,-2.3913721,"4 King St, Clitheroe BB7 2EP, ",,BB7 2EP,0345 257 9008,+44 345 257 9008,http://www.liberty-flights.co.uk/
Totally Wicked Blackburn Town Centre,53.7503494,-2.4853636,76 King William St,Blackburn,BB1 7DT,01254 670959,+44 1254 670959,http://www.totallywicked-eliquid.co.uk/
The Gourmet Vapor Shop by NYK Ecigs,53.7435312,-2.4892482,Harrison St,Blackburn,BB2 2JE,0333 344 6555,+44 333 344 6555,http://www.nykecigs.com/
Liberty Flights - Darwen Shop - Electronic Cigarettes,53.6971525,-2.4689431,221 Duckworth St,Darwen,BB3 1AU,0345 257 9008,+44 345 257 9008,http://www.liberty-flights.co.uk/
Mobile Phone Repairs & Unlocking,52.8939861,-1.4547984,734 Osmaston Rd,Derby,DE24 8GU,01332 204200,+44 1332 204200,http://www.csem.co.uk/
Vaping Luton,51.9065058,-0.4567325,256 Marsh Rd,Luton,LU32RX,01582 572604,+44 1582 572604,http://www.vapingluton.com/
Vape'N'throW,51.8832894,-0.4321447,73 Wimborne Rd,Luton,LU1 1PD,07880 771991,+44 7880 771991,
I Love Vapour Ltd,51.8794343,-0.4134142,"Unit, The Mall",Luton,LU1 2TP,01582 726137,+44 1582 726137,http://www.ilovevapour.com/
Vape and Juice - The EastVape Shopping Centre,51.569049,0.460338,Eastgate Shopping Centre,Basildon,SS14 1EB,01268 906820,+44 1268 906820,http://www.vapeandjuice.co.uk/
Vape Lounge,51.5702858,0.4605282,15 east square,Basildon,SS14 1HT,01268 906778,+44 1268 906778,http://www.vapeloungebasildon.co.uk/
PUFF RIK E Vape Basildon,51.569137,0.458261,Market Square,Basildon,SS14 1DE,07427 320119,+44 7427 320119,http://www.puff-rik-e.co.uk/
Smokers Paradise,51.566314,0.5040521,"7 Northlands Pavement, Pitsea Centre",Basildon,SS13 3DU,01268 557747,+44 1268 557747,
Smokers Paradise,51.5694043,0.458019,9 Market Pavement,Basildon,SS14 1DD,01268 520766,+44 1268 520766,
www.ecigukshop.co.uk,51.5749305,0.4895537,11 Hereford Walk,Basildon,SS14 3RG,07761 374365,+44 7761 374365,
VapeHQ North Hykeham,53.1945758,-0.5800224,"Unit 6 The Forum Shopping Centre, North Hykeham",Lincoln,LN6 8HW,01522 687427,+44 1522 687427,http://vapehq.co.uk/storelocator
VapeHQ Birchwood,53.214416,-0.6046813,"VapeHQ, Unit 20, Birchwood Shopping Centre, Jasmin Road",Lincoln,LN6 0QB,01522 688824,+44 1522 688824,http://vapehq.co.uk/storelocator
The Pipe Shop,51.2317107,-2.3207873,14 Market Pl,Frome,BA11 1AB,01373 473699,+44 1373 473699,http://www.thepipeshopfrome.co.uk/
Mirage Cigarettes,51.3822439,-2.3597694,19-20 The Corridor,Bath,BA1 5AP,01225 427270,+44 1225 427270,
SMKD ELECTRONIC CIGARETTES,53.7927127,-1.7516474,"Britannia House, 29 Bridge St",Bradford,BD1 1JN,01274 973991,+44 1274 973991,http://www.smkd.com/
Ejuiceology,50.8564194,0.5814542,14 Queens Road,Hastings,TN34 1QY,01424 547085,+44 1424 547085,http://www.ejuiceology.com/
Executive Vapours,51.7094214,-0.0360009,"48D High St, Cheshunt",Waltham Cross,EN8 0AQ,01992 445173,+44 1992 445173,http://www.executivevapours.co.uk/
Make My Vape Ltd,51.7968929,-0.2005954,Broadwater Rd,Welwyn Garden City,AL7 3AX,01707 566056,+44 1707 566056,http://www.makemyvape.co.uk/
VapeHQ Potters Bar,51.6936152,-0.1779874,"27-29 High St, Potters Bar",Hertford,EN6 5AJ,01707 656800,+44 1707 656800,http://vapehq.co.uk/storelocator
Puff Dad E,51.6875558,-0.0046551,12 Highbridge St,Waltham Abbey,EN9 1DG,01992 700770,+44 1992 700770,http://www.puffdade.com/
executive vapours,51.7113094,-0.0535846,"17 Wheatcroft, Cheshunt",Waltham Cross,EN7 6JS,01992 445173,+44 1992 445173,
Medusa Juice,52.757413,0.4188303,47-49 Lynn Rd,King's Lynn,PE30 4PR,01553 409466,+44 1553 409466,https://www.medusajuice.co.uk/
Enigma,54.7862424,-1.5247378,17 Cheveley Park Shopping Centre,Durham,DH1 2AA,0191 386 7000,+44 191 386 7000,
Ecigwizard Ferryhill,54.689792,-1.5539193,2 Market St,Ferryhill,DL17,0191 587 8168,+44 191 587 8168,https://www.facebook.com/pages/Ecigwizard-Ferryhill/764295640295521
Crystal Clean Vapour,53.3915055,-2.9318275,383 Smithdown Rd,Liverpool,L15 3JJ,0151 733 8862,+44 151 733 8862,
Hermans Ltd,53.4028098,-2.977953,84A Bold St,Liverpool,L1 4HR,0151 709 8392,+44 151 709 8392,
Dream Steam Ecigs,53.3806327,-2.9537734,64 Aigburth Rd,Liverpool,L17 7BN,07946 190146,+44 7946 190146,
Liberty Flights - Liverpool Shop - Electronic Cigarettes,53.4033514,-2.9786371,41 Bold St,Liverpool,L1 4EU,0345 257 9008,+44 345 257 9008,http://www.liberty-flights.co.uk/
Totally Wicked Liverpool,53.405947,-2.984138,27 Tarleton St,Liverpool,L1 1DS,0151 345 0930,+44 151 345 0930,
No Match,53.4008274,-3.113144,"237 Hoylake Rd, Greasby",Wirral,CH46 0PF,0151 677 9899,+44 151 677 9899,http://www.no-match.co.uk/
Ezee Quit,53.4233246,-3.0469135,110 Seaview Rd,Wallasey,CH45 4LD,0151 638 4493,+44 151 638 4493,http://ezee-quitwirral.co.uk/
BrainFuel eLiquid,51.3212753,-2.206223,50 Church St,Trowbridge,BA14 8DN,01225 959201,+44 1225 959201,http://brainfuel-eliquid.co.uk/
Purple Haze Vaping,51.8237471,-1.2919008,23A Banbury Rd,Kidlington,OX5 1AQ,01865 378441,+44 1865 378441,
Its a Mans World,51.7527988,-1.2518513,37 High St,Oxford,OX1 4AN,020 3371 1568,+44 20 3371 1568,http://www.itsamansworld.uk.com/
Liberty Flights - Northallerton Shop,54.3414222,-1.4356973,231 High St,Northallerton,DL7 8LU,01609 778748,+44 1609 778748,
Local Values Ltd,52.0942782,1.3135582,26B Market Hill,Woodbridge,IP12 4LU,07868 849921,+44 7868 849921,http://www.localvalues.co.uk/
Switch Vapes - Vape Shop,51.750478,-0.338985,22 London Rd,St Albans,AL1 1NG,01727 858555,+44 1727 858555,http://www.switchvapes.co.uk/
smoke-no-fire t/a Totally Wicked St Albans,51.752344,-0.314459,177 Hatfield Rd,St Albans,AL1 4LG,01727 530519,+44 1727 530519,http://www.smoke-no-fire.co.uk/
World Vape Co,51.6684693,-0.3981381,"175, St Albans Rd, Watford",WD24 5BD,,01923 218999,+44 1923 218999,http://www.worldvapeco.co.uk/
Watford Vape,51.6504613,-0.405168,17 Harwoods Rd,Watford,WD18 7RB,01923 636867,+44 1923 636867,http://www.watfordvape.com/
A Touch of Glass,54.0827419,-0.1915011,Chapel St,Bridlington,YO15 2DW,01262 677677,+44 1262 677677,http://www.atouchofglassyorkshire.co.uk/
Vape Sensation,52.3503407,-2.2103736,"221 Ikon Ind Est/Droitwich Rd, Hartlebury",Kidderminster,DY10 4EU,01299 253777,+44 1299 253777,http://www.vapesensation.com/
Nicovape,52.3937424,-2.0166239,"186 New Rd, Rubery",Birmingham,B45 9JA,07771 483306,+44 7771 483306,
MOFO Vape Bar,52.471243,-2.100009,129 Lower High Street,Quarry Bank,DY5 2AG,01384 412628,+44 1384 412628,http://www.mofovape.com/
vapewise,52.458023,-2.1158361,"22 High St, Stourbridge",lye,DY9 8LB,01384 936050,+44 1384 936050,http://www.vapewise.co.uk/
UltraVapour.com,52.4707519,-2.0335111,68 Long Ln,Halesowen,B62 9LS,0121 293 5786,+44 121 293 5786,http://www.ultravapour.com/
Vape-Space,52.4801822,-2.1216068,"Jewess Butchers, 56 High St, Quarry Bank",Brierley Hill,DY5 3AW,01384 265661,+44 1384 265661,http://www.vape-space.co.uk/
Midlands Vaping,52.5092374,-2.0824849,"west 8ny, 31 King St",Dudley,DY2 8NY,01384 237919,+44 1384 237919,http://midlandsvaping.co.uk/
East Coast Vaping,52.4750917,1.7515715,56 London Rd N,Lowestoft,NR32 1BL,01502 341512,+44 1502 341512,http://eastcoastvaping.co.uk/
Vvapour Stevenage E-cig Store,51.911941,-0.2078837,35 High St,Stevenage,SG1 3AU,01438 487277,+44 1438 487277,http://vvapour.co.uk/locations/stevenage-vvapour-e-cig-store/
Swevan Absolute Limited,51.8532316,-0.1589924,"19 Brookbridge Ln, Datchworth",Knebworth,SG3 6SU,01438 817366,+44 1438 817366,http://www.electroniccigarette.uk.com/
UK Skunkworks,51.5552354,-0.115378,334 Holloway Rd,London,N7 6NJ,020 3659 8077,+44 20 3659 8077,http://www.ukskunkworks.co.uk/
Safer Cigs,50.8567786,-2.1651706,22 Salisbury St,Blandford Forum,DT11 7AR,01258 480107,+44 1258 480107,http://www.safercigs.co.uk/
I Aint No Saint,51.705568,-0.4182578,80 High St,Abbots Langley,WD5 0AW,01923 262130,+44 1923 262130,http://www.iaintnosaint.com/
JK's E CIG,53.6464739,-3.0052359,"K2 Marble Place Shopping Centre, Chapel Street",Southport,PR8 1DF,01704 807838,+44 1704 807838,http://www.jksecig.com/
Liberty Flights - Electronic Cigarettes,53.6030727,-3.0344413,646 Liverpool Rd,Southport,PR8 3LT,0345 257 9008,+44 345 257 9008,http://www.liberty-flights.co.uk/
UK Vapes Caernarfon,53.1393801,-4.2726079,44 Pool St,Caernarfon,LL55 2AB,01286 238755,+44 1286 238755,https://www.facebook.com/ukvapescaernarfon
The Kiosk,51.5885967,-2.9969097,High St,Newport,NP20 1GF,01633 670569,+44 1633 670569,http://www.facebook.com/TheKioskNewsagents
North Point Shopping Centre,53.7863856,-0.3211563,5 Goodhart Rd,Hull,HU7 4EE,01482 825956,+44 1482 825956,http://northpointshoppingcentre.co.uk/
Ecigwizard,50.8034098,0.303907,"Langney Shopping Centre, 64 Kingfisher Dr",Eastbourne,BN23 7RT,01323 768690,+44 1323 768690,
The Vapour Room,50.7715629,0.2946326,185 Langney Rd,Eastbourne,BN22 8AH,01323 301132,+44 1323 301132,http://thevapourroomonline.co.uk/
The Vapour Trail,50.7699065,0.280791,"Unit S-T, Station Parade",Eastbourne,BN21 1BD,01323 301731,+44 1323 301731,
Urban Vapor - Vape / E cigarette Shop,51.730469,0.474909,17 Baddow Rd,Chelmsford,CM20BX,01245 255477,+44 1245 255477,http://www.urbanvapor.co.uk/
Game Wood Green,53.11799,-2.173769,"2-4 Congleton Rd, Biddulph",Stoke-on-Trent,ST8 6DX,01782 761276,+44 1782 761276,
vape-vending,53.1623219,-2.2105161,"The Club, Chapel St",Congleton,CW12 1BD,,,http://vape-vending.com/
One Stop Vapor Shop UK,55.623396,-3.523964,14 McAlpine Park,Biggar,ML12 6WR,07747 675429,+44 7747 675429,
Simply Ecigs,51.6228039,0.303795,52 Ongar Rd,Brentwood,CM15 9AX,01277 212885,+44 1277 212885,http://www.simplyecigsessex.co.uk/
CIG-E,52.6362629,-1.1362822,5 shire lane Highcross St,Leicester,LE1 4AN,,,
E C I G UK St Helens,53.4521638,-2.7325197,32 George St,Saint Helens,WA10 1BU,01744 750800,+44 1744 750800,http://ecigsthelens.vpweb.co.uk/
Electronic Cigarettes by CloudStix.com,53.5363979,-2.682461,733 Ormskirk Rd,Wigan,WN5 8AT,0345 257 6544,+44 345 257 6544,http://www.cloudstix.com/
Eciggy UK Middlesbrough,54.5777047,-1.235404,22 Dundas Mews,Middlesbrough,TS1 1HT,01642 247073,+44 1642 247073,http://eciggyuk.co.uk/middlesbrough-shop/
Eciggy UK,54.5642397,-1.3126791,"3 The Shambles, High Street",Stockton-on-Tees,TS18 1AA,01642 618111,+44 1642 618111,http://eciggyuk.co.uk/
Smooth Vapourz,54.6821931,-1.2164847,158 York Rd,Hartlepool,TS26 9DT,07789 692993,+44 7789 692993,http://www.smoothvapourz.co.uk/
Beck's E-Cig,54.049246,-2.799296,Ashton Walk,Lancaster,LA1 1ND,07446 268674,+44 7446 268674,http://www.becks-ecig.co.uk/
Premier E-cigs,53.205264,-1.1523594,"2 Burns Ln, Warsop",Mansfield,NG20 0PB,01623 844772,+44 1623 844772,http://premiere-cigs.co.uk/
Mansfield Vapours Lounge,53.1468332,-1.1992711,69 W Gate,Mansfield,NG18 1RU,01623 646692,+44 1623 646692,http://www.totallywicked-retail.co.uk/Mansfield-Vapours-Lounge.html
supreme vapers,52.599303,-2.048194,"The Precinct, Lucknow Rd",Willenhall,WV12 4PZ,07545 493545,+44 7545 493545,
Ultra Vapour,52.5569016,-1.9745661,The Office/Forest House/,Walsall,WS5 4QL,01922 279271,+44 1922 279271,http://www.ultravapour.com/
elite vaping,52.598744,-2.0476203,31 Lucknow Rd,Willenhall,WV12,,,
Midland Vape Shack Tipton,52.538908,-2.0725935,116 Bloomfield Rd,Tipton,DY4 9ES,0121 530 9648,+44 121 530 9648,http://www.midlandvapeshack.co.uk/
Vaperholic,52.585987,-2.1262003,6 King St,Wolverhampton,WV1 1ST,01902 427160,+44 1902 427160,http://www.vaperholic.co.uk/
Regimental Vape,52.6120312,-2.081227,"288-290 Linthouse Ln, Wednesfield",Wolverhampton,WV11 3TT,01902 903456,+44 1902 903456,http://regimentalvape.co.uk/
Warmbrite Vaping,52.553142,-2.018933,118 Walsall St,Wednesbury,WS10 9BY,0121 572 3031,+44 121 572 3031,
Smoke No Smoke,52.3743415,-1.260419,34 Regent St,Rugby,CV21 2PS,01788 579896,+44 1788 579896,http://www.smoke-no-smoke.co.uk/
eCloud,53.4633522,-1.4649257,29 Station Rd,Sheffield,S35 2XE,0114 245 1931,+44 114 245 1931,http://www.ecloudonline.co.uk/
Mirage Electronic Cigarettes,53.4298313,-1.354364,24 Wellgate,Rotherham,S60 2LR,0845 475 0148,+44 845 475 0148,http://www.miragecigarettes.co.uk/shop/about-us.html
Mister Motivaper,53.7963496,-1.5905505,3 Hall Rd,Leeds,LS12 1UZ,01274 987430,+44 1274 987430,http://www.mistermotivaper.co.uk/
Tobacco Not Included,54.1370076,-1.5237428,5 Fishergate,Ripon,HG4 1EA,,,
The Edinburgh Woollen Mill,50.9678589,-1.3523554,41 Market St,Eastleigh,SO50 5RF,023 8064 7620,+44 23 8064 7620,http://www.ewm.co.uk/store-finder/index/storedetail/id/247/
Ifancyone Com - Electronic Cigarettes,52.632997,-1.6946548,20 George St,Tamworth,B79 7LL,01827 767020,+44 1827 767020,
FlavourArt UK - That's Nice Ltd.,53.7585865,-2.4608872,Blakewater Rd,Blackburn,BB1,01254 674561,+44 1254 674561,http://www.flavourart.co.uk/
Liberty Flights Ltd Head Office,53.6854861,-2.4584361,"Arkwright Court, Commercial Rd",Darwen,BB3 0FG,0345 257 9008,+44 345 257 9008,http://www.liberty-flights.co.uk/
Tower Vape Shop,51.4979339,-0.0760466,111 Abbey St,London,SE1 3NP,020 7237 6343,+44 20 7237 6343,http://www.towervapeshop.com/
tower vape shop,51.5007711,-0.0783959,Tower Bridge Rd,London,SE1,,,
Caffè Vape,51.4718598,-0.093655,"8 Coldharbour Ln, Camberwell",London,SE5 9PR,020 7274 4477,+44 20 7274 4477,https://m.facebook.com/Caffevapeltd/
53 VAPE,51.406706,0.00489,53 Beckenham Ln,Bromley,BR2 0DA,07502 535353,+44 7502 535353,http://www.53vape.co.uk/
Vapebuzz,51.514921,-0.078797,22A Bevis Marks,London,EC3A 7JB,020 7929 2242,+44 20 7929 2242,http://www.vapebuzz.co.uk/
Vape London & Squeeze Digital Media,51.4309134,-0.099453,"98 Auckland Hill, London",South London,SE27 9QQ,020 8670 3772,+44 20 8670 3772,http://www.squeezedigitalmedia.com/
Vapes London,51.4635168,-0.1142085,"3 Brixton Station Rd, Brixton",London,SW9 8PA,020 7924 0439,+44 20 7924 0439,http://vapeslondon.com/
New X Vape,51.4757799,-0.04786,130 New Cross Rd,London,SE14 5BA,020 7159 5184,+44 20 7159 5184,
Urban Vapor - Vape / E cigarette Shop,51.5633883,0.2152903,29 High St,Hornchurch,RM11 1TP,01708 470333,+44 1708 470333,http://www.urbanvapor.co.uk/
The Vapour Salon,53.8181029,-3.0492218,118-120 Church Street,Blackpool,FY1 3PP,0800 566 8961,+44 800 566 8961,
"E Smoking - Electronic Cigarettes, E-Liquids & Vaping Accessories",53.8295089,-3.0306663,24 Westcliffe Dr,Blackpool,FY3 7HG,01253 921534,+44 1253 921534,
Liberty Flights - Electronic Cigarettes,53.8020166,-3.0079662,"Blackpool Trade Centre, Preston New Rd, Blackpool FY4 4QX, ",Blackpool,FY4 4QX,0345 257 9008,+44 345 257 9008,http://www.liberty-flights.co.uk/
Ecig Switch Vapour Shop,53.8185772,-3.050133,11 Cedar Square,Blackpool,FY1 1BP,01253 596106,+44 1253 596106,http://ecigswitch.co.uk/
The Tutu Shop,50.2062442,-5.2852007,2 Pendarves St,Camborne,TR14 7SQ,01209 712268,+44 1209 712268,http://www.thetutushop.co.uk/
Quintessential,50.2629723,-5.0553192,14 Kenwyn St,Truro,TR1 3EU,01872 270799,+44 1872 270799,http://www.quintessentialtips.com/
iDeaLA,54.9716683,-1.6163427,"1, Newgate Shopping Centre, Newgate St",Newcastle upon Tyne,NE1 5RE,0191 231 4638,+44 191 231 4638,https://www.ideala.co.uk/
iDeala Vape,54.9714694,-1.6160165,"Newgate Shopping Centre, Newgate street",Newcastle upon Tyne,NE1 5RE,0191 231 4638,+44 191 231 4638,https://www.idealavape.com/
The Vapoury,51.2373175,-2.9972146,"Unit, 2 Chapel St",Burnham-on-Sea,TA8 1AU,01278 795003,+44 1278 795003,http://www.thevapoury.club/
Colour Leaf,51.2878023,-0.0972555,53 Westway,Caterham,CR3 5TQ,07914 940952,+44 7914 940952,http://www.colourleaf.co.uk/
Spotless Punch Ltd,51.2406062,-0.1707488,"Betchworth House, 57-65 Station Rd",Redhill,RH1 1DL,01737 781300,+44 1737 781300,http://www.spotlesspunch.co.uk/
Vape Worksop,53.3036484,-1.1289182,71 Newcastle Ave,Worksop,S80 1LX,,,http://www.onlythevape.co.uk/
gasworld,50.260779,-5.120929,"Unit 2, Building B, Greencourt",Truro,TR4 9LF,01872 225031,+44 1872 225031,http://www.gasworld.com/
JC Vape,53.2593736,-2.1249668,19 Back Wallgate,Macclesfield,SK11 6QB,01625 668898,+44 1625 668898,http://www.jcvape.co.uk/
Vlad The Inhaler,53.2543968,-2.1269248,111 Park Ln,Macclesfield,SK11 6UA,01625 420274,+44 1625 420274,
Flavour Vapour,51.4930241,-3.169565,34 Albany Rd,Cardiff,CF24 3RP,029 2065 0129,+44 29 2065 0129,http://www.flavourvapour.co.uk/
Cigg-E,51.4819863,-3.2046828,210 Cowbridge Rd E,Cardiff,CF5 1GX,0800 242 5611,+44 800 242 5611,
Tidal vape,50.9242268,-1.376506,"9, The Triangle, Cobden Ave",Southampton,SO181FZ,023 8055 3111,+44 23 8055 3111,http://www.tidalvape.co.uk/
Gruvecigs,50.8967803,-1.3803006,44 Victoria Rd,Southampton,SO19 9DX,023 8070 1802,+44 23 8070 1802,http://www.gruvecigs.co.uk/
Mirage Electronic Cigarettes,54.5349909,-1.0534533,51 Westgate,Guisborough,TS14 6AF,01287 632796,+44 1287 632796,
Crystal Vapours Ltd,53.4403731,-2.9709623,59 County Rd,Liverpool,L4 3QD,0151 521 0785,+44 151 521 0785,http://www.cvcigs.com/
Pro Vapours,53.4628745,-2.9684835,60 Moss Ln,Liverpool,L9 8AN,07948 530867,+44 7948 530867,
Leisure Liquids Ltd,51.341703,0.7466747,"Unit A2, Smeed Dean Centre, Castle Rd",Sittingbourne,ME10 3EW,01795 436019,+44 1795 436019,http://www.leisureliquids.com/
Smok' air Store,51.340782,0.735911,The Forum,Sittingbourne,ME10 3DL,01795 477150,+44 1795 477150,http://www.smokairuk.com/
Totally Vapour Ltd,52.415501,-1.8286105,"119 Stratford Rd, Shirley",Solihull,B90 3ND,0121 745 5511,+44 121 745 5511,
VapeHQ Solihull,52.395987,-1.812352,"260 Cranmore Blvd, Shirley",Solihull,B90 4BX,0121 745 9291,+44 121 745 9291,http://vapehq.co.uk/storelocator
Vapes in the Wood,51.6546991,-0.2773337,1 Drayton Rd,Borehamwood,WD6 2DA,020 3620 1197,+44 20 3620 1197,http://vapesinthewood.co.uk/
Vaping Eliquids,51.632454,-0.142715,Onslow Parade,London,N14 5JN,020 8001 0484,+44 20 8001 0484,http://www.vapingeliquids.co.uk/
supervape.co.uk,51.6150597,-0.1787905,25c Coleridge Rd,London,N12 8DH,020 3091 3637,+44 20 3091 3637,http://supervape.co.uk/
The VAPESTICK® Group,51.6583106,-0.2680859,"1, Imperial Place, Maxwell Rd",Borehamwood,WD6 1JN,0800 011 4312,+44 800 011 4312,http://www.vapestick.co.uk/
Totally Wicked Harrogate,53.9987275,-1.4991032,36 High St,Harrogate,HG2 7JE,01423 313637,+44 1423 313637,
Liberty Flights,54.0069701,-1.5487203,302 Skipton Rd,Harrogate,HG1 3HE,01423 520057,+44 1423 520057,http://www.liberty-flights.co.uk/
The-Nobacconists Havant,50.867308,-0.984332,26 Greywell Rd,Havant,PO9,023 9245 3996,+44 23 9245 3996,http://www.the-nobacconists.co.uk/
Vape 4 life - Leigh Park,50.866367,-0.984996,"Vape 4 Life, 37 Park Prade,",Havant,PO9 5AA,,,https://www.facebook.com/vape4lifeleighpark/
Superdrug,50.8664342,-0.9858106,"13/15/17 Greywell Park Parade, Leigh Park",Havant,PO9 5AH,023 9245 3432,+44 23 9245 3432,http://www.superdrug.com/
E-vapor,51.8661245,-2.2468329,30 Westgate St,Gloucester,GL1 2NG,01452 507764,+44 1452 507764,http://www.evapor.co.uk/
SimCig,51.3160325,0.8902742,120 West St,Faversham,ME13 7JB,01795 227490,+44 1795 227490,http://simcig.co.uk/
vapin ape,50.7552105,-1.656788,8 Whitefield Rd,New Milton,BH25 6DE,01425 501254,+44 1425 501254,
Phoenix Electronic Cigarettes,52.0863555,-0.7220851,"Tickford Arcade, St John St",Newport Pagnell,MK16 8HY,01908 617413,+44 1908 617413,https://phoenixeliquid.co.uk/
VapeHQ Cippenham,51.5207016,-0.6455187,"11 Station Rd, Slough SL1 6JJ, ",,SL1 6JJ,01628 667866,+44 1628 667866,
Vape Worm,50.72658,-1.841448,"4, 7A Palmerston Rd",Bournemouth,BH1 4FD,01202 950090,+44 1202 950090,http://www.vapeworm.com/
Vaper Trails,50.7291993,-1.9437566,500 Ashley Rd,Poole,BH14 0AD,07801 733233,+44 7801 733233,http://www.vapertrail.co.uk/
King Bong,50.7201787,-1.8841313,23 The Triangle,Bournemouth,BH2 5SE,01202 296665,+44 1202 296665,http://www.kingbong.com/
The Third Side,50.7201759,-1.8840034,67 Commercial Rd,Bournemouth,BH2 5RT,01202 319239,+44 1202 319239,http://www.thirdside.co.uk/
Trip Hammer,50.7692852,-1.9038727,1623 Wimborne Rd,Bournemouth,BH11 9AR,01202 582527,+44 1202 582527,http://www.triphammer.co.uk/
Coolhands E-Cig Store,54.8414161,-1.4699325,Durham Rd,Houghton le Spring,DH4 4DJ,07792 242762,+44 7792 242762,http://www.coolhands-ecigs.uk/
House of Vapes,54.867872,-1.4948131,"Rock House, Wheatsheaf Corner",Houghton le Spring,DH4 4QX,0191 385 8616,+44 191 385 8616,http://www.houseofvapes.co.uk/
Custom Vapez,54.907194,-1.515792,"Washington, DC NE",Washington,NE37,07900 076380,+44 7900 076380,https://aradium.com/9vw5z
888 Vapour Lincoln,53.2259653,-0.5418621,338 High St,Lincoln,LN5 7DQ,01522 244600,+44 1522 244600,http://www.888vapour.co.uk/
VG Vape Emporium,53.2594243,-1.9068594,117 Spring Gardens,Buxton,SK17 6BX,,,https://www.facebook.com/vgvapeemporiumbuxton/
VAPOUR 23 ELECTRIC CIGARETTES,53.4546329,-1.3437741,"68 Rawmarsh Hill, Parkgate",Rotherham,S62 6EU,07870 701112,+44 7870 701112,http://www.vapour23.co.uk/
Bramley Mini Mart Best-One,53.4278661,-1.2692128,"16 Flanderwell Ln, Bramley",Rotherham,S66 3QJ,01709 702139,+44 1709 702139,
VapeHQ Dinnington,53.3783305,-1.2312268,Heritage Cour,Laughton Common,S25 3RU,01909 568300,+44 1909 568300,
Hazelgrove E Cigs Ltd,53.3781878,-2.1173783,"309 London Rd, Hazel Grove",Stockport,SK7 4PS,0161 482 4462,+44 161 482 4462,http://www.stockport-e-cig-company.co.uk/shop-locations/hazel-grove/
Vapour Nation,53.4014169,-2.1691491,Castle St,Stockport,SK3 9AL,0161 477 7447,+44 161 477 7447,http://www.vapour-nation.co.uk/
Smoke No Smoke,53.4104982,-2.1611998,A/69 Merseyway,Stockport,SK1 1QW,0161 429 6016,+44 161 429 6016,http://www.smoke-no-smoke.co.uk/
Vape Town Exeter,50.720371,-3.5349969,123 Fore St,Exeter,EX4 3JQ,,,
Vapourtorium,54.8940633,-2.9313862,30 Lonsdale St,Carlisle,CA1 1DB,01228 409545,+44 1228 409545,
Allsorts,51.801421,-4.968125,8 Quay St,Haverfordwest,SA61 1BG,01437 779587,+44 1437 779587,http://www.vapeallsorts.co.uk/
E-Cigilicious Electronic Cigarette Shop,51.8035306,-4.9686802,Riverside Market,Haverfordwest,SA61 2AN,029 2039 9886,+44 29 2039 9886,
HOLMES CUBAN CIGARS & TOBACCONIST,52.8995465,-1.2718391,"7 Derby Rd, Long Eaton",Nottingham,NG10 1LU,0115 972 6783,+44 115 972 6783,http://www.tobaccouk.com/
SMOKO Premium Electronic Cigarettes,51.1345178,0.2674166,18 Camden Rd,Tunbridge Wells,TN1 2PT,0800 772 0234,+44 800 772 0234,http://www.smoko.com/
Culi Computer Associates,51.1379679,0.2700736,"165 Camden Rd, Roya",Tunbridge Wells,TN1 2RF,01892 548196,+44 1892 548196,
Violet's Vapes,51.564848,0.200469,216,Hornchurch,RM11 1QJ,01708 572104,+44 1708 572104,http://www.violetsvapes.co.uk/
Smokers Paradise,51.5577275,0.2500497,40 Station Rd,Upminster,RM14 2TR,01708 222787,+44 1708 222787,
Smokers Paradise,51.5620452,0.2201841,152 High St,Hornchurch,RM12 6QX,01708 455872,+44 1708 455872,
Flavour Vapour,53.1927033,-2.4469295,21 Wheelock St,Middlewich,CW10 9AG,01606 836676,+44 1606 836676,http://www.flavourvapour.co.uk/
UltraVape,53.684871,-2.886908,Hundred End,Preston,PR4 6XE,0333 088 6285,+44 333 088 6285,http://www.ultravape.net/
Gorilla Vapes,51.128659,-3.004713,"8-10, The Avenue",Bridgwater,TA6 3BW,01278 238031,+44 1278 238031,http://www.gorillavapes.co.uk/
iVAPE Home Store,52.4755132,-2.0401808,9 High St,Rowley Regis,B65 0DT,07910 002469,+44 7910 002469,http://www.facebook.com/ivape.homestore
E-puff Electronic Cigarettes,52.506597,-2.153181,53 Third Ave,Kingswinford,DY6 7XQ,01384 401609,+44 1384 401609,http://www.epuff.co.uk/
Ecko Records,52.513072,-2.076404,30 Castle Hill,Dudley,DY1 4QQ,01384 240637,+44 1384 240637,http://www.eckohq.co.uk/
QSS Vapes,50.8295574,-0.1732803,"28 George St, Hove",BN3 3YA,,01273 747853,+44 1273 747853,
Vapour Evolution,50.8227264,-0.1428718,14 Duke St,Brighton,BN1 1AH,01273 567500,+44 1273 567500,https://www.ukvapour.com/
The Vaping Vault,50.831669,-0.13578,42 Baker St,Brighton,BN1 4JN,07949 428358,+44 7949 428358,https://plus.google.com/108375952715810183808/
Mist Electronic Cigarettes,50.8296237,-0.126247,103 Islingword Rd,Brighton,BN2 9SG,01273 681138,+44 1273 681138,http://www.misteliquid.co.uk/
The Vapour Trail,50.8317812,-0.1279136,26 Elm Grove,Brighton,BN2 3DD,01273 640406,+44 1273 640406,http://www.thevapourtrailbrighton.co.uk/
Mist Electronic Cigarettes,50.8318896,-0.1351265,16 Baker St,Brighton,BN1 4JN,01273 695593,+44 1273 695593,http://www.misteliquid.co.uk/
Vaper Trails Brighton North Laines,50.82839,-0.138914,"74 Trafalgar St, Brighton BN1, ",,BN1,07977 100900,+44 7977 100900,http://www.vapertrail.co.uk/
The Vape Shop - Electronic Cigarette Brighton,50.8341218,-0.1401066,19-29 Preston Rd,Brighton,BN1 4QE,07902 328605,+44 7902 328605,
Unique Vapour,50.4351635,-3.5635422,12 Torbay Rd,Paignton,TQ4 6AF,01803 431611,+44 1803 431611,
Infinity Pro,50.4358003,-3.5652305,75 Hyde Rd,Paignton,TQ4 5BP,0845 544 1233,+44 845 544 1233,http://uk.infinitypro.com/
Redeye Paignton,50.435043,-3.5607317,70 Torbay Rd,Paignton,TQ4 6AL,01803 522888,+44 1803 522888,
ALECTROFAG | E-CIG & VAPE SHOP Clapham Junction,51.4649788,-0.1580211,145 Lavender Hill,London,SW11 5QJ,020 7924 2124,+44 20 7924 2124,http://www.alectrofag.co.uk/
Vaping Shop,51.428492,-0.166966,Unit 12 Broadway Market,Tooting,SW17 0RJ,0303 666 6622,+44 303 666 6622,
Rebel Soul Brixton,51.4635168,-0.1142085,"3 Brixton Station Rd, Brixton",London,SW9 8PA,020 7274 7707,+44 20 7274 7707,
Dulwich Vape,51.4512789,-0.0593189,"126 Forest Hill Rd, London",Dulwich,SE22 0RS,020 8299 9995,+44 20 8299 9995,http://www.dulwichvape.co.uk/
Whatever Works 2,51.416156,-0.072256,51-53 Anerley Rd,London,SE19 2AS,020 8778 5182,+44 20 8778 5182,
Emporium Hydroponics & vape,51.467007,-0.066186,"196 Rye Ln, Peckham",London,SE15 4NF,020 7358 9920,+44 20 7358 9920,http://emporiumhydroponics.com/
"SMOKEES LONDON- Head Shop, Wandsworth Road, South London",51.4716708,-0.1357184,"467 Wandsworth Rd, London SW8 4NX, ",,SW8 4NX,020 8127 4705,+44 20 8127 4705,http://www.facebook.com/smokees.london
Vape Shop London,51.514395,-0.1295551,108 Charing Cross Rd,London,WC2H 0JN,020 7240 3513,+44 20 7240 3513,http://vapeshop.london/
VapeSense,52.2005923,-2.2253106,40E Upper Tything,Worcester,WR1 1JZ,01905 780360,+44 1905 780360,http://vapesense.co.uk/
Ubervape.co.uk,51.7636286,0.074952,E10,Harlow,CM19 5AF,01279 439602,+44 1279 439602,http://ubervape.co.uk/
Vapour Essence,51.387075,1.401193,231 Northdown Rd,Margate,CT9 2PJ,01843 224751,+44 1843 224751,http://www.vapouressence.co.uk/
Carmichaels Vaping,52.0862532,-0.7221569,"9 Tickford Arcade Saint John Street, Newport Pagnell",Milton Keynes,MK16 8HY,01908 617413,+44 1908 617413,https://www.facebook.com/CarmichaelsVaping
Clear Mist UK Ltd,53.6054735,-2.4287695,53 Hill Cot Rd,Bolton,BL1 8RL,0161 300 7973,+44 161 300 7973,
East Coast E-Cigs,54.279268,-0.407094,"5-7, Station Shops, Westborough",Scarborough,YO11,01723 363969,+44 1723 363969,http://www.facebook.com/eastcoastecigs
Evapinghole E-Cig and E-Liquid Store - www.evapinghole.co.uk,52.2753,-2.164994,"Droitwich, Meadow Rd",Worcester,WR9 9DN,07446 386691,+44 7446 386691,http://www.evapinghole.co.uk/
Vapelux,51.6494575,-0.1755961,"6, Kingmaker House, 15 Station Rd",New Barnet,EN5 1NZ,020 8344 2000,+44 20 8344 2000,http://vapelux.com/
Vaper Train,52.3039397,-0.6888001,4 York Rd,Wellingborough,NN8 1DS,07952 947089,+44 7952 947089,http://www.vapertrain.com/
North Wales Vapour E Cigs and E Liquids,53.2922827,-3.722829,"27 madoc street, Colwyn Bay",Llandudno,LL30 2TL,01492 330865,+44 1492 330865,https://facebook.com/NorthWales-Vapour-517541378345604/?ref=bookmarks
No Tar Vaping Ltd,50.6205932,-3.4115285,"Staples Mews, 2 Exeter Rd",Exmouth,EX8 1PL,01395 708268,+44 1395 708268,
TJ's E-Cigarettes Chatham,51.3818303,0.5271064,233 High St,Chatham,ME4 4BQ,01634 843020,+44 1634 843020,
Deluxe Vapours,51.6801391,-4.1639421,Lloyd St,Llanelli,SA15 2PU,01554 227290,+44 1554 227290,http://www.deluxevapours.co.uk/
Vapourlicious,51.6830121,-4.1277428,111 Pemberton Rd,Llanelli,SA14 9BH,01554 754028,+44 1554 754028,
Celtic Vapours Retail Ltd,51.6825666,-4.1609243,4 Vaughan St,Llanelli,SA15 3TY,01554 754487,+44 1554 754487,https://celticvapours.com/
VapeHQ Bestwood,52.994141,-1.160506,"127 Arnold Rd, Nottingham",Bestwood,NG5 5HR,0115 960 6611,+44 115 960 6611,http://vapehq.co.uk/storelocator
Vape Central,52.342781,-0.537214,"34 Brook St, Raunds",Wellingborough,NN9 6LP,,,
Vapour World Ltd,53.73074,0.0207279,"Vapour World Ltd Unit 2F Beacon Industrial Estate, Hull Rd",Withernsea,HU19 2EG,01964 615124,+44 1964 615124,http://www.vapourworld.co.uk/
Smawthorne Henry Moore Primary School,53.717213,-1.351143,Ashton Rd,Castleford,WF10 5AX,01977 558395,+44 1977 558395,http://www.smawthorneprimary.wakefield.sch.uk/
Vape Escape,53.5940017,-2.2260038,"1jf, 60 Bridge St",Heywood,OL10 1JF,,,http://www.vapeescape.co.uk/
FoneXperts VapEscape,53.5922903,-2.2968085,5 Market St,Bury,BL9 0AW,0161 761 2201,+44 161 761 2201,https://www.facebook.com/pages/VapEscape/1386935091614044
No-Match E-Cigs - Bury,53.6018826,-2.290734,133A Walmersley Rd,Bury,BL9 5AY,0161 762 0077,+44 161 762 0077,http://www.no-match.co.uk/
Shop to Stop,53.545608,-2.285326,"22 Clarence Ave, Whitefield",Manchester,M45 6DZ,0161 280 2646,+44 161 280 2646,http://www.shoptostop.co.uk/
Vaporium Electronic Cigarettes,53.5930315,-2.2852112,133 Rochdale Rd,Bury,BL9 7BA,0161 761 6225,+44 161 761 6225,
Vaporized,53.6437672,-2.0944246,35 Church St,Littleborough,OL15 8DA,01706 375278,+44 1706 375278,
The Old Clink,50.5031373,-4.3165582,27 Fore St,Callington,PL17 7AD,01579 389388,+44 1579 389388,
plymouth partys - mobile disco's,50.3775765,-4.1187796,Edith Ave,Plymouth,PL4 8TJ,07966 688098,+44 7966 688098,
Harriet,50.117658,-5.535491,"Penzance TR18, ",,TR18,,,
vapourqueen.com,51.4930265,-3.1695849,24 Albany Rd,Cardiff,CF24 3RQ,07714 191102,+44 7714 191102,http://www.vapourqueen.com/
E Cigarettes Cardiff,51.4917689,-3.1712904,"211 City Rd, Cardiff CF24 3JD, ",,CF24 3JD,029 2048 2777,+44 29 2048 2777,http://www.ecigcardiff.com/
Clear Vapour E cigarette Shop,53.4745202,-2.3751214,"817 Liverpool Rd, Eccles",Manchester,M30 7LH,0161 707 7426,+44 161 707 7426,http://www.clearvapour.co.uk/
Vapour Acocks Green Vape Shop,52.4454863,-1.8324594,"35 Summer Rd, Birmingham",Acocks Green,B27 7UT,0800 292 2345,+44 800 292 2345,
Liberty Flights - Rawtenstall Shop - Electronic Cigarettes,53.7028743,-2.2848986,52 Bank St,Rawtenstall,BB4 8DY,0345 257 9008,+44 345 257 9008,http://www.liberty-flights.co.uk/
Nottage Stores,51.4904723,-3.7025608,"Heol-y-capel, Nottage",Porthcawl,CF36 3ST,01656 784339,+44 1656 784339,
UK vapes oswestry,52.8594658,-3.0535882,20 Leg St,Oswestry,SY11 2NN,01691 239981,+44 1691 239981,
Brown's Wholesale,52.8498184,-3.0450274,"Radford Fields Industrial Estate, Radfords Field",Oswestry,SY10 8RA,01691 656333,+44 1691 656333,
Earthlink and Good Vibrations,52.8594326,-3.0533169,31 Leg St,Oswestry,SY11 2NN,01691 679436,+44 1691 679436,http://www.earthlink-good-vibes.co.uk/
www.vapingbull.co.uk,56.2079287,-3.1698266,Cadham Centre,Glenrothes,KY7 6RU,01592 620620,+44 1592 620620,
Vape My Day,53.5839922,-2.0980083,"95A Duchess St, Shaw",Oldham,OL2 7XD,07539 848694,+44 7539 848694,
Tooty Fruity,53.5473412,-2.0896428,11 Ripponden Rd,Oldham,OL1 4EN,0161 478 0216,+44 161 478 0216,http://www.tootyfruityecigs.com/
E-Lyfe Electronic Cigarettes,53.5417004,-2.0923302,181 Lees Rd,Oldham,OL4 1JP,07711 863163,+44 7711 863163,
IBreathe,53.5472623,-2.1290677,"3, Edelle Business Park, Quebec St",Oldham,OL9 6QJ,0161 710 2550,+44 161 710 2550,http://www.i-breathe.co.uk/
No-Match Electronic Cigarettes - Oldham,53.5398724,-2.1167466,39 King St,Oldham,OL8 1DP,0161 628 4181,+44 161 628 4181,http://www.no-match.co.uk/
Tablites Ltd,53.4850189,-2.2338291,56 Oak Street,Manchester,M4 5JA,0161 832 4311,+44 161 832 4311,http://www.tablites.com/
Dr Hermans,53.482735,-2.2358626,57 Church St,Manchester,M4 1PD,0161 834 1130,+44 161 834 1130,
Vampire vape Manchester,53.474287,-2.244078,"Unit 2a, the lock building, Whitworth St W",Manchester,M1 5BD,0161 883 1840,+44 161 883 1840,http://www.vampirevape.co.uk/
The Vaporman,53.5924099,-2.1795667,811 Manchester Rd,Rochdale,OL11 3AH,01706 534802,+44 1706 534802,http://www.thevaporman.co.uk/
Carphone Warehouse,55.8245368,-4.2859865,315 Kilmarnock Rd,Glasgow,G43 1TT,0843 538 1236,+44 843 538 1236,https://www.carphonewarehouse.com/
Vapour Boutique,53.4041909,-1.4980552,66 Owlerton Green,Sheffield,S6 2BH,0114 327 3933,+44 114 327 3933,http://www.vapourboutique.co.uk/
Angel Smoke e-Cigarettes,53.45549,-1.3440585,"62-64 Rawmarsh Hill, Parkgate",Rotherham,S62 6EU,07802 694200,+44 7802 694200,http://angelsmoke.co.uk/index.php?route=common/home
F&S E-CIG VAPE SHOP,51.516583,-0.133291,"55 Rathbone Pl, Fitzrovia",London,W1T 1JS,07592 927485,+44 7592 927485,http://www.fsecig.com/
Vape shop 4 u,51.5492752,-0.075477,91 Kingsland High St,London,E8 2PB,07446 906641,+44 7446 906641,
Vape Surge - Eliquid Shop London,51.5205772,-0.0513817,"2, 116 Mile End Rd",London,E1 4UN,,,http://www.vapesurge.co.uk/
Vape Superstore,51.546275,-0.086851,"2k, Leroy House, Essex Rd",London,N1 3QP,0845 129 7994,+44 845 129 7994,https://www.vapesuperstore.co.uk/
"Atomwise Ltd. (Herb Vapourisers, Electronic Cigarettes, Vape Supplies & E-Liquid specialists)",51.5526439,-0.1408611,24 Fortess Rd,London,NW5 2HB,07866 900700,+44 7866 900700,http://www.atomwise.co.uk/
Smokium,51.5236455,-0.0703317,17 Cheshire St,London,E2 6EL,020 7739 9808,+44 20 7739 9808,http://www.smokium.com/
Avant Garde E Liquid,51.5170728,-0.1377309,"72 Wells St, Fitzrovia",London,W1T 3QF,020 3774 7388,+44 20 3774 7388,http://www.avantgarde-eliquid.com/
Halifax,52.0626063,-1.3352305,"26, Castle Quay Shopping Centre, Castle St",Banbury,OX16 5UH,0345 600 3934,+44 345 600 3934,http://www.halifax.co.uk/
Vapor lounge,51.6418746,-0.0680781,114 St Mark's Rd,Enfield,EN1 1BB,020 8366 1025,+44 20 8366 1025,http://www.vapor-lounge.co.uk/
vapeandecigstore.co.uk,51.5989386,0.1611407,50 Collier Row Rd,Romford,RM5 3PA,01708 700082,+44 1708 700082,http://www.vapeandecigstore.co.uk/
THE VAPE CRUSADER,51.6357044,-0.0126461,"74 Sewardstone Rd, London",CHINGFORD,E4 7PR,020 8279 6002,+44 20 8279 6002,http://thevapecrusader.co.uk/
Lions Vape Lounge,51.587043,-0.020864,"152b Hatherley Rd, Walthamstow",London,E17 4QR,020 3659 4519,+44 20 3659 4519,http://instagram.com/lionsvapelounge
Brown's Wholesale Ltd,52.846358,-3.043172,"Maesbury Rd, Morda",Oswestry,SY10,01691 656333,+44 1691 656333,
Cigtronica,53.4831052,-2.2427228,"Arndale Commercial Center, Marsden Way South",Manchester,M4 3AT,0161 839 8904,+44 161 839 8904,http://www.cigtronica.co.uk/
EcigZoo,52.6652824,0.1599745,25 Market Place,Wisbech,PE13 1DQ,0330 330 0395,+44 330 330 0395,http://www.ecigzoo.co.uk/
Mirage Cigarettes,51.789622,1.154886,28 Rosemary Rd,Clacton-on-Sea,CO15 1PA,01255 423591,+44 1255 423591,
Totally Wicked (Worthing) - Vapors,50.8119552,-0.3654831,16 Brighton Road,Worthing,BN11 3ED,01903 214983,+44 1903 214983,http://www.vapors-ecigs.co.uk/
Cheeky Smoke,50.8167331,-0.3517018,"Coronation Bldg, Ham Rd",Worthing,BN11 2NN,07500 015475,+44 7500 015475,http://www.cheekysmoke.co.uk/
VapeHQ Wakefield,53.6836457,-1.4972427,3A Westmorland St,Wakefield,WF1 1PN,01924 565250,+44 1924 565250,http://vapehq.co.uk/storelocator
Pink Lizard Vaping (E-cigarettes),52.7685675,0.190709,"80 Bridge Rd, Sutton Bridge","Sutton bridge, spalding, lincs",PE12 9SA,01406 259766,+44 1406 259766,
Totally Wicked Cleveleys,53.8766858,-3.0375255,119 Victoria Rd W,Thornton-Cleveleys,FY5 3LA,01253 851157,+44 1253 851157,http://www.totallywicked-retail.co.uk/cleveleys-ecig-shop.html
"E Smoking - Electronic Cigarettes, E-Liquids & Vaping Accessories",53.9207813,-3.0152663,170 Lord St,Fleetwood,FY7 6SR,01253 921534,+44 1253 921534,
"E Smoking - Electronic Cigarettes, E-Liquids & Vaping Accessories",53.8764547,-3.0414497,"9 Runnymede Ave, Blackpool",Thornton-Cleveleys,FY5 1DF,07940 576923,+44 7940 576923,
Decadent Vapours,51.6629987,-3.9049907,"12, Llwyn Y Graig, Garngoch Industrial Estate, Gorseinon",Swansea,SA4 9WG,01792 773339,+44 1792 773339,http://decadentvapours.com/
Vapourlicious,51.6522324,-3.9206975,"9, Horizon Park, Bon-y-maen",Swansea,SA6 8RG,07500 221228,+44 7500 221228,
Flavour Vapour,51.61873,-3.94692,8 Nelson St,Swansea,SA1 3QE,01792 455884,+44 1792 455884,https://plus.google.com/110058608999163406867
The Apothecary,55.9419644,-3.1821637,47 Clerk St,Edinburgh,EH8 9JQ,0131 667 5536,+44 131 667 5536,
Vapelab,52.570788,-0.218294,"Electronic Cigarette LTD Unit 3, Fengate Trade Park, Second Drove",Peterborough,PE1 5XA,0845 259 1935,+44 845 259 1935,http://www.vapelab.com/
Ecigwizard Peterborough Midgate,52.5739475,-0.241033,6 Midgate,Peterborough,PE1 1TN,01733 686515,+44 1733 686515,http://www.ecigwizard.com/
Vaped-out,55.9438146,-3.0600754,116 High St,Musselburgh,EH21 7EA,0131 653 3857,+44 131 653 3857,
Londis News Extra,52.5870322,-2.1265052,"4 Wulfruna St, City Centre",Wolverhampton,WV1 1LX,01902 422915,+44 1902 422915,
Ok Smokey,52.521753,-1.774182,"Unit B5/Park La, Birmingham",minworth,B35 6LJ,0845 245 0506,+44 845 245 0506,http://www.ok-smokey.com/
Multistock,52.4676571,-1.7910264,124 Garretts Green Ln,Birmingham,B26 2JN,0121 742 1800,+44 121 742 1800,http://www.multistock.co.uk/
Vapour-hut,53.2491806,-3.1350433,30-32 Church St,Flint,CH6 5AE,01352 331159,+44 1352 331159,http://vapour-hut.co.uk/
Mirage Electronic Cigarettes,50.4155195,-5.0874358,52 Fore St,Newquay,TR7 1LW,01637 859345,+44 1637 859345,http://www.miragecigarettes.co.uk/home.php
Tidal vape Poole,50.7155113,-1.9840798,115 High St,Poole,BH151AB,01202 684810,+44 1202 684810,http://www.tidalvape.co.uk/
Zaravape,50.7175608,-1.9795212,110 Dolphin Centre,Poole,BH15 1SZ,,,
Vaper Trails,50.739086,-1.874579,61 Alma Rd,Bournemouth,BH9 1AB,07801 733233,+44 7801 733233,http://www.vapertrail.co.uk/
Belair Coffee Systems Ltd.,52.046748,-0.794248,94 Alston Dr,Milton Keynes,MK13 9HF,01908 220200,+44 1908 220200,http://www.belaircoffee.co.uk/
Carmichael's Vaping The Next Generation,52.0574425,-0.8542666,"Stratford Arcade, High St, Stony Stratford",Milton Keynes,MK11 1AY,01908 560416,+44 1908 560416,https://www.facebook.com/CarmichaelsVaping
Cheeky Smokes,53.7457387,-0.3425388,"Prospect Centre, 76 Prospect St",Hull,HU2 8PW,01482 212956,+44 1482 212956,http://www.cheekysmokes.co.uk/
Liberty Flights,53.7449946,-0.3407973,King Edward St,Hull,HU1 3RL,01482 213497,+44 1482 213497,http://www.liberty-flights.co.uk/
MyCiggy Electronic Cigarettes,53.7556003,-0.3109559,311 Holderness Rd,Hull,HU8 8SH,070 5013 6303,+44 70 5013 6303,https://www.myciggy.co.uk/
Time2Vape Ltd,52.3990241,0.2659392,1 The Butter Market 1-3,Ely,CB7 4NY,01353 967270,+44 1353 967270,http://www.time2vape.co.uk/
Lee Vapours Ltd,50.8272714,-1.1757589,192A Nobes Ave,Gosport,PO13 0HY,01329 510207,+44 1329 510207,
Vape 4 life,50.7945561,-1.122121,"The Precinct, South St",Gosport,PO12 1HA,,,https://www.facebook.com/Vape-4-Life-286827641527006/timeline/
Vapeze,53.85792,-2.166664,"Old Empress Mills, King Street",Colne,BB8 9HU,01282 789139,+44 1282 789139,
Uptons Vapourium,54.9865576,-1.5767473,214-216 Chillingham Rd,Newcastle upon Tyne,NE6 5LP,0191 265 1011,+44 191 265 1011,http://www.uptonsvapourium.co.uk/
Uptons Vaporium,54.9912321,-1.5302615,69 Park Rd,Wallsend,NE28 6RA,07535 536708,+44 7535 536708,http://www.uptonsvapourium.co.uk/
Vape and Juice - Vape on the Green,51.6355308,-0.102877,12 Wades Hill,London,N21 1BG,020 3601 6966,+44 20 3601 6966,http://www.vapeandjuice.co.uk/
Liberty Flights - Leigh,53.496063,-2.5194565,United Kingd,,,01942 605290,+44 1942 605290,http://www.liberty-flights.co.uk/
Vape and Juice - The Highgate Vape,51.5730091,-0.1408089,173 Archway Rd,London,N6 5BL,020 3601 6966,+44 20 3601 6966,http://www.vapeandjuice.co.uk/
Vape-X,53.0167197,-1.3008618,16,Nottingham,NG16 3GG,01773 687201,+44 1773 687201,http://www.vapexeliquids.co.uk/
Emporium Vapour,56.007671,-3.7833495,1 Dalderse Ave,Falkirk,FK2,,,http://www.empvap.com/
Vapourz,53.4561262,-2.1194866,9,Manchester,M34 2AF,0161 336 8895,+44 161 336 8895,http://www.vapourz-electronic-cigarettes.co.uk/
e-cigs of Chester,53.1924022,-2.8797456,27 Boughton,Chester,CH3 5AF,01244 311473,+44 1244 311473,http://www.ecigsofchester.org/#!contact-us/c14er
Ecigwizard,51.114359,-0.190152,10 Church Walk,Crawley,RH10 1HH,01293 538897,+44 1293 538897,http://www.ecigwizard.com/
Sensies,52.091024,-1.9414156,"10 Port St, Aston Somerville",Evesham,WR11 1AN,01386 423060,+44 1386 423060,http://www.sensies.co.uk/
Highland Co,55.8734032,-4.2463033,17 N Canal Bank St,Glasgow,G4 9XP,0141 341 3352,+44 141 341 3352,https://highland.gov.uk/
Senior Computers,53.3346852,-3.4041648,81 High St,Prestatyn,LL19 9AP,01745 887696,+44 1745 887696,
Prism Technology,51.211412,1.383794,84 Mill Hill,Deal,CT14 9JB,01304 449873,+44 1304 449873,http://prismtech.org.uk/
TJ's E-Cigarettes Sheerness,51.4384775,0.7633194,129 High St,Sheerness,ME12 1UD,01795 668638,+44 1795 668638,http://www.tj-ecigs.co.uk/
Vaparettes,51.35593,1.0241695,4 Oxford St,Whitstable,CT5 1DD,,,http://www.vaparettes.co.uk/
Electronic Cigarette Store,53.532937,-2.284303,"Unit 15 Longfield Centre, Longfield Centre, Prestwich",Manchester,M25 1AY,0800 193 3244,+44 800 193 3244,http://www.theecigstoreltd.com/
Colls Vapour Lounge,52.8107506,-2.1188652,12 Gaol Rd,Stafford,ST16 3AN,07516 256064,+44 7516 256064,http://www.collsvapourlounge.co.uk/
EZvape Ltd,53.6966526,-2.4684063,Union St,Darwen,BB3 0DA,0845 257 0094,+44 845 257 0094,http://www.ezvape.co.uk/
Vape Smart,51.4810221,-0.6116509,78 Peascod St,Windsor,SL41DH,,,http://www.vape-smart.co.uk/
NVee Ecigs,52.6369686,-1.7092739,"7, Apollo Park Lichfield Road Industrial Estate, 0 Lichfield Rd",Tamworth,B79 7TA,0800 731 1178,+44 800 731 1178,http://nvee.co.uk/
Blue Sky Deli,50.74102,-1.6998793,"287 Lymington Rd, Highcliffe",Christchurch,BH23 5EB,01425 270560,+44 1425 270560,http://blueskydeli.co.uk/
Manchester Seeds,53.4842785,-2.2341743,49 Tib St,Manchester,M4 1LS,0161 478 2621,+44 161 478 2621,http://www.manchesterseedbank.com/
Fairfield Cigar & Vape,38.2490773,-122.0434195,801 Texas St,Fairfield,94533,(707) 421-1555,+1 707-421-1555,http://www.fairfieldcigarandvape.com/
One Wicked Vapor,38.2497294,-122.0506542,1326 W Texas St,Fairfield,94533,(707) 439-3307,+1 707-439-3307,
Freshmist Farnworth,53.5482002,-2.3931437,"134 Market St, Farnworth",Bolton,BL4 9AE,01204 572190,+44 1204 572190,http://www.freshmist.co.uk/
Vapour Blue,50.8320768,-0.277374,61 High St,Shoreham-by-Sea,BN43 5DE,01273 464114,+44 1273 464114,http://www.vapourblue.com/
UR Vapours,52.8042148,0.0122849,14 W End,Holbeach,PE12 7LW,01406 258100,+44 1406 258100,http://www.urvapours.com/
Liberty Flights,53.6030727,-3.0344413,646 Liverpool Rd,Southport,PR8 3LT,01704 570431,+44 1704 570431,http://www.liberty-flights.co.uk/
E Cig Runcorn,53.3425475,-2.7344554,67 Church St,Runcorn,WA7 1LG,07415 322612,+44 7415 322612,
Vape 100,51.5458567,0.0313839,"26 Green St, Forest Gate",London,E7 8BZ,020 8923 0897,+44 20 8923 0897,http://www.vapeisland.co.uk/
Smoketronics Vape & Coffee Shop,51.3809863,-0.0715593,273 Lower Addiscombe Rd,Croydon,CR02RJ,020 8656 6683,+44 20 8656 6683,http://www.smoketronics.co.uk/
Electronic cigarette shop My Fog,51.409703,-0.144855,101 Woodstock Way,London,CR4 1BF,07706 549239,+44 7706 549239,http://www.myfog.co.uk/
VAPE the APE Electronic Cigarettes and ELiquid,51.625475,-4.015386,"72 Coleridge Cres, Killay",Swansea,SA2 7ER,,,http://www.vapetheape.com/
Hoddesdon Food & Wine,51.7672794,-0.0122479,50 Ware Rd,Hoddesdon,EN11 9DU,01992 468519,+44 1992 468519,
Crystal Vapours,53.4125301,-2.8718626,"5 Childwall Ln, Liverpool",Huyton,L14 6TT,0151 443 0605,+44 151 443 0605,http://www.cvcigs.com/
vapourettes,51.478107,-0.276922,Melliss Avenue,Richmond,TW9 4BA,07921 774823,+44 7921 774823,http://www.vapourettes.com/
Vape Store Harrow,51.5796027,-0.3342448,365 Station Rd,Harrow,HA1 2AW,0333 323 7733,+44 333 323 7733,http://www.vape.uk.net/
E-vapor,51.5621719,-1.7860892,26 Bridge St,Swindon,SN1 1BP,07473 731198,+44 7473 731198,http://www.evapor.co.uk/
The Vapour Stop,53.7530424,-3.0302345,72 St George's Rd,Lytham Saint Annes,FY8 2AE,01253 283397,+44 1253 283397,
The Vapourist - Electronic Cigarettes,53.261146,-1.427757,"Progress House, Whittington Moor Roundabout",Chesterfield,S41 9AP,0800 195 0077,+44 800 195 0077,http://www.the-vapourist.co.uk/
Ecloud Electronic Cigarettes,53.4820948,-1.5917196,"484 Manchester Rd, Stocksbridge",Sheffield,S36 2DU,0114 288 8223,+44 114 288 8223,https://www.ecloudonline.co.uk/
Ecloud Electronic Cigarettes Ltd,53.5311433,-1.468585,"62 Park Rd, Worsbrough",Barnsley,S70 5AB,01226 779855,+44 1226 779855,https://www.ecloudonline.co.uk/
Mirage Cigarettes,52.4738323,1.7487709,17 Commercial Rd,Lowestoft,NR32 2TD,01502 534779,+44 1502 534779,
Bytetech Vaping and Computers,52.4607191,-2.1630511,1 High St,Stourbridge,DY8 4NH,01384 377982,+44 1384 377982,http://www.bytetechcomputers.co.uk/
Vapourator.com,54.8831752,-2.9419341,32 Shankly Rd,Carlisle,CA2 5SL,01228 491622,+44 1228 491622,
Kustomvape,55.9307868,-3.2447358,38 W Gorgie Parks,Edinburgh,EH14 1UT,0800 015 5464,+44 800 015 5464,
Noble Vaping,51.5243139,-0.0799697,36 Great Eastern St,London,EC2A 3ES,020 3487 0612,+44 20 3487 0612,http://www.noblevaping.co.uk/
Smoke NO Smoke Camden,51.54839,-0.1284204,167 York Way,London,N7 9LN,020 3609 1557,+44 20 3609 1557,http://www.smoke-no-smoke.co.uk/Camden.htm
Vape Cloud,51.5269894,-0.1372235,"122 Drummond St, Kings Cross",London,NW1 2HN,07921 521938,+44 7921 521938,http://vapecloudnw1.co.uk/
Vaperz,51.5295966,-0.1298254,"46 Chalton St, Kings Cross",London,NW1 1JB,020 7383 7439,+44 20 7383 7439,http://vaperz.co.uk/
UK ECIG STORE CAMDEN,51.5398264,-0.1424548,17 Kentish Town Rd,London,NW1 8NH,020 3475 4885,+44 20 3475 4885,http://www.ukecigstore.com/
Ecig Superstore Liverpool,53.4226788,-2.9583147,"6, The Mall, Breck Rd",Liverpool,L5 6SP,0151 260 0500,+44 151 260 0500,http://ecigsuperstoreliverpool.com/
The Vapour Stop Blackpool,53.8038877,-3.0452799,403 Central Dr,Blackpool,FY1 6LE,01253 344404,+44 1253 344404,
No Match,53.7985138,-3.0531521,"Victoria Centre, 25 Waterloo Rd",Blackpool,FY4 1AD,01253 365159,+44 1253 365159,http://www.no-match.co.uk/
Cloud Inc. Vapes,51.5207814,-0.2094533,321 Portobello Rd,London,W10 5SY,020 8354 0386,+44 20 8354 0386,http://www.cloudincvapes.co.uk/
The Joke Shop,51.3892175,1.3803719,9 High St,Margate,CT9 1DL,01843 226543,+44 1843 226543,
The New Continental Hotel,50.368536,-4.1484939,Millbay Rd,Plymouth,PL1 3LD,01752 220782,+44 1752 220782,http://www.newcontinental.co.uk/
Life's A Drag,50.728791,-1.9365146,342 Ashley Rd,Poole,BH14 9DF,01202 730005,+44 1202 730005,http://www.lifesadrag.net/
Alchemy,51.517756,-0.2066818,261 Portobello Rd,London,W11 1LR,020 7792 0166,+44 20 7792 0166,http://www.leeharris.co.uk/Alchemy/alchemy_contents.htm
Londis,52.5100185,-1.8113152,"Fort Dunlop, Unit 2A, Birmingham",Parkway,B24 9FD,0121 748 3593,+44 121 748 3593,http://supermarket.londis.co.uk/43201-unit-2a?utm_source=google&utm_medium=places&utm_campaign=londis_20121206DB-V2
Apollo ECigs UK | E-Liquids | Vape kits,51.3674671,-0.1040589,"7A, Rathbone Square, Tanfield Rd, Croydon",London,CR0 1BT,020 8240 4464,+44 20 8240 4464,https://www.apolloecigs.co.uk/
Krayzee Vape Cafe,51.6522507,-0.0772342,"Savoy Parade, 2 Southbury Rd",Enfield,EN1 1RT,020 8363 0147,+44 20 8363 0147,http://www.grillkrayzee.co.uk/
Cigs & Papers,52.6291347,1.293345,2 Exchange St,Norwich,NR2 1AT,01603 628643,+44 1603 628643,
Vape Town @ E1,51.5187592,-0.0713768,64 Brick Ln,London,E1 6RF,07707 653921,+44 7707 653921,http://www.vape-town.co.uk/
Little Box Of Vape Ltd,50.8353194,-0.2484248,3 Larke Cl,Shoreham-by-Sea,BN43 6ED,07970 833685,+44 7970 833685,http://www.littleboxofvape.co.uk/
LL&H Cigarettes,52.9536322,-1.1426237,28 Goose Gate,Nottingham,NG1 1FF,07877 239596,+44 7877 239596,http://www.llhcigarettes.co.uk/
vape safe uk,52.5533422,-2.0185658,118 Walsall St,Wednesbury,WS10 9BY,07894 711198,+44 7894 711198,
Liberty Flights - Electronic Cigarettes,53.7443573,-0.3401112,11 King Edward St,Hull,HU1 3RL,0345 257 9008,+44 345 257 9008,http://www.liberty-flights.co.uk/
Crazy Wire Co Ltd,53.3910564,-2.5732034,Farrell St,Warrington,WA1 2WW,01925 406602,+44 1925 406602,http://www.wireandstuff.co.uk/
Electro Vapours,53.4482342,-2.3636939,"144 Flixton Rd, Urmston",Manchester,M41 5BG,0161 879 3523,+44 161 879 3523,http://www.electrovapours.com/
Evapor8,53.4992603,-2.3062271,307 Bolton Rd,Salford,M6 7GU,0161 737 9062,+44 161 737 9062,
WRS Mobile Computer Repair,51.3862172,1.4011139,"King St, Margate",Ramsgate,CT11,01843 449557,+44 1843 449557,http://sites.google.com/site/wrsmobilecomputerrepair/
Stylex Cloud,51.5800614,0.1823074,"21, 43 Market Pl",Romford,RM1 3AB,01708 922004,+44 1708 922004,http://www.stylexcloud.co.uk/
Aladdin's Cave,58.2067808,-6.3818815,2 Inaclete Rd,Stornoway,HS1 2RB,01851 703253,+44 1851 703253,http://www.facebook.com/aladdinscave
Vaper Star Electronic Cigarettes and accessories,50.7148282,-2.4355419,"3, The Mews, Durngate St",Dorchester,DT1 1JP,01305 269971,+44 1305 269971,https://www.vaperstar.co.uk/
Wimpy,51.5404371,0.7133186,"226-227 Churchill Square, Victoria Plaza",Southend-on-Sea,SS2 5SB,01702 610134,+44 1702 610134,http://wimpy.uk.com/
Lush Vapes,53.032152,-2.2184378,99 High St,Newcastle-under-Lyme,ST5 0EP,01782 461650,+44 1782 461650,http://www.lush-vapes.co.uk/
Sparks e-cigarettes,51.8166356,-0.811346,"17, Hale Leys, High St",Aylesbury,HP20 1ST,01296 706550,+44 1296 706550,http://www.sparksecigs.co.uk/
Vapour Monkey,50.7307625,-1.1608864,"Salsette Court, 30 The Strand",Ryde,PO33 1JH,01983 613343,+44 1983 613343,
